{"type":"FeatureCollection","features":[{"type":"Feature","properties":{"id":"derbent","name_en":"Derbent","name_kk":"Дербент","name_ru":"Дербент","pop":105965},"geometry":{"type":"Point","coordinates":[48.2774,42.0578]}},{"type":"Feature","properties":{"id":"makhachkala","name_en":"Makhachkala","name_kk":"Махачкала","name_ru":"Махачкала","pop":554981},"geometry":{"type":"Point","coordinates":[47.5,42.98]}},{"type":"Feature","properties":{"id":"aqtau","name_en":"Aqtau","name_kk":"Ақтау","name_ru":"Актау","pop":4479},"geometry":{"type":"Point","coordinates":[51.2365,43.6232]}},{"type":"Feature","properties":{"id":"rasht","name_en":"Rasht","name_kk":"Решт","name_ru":"Решт","pop":594590},"geometry":{"type":"Point","coordinates":[49.63,37.3]}},{"type":"Feature","properties":{"id":"astrakhan","name_en":"Astrakhan","name_kk":"Астрахан","name_ru":"Астрахань","pop":502533},"geometry":{"type":"Point","coordinates":[48.055,46.3487]}},{"type":"Feature","properties":{"id":"atyrau","name_en":"Atyrau","name_kk":"Атырау","name_ru":"Атырау","pop":182753},"geometry":{"type":"Point","coordinates":[51.92,47.1127]}},{"type":"Feature","properties":{"id":"baku","name_en":"Baku","name_kk":"Баку","name_ru":"Баку","pop":2122300},"geometry":{"type":"Point","coordinates":[49.8603,40.3972]}},{"type":"Feature","properties":{"id":"turkmenbasy","name_en":"Turkmenbasy","name_kk":"Түркменбашы","name_ru":"Туркменбаши","pop":0},"geometry":{"type":"Point","coordinates":[52.97,40.02]}},{"type":"Feature","properties":{"id":"bandar-e-anzali","name_en":"Bandar-e Anzali","name_kk":"Бендер-Энзели","name_ru":"Бендер-Энзели","pop":0},"geometry":{"type":"Point","coordinates":[49.46,37.47]}},{"type":"Feature","properties":{"id":"zhanga-ozen","name_en":"Zhanga Ozen","name_kk":"Жаңаөзен","name_ru":"Жанаозен","pop":0},"geometry":{"type":"Point","coordinates":[52.86,43.34]}},{"type":"Feature","properties":{"id":"fort-shevchenko","name_en":"Fort-Shevchenko","name_kk":"Форт-Шевченко","name_ru":"Форт-Шевченко","pop":0},"geometry":{"type":"Point","coordinates":[50.26,44.51]}},{"type":"Feature","properties":{"id":"sumqayit","name_en":"Sumqayit","name_kk":"Сумгайыт","name_ru":"Сумгаит","pop":0},"geometry":{"type":"Point","coordinates":[49.66,40.59]}}]}