{"type":"FeatureCollection","meta":{"year":1995,"level_m":-26.6,"reference_year":2015,"reference_level_m":-27.85,"status":"semi","model":"cross-shore translation: retreat = Δlevel / tan(β)","source_id":"model","projected":false},"features":[{"type":"Feature","properties":{"year":1995,"level_m":-26.6},"geometry":{"type":"Polygon","coordinates":[[[54.74179,41.0069],[54.72306,41.02718],[54.70164,41.04939],[54.68806,41.0627],[54.68867,41.06587],[54.70407,41.06297],[54.72889,41.05518],[54.75003,41.04802],[54.75553,41.04963],[54.74771,41.05837],[54.73739,41.06757],[54.7301,41.07512],[54.72597,41.08107],[54.72461,41.08589],[54.72549,41.09043],[54.72781,41.09446],[54.72995,41.09851],[54.72682,41.10481],[54.71238,41.11245],[54.68819,41.11855],[54.66378,41.12604],[54.6454,41.14133],[54.61725,41.17113],[54.54641,41.22165],[54.43809,41.28174],[54.34549,41.32708],[54.29308,41.35427],[54.25741,41.37596],[54.22433,41.39449],[54.20076,41.40736],[54.18697,41.4187],[54.17415,41.43318],[54.15742,41.44778],[54.13654,41.45786],[54.11369,41.46619],[54.09353,41.47707],[54.07743,41.49133],[54.06247,41.51082],[54.0481,41.53802],[54.03726,41.5748],[54.03123,41.62386],[54.02716,41.67944],[54.02074,41.7277],[54.00789,41.76691],[53.9861,41.80629],[53.96117,41.84448],[53.94315,41.8706],[53.93192,41.88197],[53.92159,41.88575],[53.91235,41.88933],[53.90677,41.89592],[53.905,41.9047],[53.90646,41.91394],[53.9097,41.92331],[53.91195,41.93334],[53.91142,41.94502],[53.90986,41.95904],[53.91111,41.97497],[53.91546,41.99165],[53.91888,42.00813],[53.91878,42.02523],[53.9153,42.04381],[53.90734,42.06304],[53.89055,42.08286],[53.86036,42.10321],[53.81804,42.11967],[53.77092,42.12783],[53.7088,42.12914],[53.5987,42.1227],[53.45488,42.10618],[53.34381,42.08831],[53.27923,42.08081],[53.22471,42.08418],[53.17095,42.08807],[53.12673,42.08125],[53.0873,42.06104],[53.04013,42.02957],[52.98142,41.98156],[52.91647,41.9059],[52.85587,41.81801],[52.8148,41.75813],[52.79546,41.73388],[52.78585,41.71919],[52.7792,41.70012],[52.77636,41.68073],[52.78055,41.66962],[52.79396,41.6724],[52.815,41.68427],[52.84208,41.69333],[52.87291,41.69376],[52.89919,41.68691],[52.91278,41.67445],[52.91332,41.65854],[52.90721,41.64286],[52.90246,41.62947],[52.90226,41.61653],[52.90408,41.60177],[52.90053,41.57796],[52.88266,41.53166],[52.85494,41.47009],[52.83345,41.42126],[52.82364,41.39476],[52.82108,41.37942],[52.82421,41.36336],[52.83196,41.3368],[52.8409,41.29754],[52.85165,41.25284],[52.8701,41.20667],[52.89319,41.16145],[52.90635,41.12513],[52.90369,41.09819],[52.8936,41.07492],[52.88403,41.0585],[52.87585,41.05457],[52.86703,41.06033],[52.85834,41.06927],[52.85372,41.07993],[52.85436,41.09569],[52.85692,41.11751],[52.8575,41.14126],[52.85421,41.16326],[52.84767,41.18261],[52.83965,41.19822],[52.83138,41.20945],[52.824,41.2177],[52.81925,41.22579],[52.81767,41.23664],[52.81648,41.25302],[52.81119,41.2779],[52.80162,41.30705],[52.79113,41.33085],[52.77914,41.35003],[52.76345,41.36809],[52.74679,41.38069],[52.73435,41.38808],[52.72754,41.39594],[52.7239,41.40588],[52.72114,41.41644],[52.71675,41.42613],[52.70769,41.43434],[52.69366,41.44121],[52.67713,41.447],[52.65978,41.45446],[52.64035,41.46799],[52.61747,41.48522],[52.59486,41.499],[52.57805,41.5099],[52.56888,41.52297],[52.56715,41.53766],[52.57272,41.55246],[52.58214,41.56787],[52.58913,41.58278],[52.59158,41.59715],[52.5924,41.61114],[52.59427,41.6228],[52.59674,41.632],[52.59699,41.63956],[52.59324,41.64485],[52.58753,41.64799],[52.58335,41.65182],[52.58048,41.6598],[52.57579,41.67097],[52.56841,41.68014],[52.55953,41.68457],[52.5498,41.68622],[52.53998,41.6887],[52.53105,41.69407],[52.52187,41.7005],[52.51036,41.7062],[52.49679,41.71282],[52.48286,41.72057],[52.46839,41.72792],[52.45422,41.73705],[52.4449,41.75108],[52.44527,41.7727],[52.45744,41.80729],[52.47552,41.85355],[52.48675,41.89916],[52.48551,41.93498],[52.47651,41.96025],[52.46534,41.97678],[52.45471,41.98718],[52.44572,41.99496],[52.43963,42.00475],[52.43776,42.02061],[52.43853,42.04021],[52.43639,42.05769],[52.4278,42.07334],[52.41883,42.09004],[52.41818,42.10741],[52.42434,42.12538],[52.43057,42.14411],[52.43563,42.16151],[52.44285,42.17507],[52.45465,42.18448],[52.47232,42.19592],[52.49979,42.22225],[52.5376,42.26557],[52.57323,42.30712],[52.5938,42.33176],[52.60134,42.34552],[52.60369,42.35916],[52.60458,42.37391],[52.60737,42.387],[52.61658,42.39959],[52.6309,42.41327],[52.6428,42.42638],[52.64871,42.4385],[52.65227,42.4523],[52.65844,42.47241],[52.66783,42.50199],[52.67504,42.53796],[52.67344,42.57579],[52.66102,42.61392],[52.64016,42.64908],[52.61405,42.67739],[52.58872,42.70011],[52.57317,42.72037],[52.57039,42.73638],[52.57561,42.74227],[52.5837,42.73507],[52.59314,42.71931],[52.60469,42.70347],[52.61907,42.6921],[52.6369,42.68265],[52.65519,42.67214],[52.6673,42.66215],[52.67224,42.65487],[52.67576,42.64824],[52.68249,42.63614],[52.69238,42.61698],[52.70281,42.59902],[52.71297,42.59168],[52.72366,42.59799],[52.73383,42.61486],[52.74088,42.63763],[52.74139,42.66552],[52.7313,42.69727],[52.70813,42.72519],[52.67568,42.74388],[52.64319,42.75859],[52.6084,42.77738],[52.55299,42.80017],[52.47515,42.8195],[52.40437,42.82907],[52.36402,42.8299],[52.3462,42.82694],[52.3347,42.82272],[52.32461,42.81685],[52.31586,42.8086],[52.30658,42.80032],[52.29067,42.80092],[52.25993,42.82024],[52.21725,42.8524],[52.17325,42.87655],[52.12457,42.88166],[52.06471,42.87289],[52.00608,42.85837],[51.96341,42.84583],[51.93305,42.84403],[51.90245,42.85866],[51.86962,42.8853],[51.84225,42.91333],[51.82248,42.9376],[51.80732,42.95918],[51.79525,42.98177],[51.78235,43.00812],[51.76243,43.03709],[51.73708,43.06466],[51.71516,43.08459],[51.69962,43.09432],[51.68791,43.09876],[51.67983,43.10405],[51.67648,43.1118],[51.67764,43.12063],[51.68095,43.1306],[51.68224,43.14385],[51.67789,43.16063],[51.66548,43.17618],[51.64232,43.18375],[51.60848,43.18304],[51.57287,43.17941],[51.54751,43.17487],[51.53433,43.16884],[51.52611,43.16303],[51.51747,43.15931],[51.50688,43.1585],[51.49305,43.16119],[51.47167,43.16496],[51.43113,43.16485],[51.368,43.16123],[51.30724,43.16134],[51.27768,43.17429],[51.28028,43.20774],[51.29708,43.26319],[51.31165,43.33504],[51.31583,43.40811],[51.30812,43.46345],[51.29421,43.49688],[51.2838,43.51673],[51.27954,43.53156],[51.27665,43.54619],[51.26876,43.56087],[51.25175,43.57621],[51.2308,43.5931],[51.21566,43.60907],[51.20656,43.62036],[51.19752,43.62501],[51.18682,43.62489],[51.17592,43.62407],[51.16559,43.62512],[51.15439,43.62999],[51.1345,43.64923],[51.09726,43.69763],[51.05311,43.76278],[51.02446,43.81087],[51.01427,43.83348],[51.00964,43.84531],[51.00412,43.85437],[50.99834,43.86181],[50.99352,43.86979],[50.99081,43.8811],[50.99034,43.89514],[50.98786,43.90906],[50.97783,43.92271],[50.9627,43.93677],[50.94946,43.95112],[50.93847,43.96687],[50.92665,43.98398],[50.9145,43.99935],[50.9025,44.01018],[50.88899,44.01692],[50.87496,44.02238],[50.8639,44.02928],[50.85714,44.03822],[50.85451,44.04796],[50.85509,44.06258],[50.85605,44.09222],[50.85544,44.13348],[50.85189,44.16875],[50.84058,44.19325],[50.81382,44.21557],[50.74821,44.24119],[50.6135,44.27154],[50.4451,44.30197],[50.32836,44.32446],[50.28067,44.33953],[50.25923,44.35405],[50.24324,44.37295],[50.23462,44.39875],[50.23268,44.42857],[50.23248,44.45442],[50.23154,44.47271],[50.22968,44.4881],[50.22613,44.50814],[50.22372,44.53501],[50.22788,44.56007],[50.23929,44.57148],[50.25314,44.57242],[50.26402,44.57919],[50.26915,44.59644],[50.27071,44.61392],[50.27271,44.62563],[50.27535,44.63541],[50.27929,44.64765],[50.28924,44.66072],[50.30669,44.66896],[50.32531,44.66956],[50.34749,44.66454],[50.39425,44.65614],[50.46723,44.648],[50.53583,44.64586],[50.58398,44.64788],[50.61668,44.64598],[50.64096,44.63986],[50.67178,44.63469],[50.71288,44.63002],[50.74389,44.62435],[50.75435,44.62085],[50.75567,44.62206],[50.75839,44.62738],[50.76555,44.6351],[50.7805,44.6423],[50.80727,44.64599],[50.84269,44.64504],[50.87707,44.63839],[50.90636,44.62312],[50.93257,44.60059],[50.95538,44.5806],[50.97423,44.57087],[50.99059,44.56808],[51.003,44.56491],[51.008,44.55931],[51.00575,44.55356],[51.00129,44.54843],[51.00236,44.54133],[51.01771,44.5296],[51.05276,44.51369],[51.09922,44.49848],[51.14054,44.49007],[51.17212,44.4896],[51.20091,44.49606],[51.23167,44.5104],[51.25946,44.52813],[51.27545,44.54029],[51.28119,44.54589],[51.28534,44.54966],[51.29259,44.55283],[51.30466,44.55449],[51.32163,44.55542],[51.34172,44.55722],[51.36138,44.55741],[51.37579,44.5501],[51.39001,44.53748],[51.42044,44.52872],[51.47046,44.52385],[51.52077,44.51879],[51.55357,44.51805],[51.56712,44.52564],[51.56609,44.53794],[51.55276,44.55118],[51.52605,44.5672],[51.48856,44.58876],[51.44834,44.60946],[51.40778,44.61785],[51.36671,44.61419],[51.33126,44.61563],[51.30352,44.63969],[51.27681,44.68178],[51.24357,44.72269],[51.20033,44.75462],[51.15706,44.77861],[51.12926,44.79364],[51.11326,44.80222],[51.09523,44.80845],[51.07614,44.81268],[51.0639,44.81585],[51.05291,44.8222],[51.03109,44.83505],[51.00089,44.8522],[50.97381,44.87005],[50.95709,44.88914],[50.95511,44.9081],[50.9637,44.92135],[50.97384,44.9277],[50.9858,44.9325],[50.9978,44.9404],[50.99882,44.9505],[50.98778,44.95839],[50.97366,44.96189],[50.95927,44.96454],[50.94878,44.9723],[50.95343,44.98573],[50.97454,44.99888],[51.00182,45.00701],[51.02706,45.01004],[51.04588,45.01053],[51.05718,45.01167],[51.06454,45.01548],[51.07237,45.02261],[51.08465,45.03325],[51.10587,45.04699],[51.13571,45.0614],[51.16795,45.07153],[51.19791,45.07281],[51.22377,45.06482],[51.24359,45.05251],[51.25847,45.04271],[51.27324,45.03975],[51.28607,45.04621],[51.28804,45.06169],[51.27933,45.07965],[51.26756,45.09372],[51.25443,45.10481],[51.24201,45.11618],[51.23877,45.12719],[51.24806,45.13707],[51.25829,45.14732],[51.25447,45.15782],[51.24173,45.16866],[51.23895,45.18337],[51.25112,45.20383],[51.26813,45.22638],[51.28685,45.25043],[51.31694,45.28287],[51.35487,45.32098],[51.38135,45.3522],[51.39564,45.37395],[51.41429,45.38547],[51.44172,45.38067],[51.47176,45.36524],[51.50412,45.3539],[51.54137,45.35294],[51.57963,45.36076],[51.61323,45.37465],[51.64112,45.38956],[51.66363,45.39912],[51.6792,45.40287],[51.6888,45.40752],[51.69785,45.41878],[51.71098,45.43573],[51.73065,45.45207],[51.75596,45.45939],[51.78005,45.45377],[51.79596,45.44043],[51.80733,45.42742],[51.82924,45.41767],[51.86629,45.40896],[51.90254,45.39879],[51.92585,45.38903],[51.94032,45.38493],[51.9561,45.38931],[51.97924,45.39844],[52.00814,45.40462],[52.0392,45.40404],[52.08652,45.40159],[52.18426,45.40486],[52.32231,45.41265],[52.43906,45.41774],[52.52119,45.41482],[52.61091,45.39906],[52.72002,45.37362],[52.81659,45.35074],[52.88133,45.33693],[52.9318,45.33143],[52.98535,45.32993],[53.03652,45.32614],[53.07618,45.31985],[53.10443,45.31737],[53.12956,45.32224],[53.15648,45.33089],[53.1781,45.33764],[53.1909,45.34222],[53.20369,45.34697],[53.2214,45.3501],[53.23624,45.34983],[53.24169,45.34864],[53.24494,45.3488],[53.25633,45.35068],[53.27021,45.35658],[53.26521,45.36832],[53.22949,45.38225],[53.18276,45.39299],[53.15364,45.39979],[53.14207,45.40568],[53.13072,45.41228],[53.11085,45.41862],[53.07581,45.42697],[53.01803,45.44292],[52.95157,45.46322],[52.90612,45.47767],[52.88621,45.48622],[52.87399,45.49511],[52.85899,45.50393],[52.83723,45.51086],[52.80743,45.51779],[52.77912,45.52537],[52.76384,45.5327],[52.75931,45.54081],[52.75663,45.54921],[52.75449,45.55554],[52.75575,45.5614],[52.75917,45.57008],[52.76099,45.58049],[52.76043,45.59063],[52.75986,45.6024],[52.75973,45.61826],[52.75818,45.63716],[52.75825,45.65453],[52.76723,45.66586],[52.78532,45.67442],[52.80369,45.69219],[52.81924,45.72457],[52.83777,45.7597],[52.85934,45.78344],[52.87896,45.79523],[52.8959,45.80311],[52.91522,45.81445],[52.94326,45.83127],[52.97362,45.85305],[52.99213,45.88045],[53.00065,45.90893],[53.01248,45.92955],[53.03211,45.9404],[53.05154,45.94936],[53.06172,45.96377],[53.06997,45.98232],[53.08584,46.0014],[53.09938,46.01961],[53.10216,46.03345],[53.09807,46.04212],[53.0896,46.05244],[53.0851,46.06817],[53.0971,46.08447],[53.11978,46.10162],[53.14144,46.13329],[53.16739,46.19035],[53.1953,46.26546],[53.20197,46.34176],[53.17715,46.40682],[53.13721,46.45527],[53.10699,46.48484],[53.09937,46.49514],[53.10697,46.49224],[53.11964,46.48652],[53.13272,46.48389],[53.13944,46.48432],[53.13944,46.48906],[53.13102,46.50323],[53.09994,46.52251],[53.05101,46.532],[53.01837,46.52813],[53.02071,46.51891],[53.0341,46.51233],[53.024,46.52118],[53.00445,46.54905],[53.01958,46.57451],[53.05804,46.58256],[53.07188,46.58312],[53.06527,46.58233],[53.08127,46.57839],[53.12094,46.58297],[53.14616,46.60629],[53.14511,46.63059],[53.12672,46.63663],[53.09949,46.63572],[53.08749,46.64487],[53.10675,46.66154],[53.14073,46.67458],[53.16299,46.67909],[53.1722,46.67538],[53.19378,46.66334],[53.2323,46.65358],[53.25911,46.66607],[53.25534,46.70161],[53.22551,46.73942],[53.18651,46.76299],[53.16036,46.76987],[53.15565,46.76781],[53.16014,46.77414],[53.15819,46.80416],[53.14616,46.84955],[53.12783,46.88854],[53.09996,46.91464],[53.06166,46.93113],[53.03112,46.93746],[53.01991,46.93929],[53.0094,46.94978],[52.97849,46.97136],[52.9258,46.99042],[52.85963,46.9965],[52.78786,46.99484],[52.71569,46.99406],[52.65543,46.99504],[52.62132,46.99728],[52.60223,47.00497],[52.57271,47.01947],[52.52458,47.03368],[52.46695,47.03855],[52.42292,47.02919],[52.42061,47.00676],[52.4455,46.98119],[52.43989,46.96392],[52.39114,46.95365],[52.34113,46.94237],[52.30489,46.92977],[52.27314,46.92036],[52.24516,46.91773],[52.21912,46.91684],[52.20716,46.90568],[52.21908,46.889],[52.2319,46.88414],[52.2351,46.88929],[52.2456,46.88895],[52.26579,46.87895],[52.28426,46.86429],[52.29668,46.84747],[52.29995,46.83184],[52.27914,46.82827],[52.22469,46.84011],[52.16247,46.85364],[52.12818,46.85886],[52.1228,46.85746],[52.12703,46.85383],[52.12754,46.85569],[52.11808,46.86754],[52.10189,46.88289],[52.08507,46.89612],[52.06926,46.90698],[52.05954,46.91129],[52.05222,46.90953],[52.02795,46.91381],[51.99788,46.92627],[52.00385,46.93541],[52.03436,46.94355],[52.03048,46.95696],[51.98393,46.96048],[51.93879,46.94472],[51.92106,46.92731],[51.91983,46.92275],[51.90891,46.92397],[51.87504,46.92293],[51.8462,46.9267],[51.85794,46.94161],[51.88207,46.95913],[51.86822,46.96783],[51.8279,46.96504],[51.80089,46.95759],[51.79495,46.95401],[51.79398,46.95602],[51.78518,46.96306],[51.7678,46.97347],[51.74379,46.98359],[51.71581,46.998],[51.70234,47.02414],[51.70735,47.05656],[51.69359,47.08141],[51.64623,47.08663],[51.59751,47.07041],[51.57061,47.04582],[51.56616,47.02849],[51.58186,47.02325],[51.60535,47.02717],[51.61319,47.04005],[51.59571,47.06179],[51.56006,47.08482],[51.51245,47.10202],[51.45266,47.11516],[51.37872,47.12932],[51.2985,47.1445],[51.22588,47.15351],[51.16535,47.1499],[51.11148,47.13672],[51.0502,47.12055],[50.97831,47.1024],[50.91993,47.08286],[50.89618,47.06802],[50.9008,47.06255],[50.90805,47.06517],[50.89347,47.07173],[50.85588,47.0741],[50.82295,47.06508],[50.82052,47.04855],[50.82699,47.03474],[50.80556,47.02333],[50.76738,47.00144],[50.74849,46.96964],[50.75267,46.94731],[50.74576,46.94434],[50.72484,46.95437],[50.73208,46.96877],[50.75755,46.98468],[50.74842,46.99727],[50.70729,46.99633],[50.67293,46.98502],[50.6578,46.97679],[50.64769,46.97428],[50.62311,46.96898],[50.58491,46.95079],[50.55508,46.91963],[50.54295,46.88992],[50.54083,46.87423],[50.54049,46.86836],[50.53198,46.86256],[50.51691,46.8598],[50.51719,46.86836],[50.542,46.88638],[50.56241,46.90558],[50.54738,46.91671],[50.51055,46.91585],[50.48729,46.90878],[50.48959,46.9012],[50.50154,46.89643],[50.50055,46.89956],[50.48258,46.90968],[50.45924,46.9187],[50.43605,46.92134],[50.41317,46.91702],[50.39229,46.90368],[50.37483,46.87885],[50.36305,46.85083],[50.35942,46.83537],[50.36356,46.83821],[50.36309,46.84968],[50.34519,46.85414],[50.32255,46.84712],[50.3126,46.83822],[50.31267,46.83504],[50.31164,46.83551],[50.30184,46.83417],[50.28561,46.82877],[50.26847,46.81784],[50.24898,46.79763],[50.23051,46.7726],[50.22076,46.75522],[50.21146,46.7491],[50.19999,46.7506],[50.20532,46.75897],[50.22025,46.7722],[50.21274,46.78244],[50.17691,46.77824],[50.12453,46.75217],[50.06897,46.71209],[50.02964,46.67825],[50.01151,46.66212],[49.99791,46.65833],[49.97559,46.65673],[49.94819,46.65101],[49.92544,46.64082],[49.90989,46.63043],[49.89484,46.62159],[49.87764,46.61237],[49.8654,46.60517],[49.85401,46.60247],[49.83091,46.59694],[49.80479,46.58331],[49.79546,46.57045],[49.80268,46.56726],[49.80892,46.57201],[49.79879,46.5791],[49.77083,46.58008],[49.74161,46.56981],[49.73188,46.55767],[49.7432,46.55497],[49.75535,46.56159],[49.74787,46.57214],[49.71985,46.57823],[49.68801,46.57118],[49.67303,46.55377],[49.68091,46.54329],[49.68605,46.55453],[49.65964,46.57662],[49.61654,46.58184],[49.59196,46.56471],[49.59005,46.5476],[49.58807,46.54172],[49.57787,46.53645],[49.57711,46.52845],[49.58985,46.52725],[49.59199,46.53856],[49.5703,46.55835],[49.53476,46.57481],[49.49197,46.57992],[49.44859,46.57904],[49.42856,46.5765],[49.44937,46.56921],[49.49375,46.55801],[49.52354,46.54362],[49.52014,46.52817],[49.50294,46.52228],[49.49507,46.529],[49.49405,46.53661],[49.48825,46.5363],[49.46782,46.5314],[49.43578,46.52867],[49.41919,46.53069],[49.43496,46.53985],[49.46008,46.55718],[49.45885,46.5739],[49.42738,46.57781],[49.39568,46.56987],[49.38923,46.565],[49.39873,46.57085],[49.39788,46.58008],[49.37711,46.58834],[49.34556,46.59638],[49.33136,46.59524],[49.35166,46.57267],[49.37443,46.53657],[49.37308,46.5131],[49.36335,46.51199],[49.35975,46.51686],[49.36141,46.51763],[49.36068,46.52181],[49.34641,46.53421],[49.32,46.54753],[49.30433,46.55033],[49.30854,46.5383],[49.30922,46.51692],[49.30745,46.49751],[49.32936,46.48623],[49.36084,46.47379],[49.36562,46.45103],[49.34376,46.42654],[49.32798,46.41346],[49.33739,46.41428],[49.35541,46.42431],[49.35904,46.43708],[49.34883,46.4488],[49.33533,46.46091],[49.31872,46.47551],[49.29283,46.49039],[49.26117,46.49995],[49.24588,46.50005],[49.25293,46.49009],[49.24996,46.4714],[49.23053,46.45073],[49.23651,46.43836],[49.27312,46.43332],[49.29384,46.42845],[49.28619,46.42553],[49.27383,46.42823],[49.25228,46.43547],[49.209,46.4414],[49.16784,46.43741],[49.16223,46.42592],[49.18616,46.41949],[49.2058,46.4211],[49.21475,46.42209],[49.22396,46.4135],[49.21991,46.39206],[49.19618,46.3647],[49.17633,46.34305],[49.17803,46.33288],[49.20541,46.33241],[49.25252,46.33151],[49.29196,46.31884],[49.29805,46.29701],[49.28189,46.28094],[49.27568,46.27894],[49.2846,46.28457],[49.28743,46.29097],[49.27335,46.29847],[49.24806,46.30664],[49.21513,46.31318],[49.17204,46.31791],[49.13394,46.32558],[49.12236,46.34021],[49.12135,46.35222],[49.10536,46.34948],[49.07988,46.3358],[49.05586,46.31882],[49.03746,46.30168],[49.02925,46.29073],[49.03143,46.2872],[49.0472,46.28505],[49.07789,46.28198],[49.10599,46.27355],[49.10807,46.25028],[49.0907,46.21502],[49.08801,46.18839],[49.10764,46.18287],[49.12409,46.18893],[49.12238,46.1985],[49.1024,46.21233],[49.06723,46.22367],[49.02805,46.22327],[49.00076,46.21466],[48.99036,46.20846],[48.98261,46.2055],[48.96135,46.19781],[48.93041,46.18169],[48.91185,46.15962],[48.92061,46.13844],[48.93448,46.12493],[48.92571,46.11859],[48.9109,46.11652],[48.91051,46.11534],[48.90844,46.1094],[48.89816,46.10416],[48.90395,46.11513],[48.92189,46.14215],[48.9132,46.16529],[48.87553,46.16623],[48.84594,46.14857],[48.84617,46.13472],[48.86902,46.13626],[48.88865,46.14765],[48.87889,46.16],[48.84857,46.16133],[48.83469,46.14735],[48.83981,46.12569],[48.83985,46.10547],[48.84412,46.09701],[48.85805,46.09988],[48.85414,46.10484],[48.82984,46.11446],[48.80864,46.12723],[48.80276,46.12815],[48.80387,46.11323],[48.79485,46.09412],[48.78559,46.0833],[48.79202,46.08075],[48.79332,46.07541],[48.7787,46.06967],[48.7749,46.08141],[48.78124,46.1121],[48.76261,46.14082],[48.72213,46.15187],[48.69903,46.15028],[48.69787,46.14897],[48.68561,46.14844],[48.6542,46.14064],[48.62715,46.12559],[48.61629,46.11192],[48.61812,46.10794],[48.62529,46.11318],[48.62837,46.11853],[48.63399,46.1181],[48.65775,46.1129],[48.69441,46.1021],[48.72903,46.08334],[48.74859,46.06116],[48.73794,46.04343],[48.70522,46.03256],[48.68056,46.02707],[48.67358,46.02519],[48.67049,46.02434],[48.6591,46.02052],[48.63768,46.00876],[48.62152,45.98965],[48.62932,45.97581],[48.64794,45.97794],[48.65599,45.98983],[48.66801,46.00053],[48.7018,46.00498],[48.73975,45.99917],[48.74934,45.98287],[48.72738,45.96379],[48.70318,45.94687],[48.69938,45.93104],[48.71663,45.91947],[48.7324,45.91077],[48.73364,45.89697],[48.74505,45.88183],[48.76942,45.87376],[48.77952,45.87359],[48.77079,45.87801],[48.75012,45.88042],[48.72269,45.87547],[48.69836,45.86384],[48.6899,45.85219],[48.69737,45.8472],[48.69342,45.84936],[48.66848,45.85887],[48.65376,45.87503],[48.66644,45.89257],[48.68886,45.90744],[48.69918,45.91872],[48.69276,45.92773],[48.67889,45.93546],[48.66556,45.94092],[48.65158,45.94083],[48.62855,45.93127],[48.60415,45.92046],[48.60503,45.92567],[48.62436,45.94923],[48.62164,45.9768],[48.58563,45.99404],[48.53861,45.99497],[48.50199,45.98519],[48.48572,45.97658],[48.485,45.97488],[48.4829,45.9763],[48.46716,45.97496],[48.4415,45.96784],[48.41474,45.95351],[48.39092,45.93295],[48.37802,45.91459],[48.37852,45.9075],[48.3727,45.9064],[48.35362,45.89909],[48.34955,45.88788],[48.37152,45.88396],[48.39332,45.88455],[48.39679,45.87918],[48.38524,45.87158],[48.35876,45.8705],[48.31447,45.86952],[48.26844,45.85767],[48.2414,45.83766],[48.23257,45.82003],[48.2311,45.80994],[48.23177,45.8066],[48.23175,45.80667],[48.22794,45.80654],[48.21787,45.80313],[48.20042,45.79161],[48.18252,45.77039],[48.17565,45.7469],[48.17984,45.7294],[48.1892,45.72212],[48.20566,45.72738],[48.22418,45.74184],[48.2224,45.75754],[48.19141,45.76825],[48.15493,45.7716],[48.13166,45.77258],[48.10842,45.77685],[48.07318,45.77881],[48.0376,45.77209],[48.01343,45.76163],[47.997,45.7524],[47.98255,45.74294],[47.97736,45.73413],[47.98674,45.72739],[47.995,45.7212],[47.99698,45.72119],[48.00621,45.73255],[48.01426,45.74704],[48.00439,45.75734],[47.97997,45.76335],[47.95296,45.76437],[47.93347,45.76177],[47.92047,45.75797],[47.90391,45.75086],[47.88237,45.73667],[47.8624,45.71636],[47.85245,45.70275],[47.85827,45.71163],[47.86362,45.73465],[47.84594,45.74505],[47.81611,45.73321],[47.79724,45.71061],[47.79038,45.68679],[47.78917,45.66264],[47.79266,45.64279],[47.79715,45.63617],[47.79771,45.63994],[47.79926,45.64241],[47.80541,45.63995],[47.79659,45.63763],[47.76233,45.64151],[47.73364,45.65523],[47.73434,45.6797],[47.74168,45.70443],[47.73098,45.71259],[47.71786,45.71225],[47.71543,45.72279],[47.70454,45.73644],[47.68269,45.73961],[47.67184,45.73786],[47.67753,45.73851],[47.68617,45.74056],[47.68887,45.74158],[47.6847,45.73794],[47.66658,45.72591],[47.63488,45.71286],[47.60919,45.71091],[47.60434,45.72029],[47.62007,45.73864],[47.64059,45.76387],[47.6424,45.78572],[47.62044,45.79818],[47.58451,45.80162],[47.54514,45.79132],[47.52015,45.77003],[47.52399,45.75842],[47.54876,45.76604],[47.57248,45.77376],[47.57729,45.76252],[47.57067,45.73942],[47.58175,45.72797],[47.61188,45.73508],[47.62991,45.74206],[47.61958,45.73404],[47.59395,45.71622],[47.57536,45.69936],[47.57124,45.68788],[47.57542,45.68487],[47.58244,45.69082],[47.5844,45.69544],[47.57565,45.68691],[47.56417,45.66839],[47.55926,45.65307],[47.56424,45.64611],[47.58369,45.64346],[47.60972,45.63615],[47.62669,45.61771],[47.63589,45.59543],[47.64227,45.57817],[47.64082,45.56735],[47.62655,45.56585],[47.59902,45.5752],[47.5703,45.59475],[47.55739,45.62783],[47.55133,45.66844],[47.53265,45.69638],[47.51045,45.70505],[47.49818,45.70798],[47.48344,45.71362],[47.45358,45.71979],[47.42312,45.72679],[47.41614,45.73698],[47.43255,45.74658],[47.45425,45.75117],[47.46927,45.75462],[47.46586,45.75857],[47.43922,45.75765],[47.41256,45.75886],[47.40084,45.77085],[47.38469,45.77918],[47.35797,45.76847],[47.34195,45.74324],[47.34591,45.71742],[47.35644,45.70252],[47.36097,45.69719],[47.3622,45.69015],[47.37185,45.68065],[47.39737,45.68125],[47.42577,45.69466],[47.4404,45.70754],[47.44588,45.70786],[47.44361,45.6917],[47.43433,45.66931],[47.44213,45.66278],[47.47844,45.67347],[47.51837,45.67669],[47.53198,45.65913],[47.51857,45.63323],[47.50702,45.61424],[47.51842,45.60242],[47.5434,45.59106],[47.56209,45.57853],[47.56857,45.5678],[47.56784,45.56014],[47.56299,45.55385],[47.55587,45.54806],[47.54817,45.54394],[47.53785,45.54472],[47.52438,45.55405],[47.51232,45.56972],[47.50367,45.58157],[47.49708,45.58188],[47.49386,45.57399],[47.4964,45.56342],[47.50574,45.54858],[47.51936,45.52962],[47.53026,45.51458],[47.53224,45.50669],[47.5234,45.49851],[47.50887,45.48564],[47.49848,45.47149],[47.49548,45.45741],[47.49448,45.44335],[47.48637,45.43269],[47.46319,45.42757],[47.4293,45.42507],[47.40142,45.42057],[47.39339,45.41358],[47.40769,45.40728],[47.43264,45.4024],[47.45048,45.39706],[47.45513,45.3904],[47.45159,45.38318],[47.44396,45.37674],[47.43491,45.3718],[47.42779,45.36781],[47.42213,45.36154],[47.41267,45.34744],[47.39843,45.32525],[47.38591,45.29827],[47.37903,45.26324],[47.37424,45.22369],[47.36662,45.19706],[47.35399,45.19004],[47.33637,45.19213],[47.31648,45.19172],[47.29875,45.18131],[47.28482,45.1574],[47.2726,45.12423],[47.25974,45.0913],[47.24481,45.06153],[47.2281,45.0304],[47.21205,45.00054],[47.19702,44.98151],[47.18144,44.97277],[47.1665,44.96354],[47.15452,44.9501],[47.14512,44.94024],[47.13582,44.9407],[47.12463,44.94827],[47.1123,44.95433],[47.10323,44.94922],[47.1,44.92274],[47.09676,44.87706],[47.08849,44.83247],[47.07992,44.80436],[47.07418,44.79198],[47.06587,44.79369],[47.05015,44.81017],[47.0311,44.83626],[47.01694,44.86544],[47.00821,44.89276],[46.99966,44.90916],[46.99112,44.9077],[46.98778,44.89194],[46.99197,44.87051],[46.99925,44.8498],[47.00138,44.83118],[46.99267,44.81141],[46.9762,44.7908],[46.95896,44.77712],[46.94089,44.77216],[46.91796,44.76655],[46.89222,44.75495],[46.87014,44.74054],[46.85423,44.72593],[46.84023,44.71293],[46.82098,44.70414],[46.7948,44.69561],[46.76781,44.6811],[46.74488,44.66449],[46.72708,44.64796],[46.71549,44.6225],[46.71064,44.5907],[46.7117,44.56818],[46.71569,44.55759],[46.7177,44.55164],[46.71432,44.54792],[46.70573,44.54573],[46.69494,44.54263],[46.68599,44.53604],[46.68244,44.52266],[46.68558,44.50017],[46.69288,44.47289],[46.70195,44.44899],[46.71503,44.4306],[46.73383,44.41537],[46.75628,44.40395],[46.78219,44.39824],[46.81055,44.39727],[46.84349,44.39627],[46.89555,44.38874],[46.96306,44.37414],[47.01473,44.35835],[47.03986,44.34179],[47.05385,44.319],[47.06585,44.29153],[47.0771,44.26774],[47.08942,44.25032],[47.10415,44.23634],[47.11998,44.22544],[47.13485,44.21804],[47.14939,44.21227],[47.16444,44.2078],[47.17871,44.20768],[47.19246,44.21373],[47.20744,44.22119],[47.2244,44.2195],[47.24369,44.19873],[47.26531,44.157],[47.28854,44.10674],[47.31123,44.06673],[47.33036,44.04351],[47.34606,44.02699],[47.36303,44.00194],[47.38411,43.96598],[47.40447,43.93187],[47.41817,43.90707],[47.42696,43.8893],[47.43689,43.87703],[47.44839,43.86845],[47.45515,43.85963],[47.45343,43.84771],[47.44774,43.83431],[47.44661,43.82556],[47.45416,43.82399],[47.46682,43.82444],[47.47907,43.81988],[47.48905,43.80672],[47.49612,43.78874],[47.49675,43.77448],[47.48796,43.76648],[47.4731,43.7608],[47.45933,43.75439],[47.44948,43.74596],[47.44309,43.73307],[47.44213,43.71476],[47.44561,43.6965],[47.44641,43.68472],[47.44138,43.67867],[47.43299,43.67243],[47.42181,43.65931],[47.40751,43.6388],[47.39252,43.62155],[47.3802,43.61618],[47.37183,43.61706],[47.36727,43.61313],[47.36706,43.5998],[47.37144,43.58093],[47.37948,43.56367],[47.38939,43.55107],[47.39768,43.54001],[47.40297,43.5273],[47.41058,43.51612],[47.42543,43.5144],[47.44411,43.52806],[47.45975,43.55626],[47.4692,43.59082],[47.47377,43.62087],[47.47692,43.64078],[47.48155,43.65302],[47.48862,43.66289],[47.49631,43.67462],[47.50128,43.69082],[47.50402,43.71025],[47.50953,43.73021],[47.51949,43.75189],[47.52986,43.77714],[47.53687,43.80426],[47.54006,43.82967],[47.54183,43.85026],[47.54732,43.86619],[47.56085,43.88053],[47.58037,43.89296],[47.60197,43.89974],[47.62594,43.89997],[47.65168,43.89515],[47.67139,43.88432],[47.6705,43.86167],[47.64187,43.81652],[47.59704,43.73916],[47.55332,43.63793],[47.51942,43.54213],[47.49686,43.47221],[47.48598,43.42305],[47.48526,43.38392],[47.4879,43.35298],[47.48829,43.33011],[47.4892,43.31276],[47.49653,43.30236],[47.51178,43.30388],[47.53167,43.31489],[47.55098,43.32555],[47.56558,43.3297],[47.57459,43.32716],[47.57966,43.32012],[47.58212,43.31099],[47.58169,43.30185],[47.57803,43.29341],[47.5712,43.28364],[47.55991,43.27123],[47.54263,43.25815],[47.52205,43.24559],[47.5034,43.23193],[47.49013,43.21625],[47.48413,43.19983],[47.48323,43.18463],[47.48189,43.1717],[47.47922,43.16018],[47.47828,43.14894],[47.47896,43.13816],[47.47745,43.1279],[47.47106,43.11771],[47.462,43.1073],[47.45563,43.09277],[47.45911,43.06451],[47.48264,43.02061],[47.52612,42.97654],[47.56891,42.94714],[47.59406,42.93026],[47.61131,42.91548],[47.63898,42.89667],[47.67331,42.87572],[47.69631,42.85742],[47.70495,42.84298],[47.70809,42.82917],[47.71036,42.80939],[47.71267,42.78419],[47.71496,42.76463],[47.71615,42.7544],[47.71553,42.7445],[47.71497,42.7258],[47.71894,42.69725],[47.73505,42.6651],[47.77082,42.63484],[47.82186,42.60267],[47.87704,42.55591],[47.93187,42.49309],[47.98306,42.43427],[48.0276,42.39394],[48.07155,42.35794],[48.12687,42.29852],[48.19105,42.21919],[48.24424,42.15639],[48.27757,42.12289],[48.29713,42.10153],[48.30821,42.08104],[48.3189,42.0549],[48.34125,42.01319],[48.37753,41.96167],[48.41954,41.92234],[48.46297,41.90207],[48.50653,41.88814],[48.54364,41.87137],[48.56757,41.85476],[48.58138,41.8434],[48.59696,41.83384],[48.62542,41.81519],[48.67109,41.77787],[48.72427,41.72927],[48.76514,41.6898],[48.7901,41.66212],[48.81736,41.62918],[48.85616,41.58459],[48.89411,41.5431],[48.92059,41.51758],[48.938,41.50271],[48.95168,41.48848],[48.96504,41.47216],[48.97798,41.45654],[48.9888,41.44559],[49.00009,41.43918],[49.01394,41.43372],[49.02934,41.4231],[49.04926,41.39851],[49.07544,41.35989],[49.10116,41.32154],[49.11991,41.29403],[49.13234,41.26925],[49.14208,41.23266],[49.15131,41.18841],[49.16041,41.1557],[49.16968,41.13541],[49.1826,41.10641],[49.21083,41.0547],[49.26409,40.98696],[49.32513,40.92491],[49.36539,40.88621],[49.38698,40.86596],[49.4108,40.85076],[49.44068,40.83847],[49.46757,40.82972],[49.48861,40.82008],[49.50699,40.80823],[49.52249,40.79646],[49.53037,40.78223],[49.52785,40.76089],[49.51927,40.73545],[49.5121,40.71409],[49.50956,40.6996],[49.51123,40.68897],[49.51662,40.67944],[49.52357,40.67097],[49.52888,40.66472],[49.5336,40.65927],[49.54235,40.65141],[49.55671,40.64111],[49.57523,40.63171],[49.59858,40.62547],[49.62538,40.62136],[49.65042,40.61586],[49.67393,40.60569],[49.70057,40.59249],[49.73324,40.58129],[49.77152,40.5733],[49.80854,40.56748],[49.83954,40.56582],[49.87062,40.57046],[49.91062,40.5783],[49.96336,40.58291],[50.01743,40.5817],[50.05133,40.57675],[50.06294,40.57031],[50.06795,40.56274],[50.07645,40.55285],[50.09067,40.54046],[50.1135,40.5277],[50.15088,40.51588],[50.19607,40.50458],[50.22972,40.49253],[50.24759,40.47718],[50.261,40.45835],[50.2769,40.44071],[50.29562,40.42779],[50.31515,40.41681],[50.33284,40.40288],[50.34727,40.38105],[50.35873,40.34631],[50.36821,40.30571],[50.3764,40.2747],[50.38298,40.25442],[50.38548,40.23971],[50.38008,40.23668],[50.36569,40.25009],[50.34364,40.27304],[50.31439,40.29747],[50.28186,40.31862],[50.25182,40.33289],[50.22164,40.34119],[50.18735,40.3476],[50.15507,40.35316],[50.13195,40.35605],[50.11667,40.35553],[50.10286,40.35321],[50.08454,40.35093],[50.06055,40.34742],[50.0342,40.33981],[50.00906,40.33061],[49.9888,40.32711],[49.97472,40.33204],[49.96405,40.34107],[49.95338,40.34873],[49.93886,40.354],[49.91856,40.35865],[49.89503,40.36032],[49.87212,40.35312],[49.85344,40.33608],[49.83692,40.31447],[49.81142,40.29388],[49.76905,40.27611],[49.71279,40.25846],[49.65162,40.2388],[49.59748,40.21898],[49.55746,40.19956],[49.52873,40.18064],[49.50803,40.1646],[49.49606,40.14938],[49.49236,40.13058],[49.4904,40.11035],[49.47849,40.09293],[49.45642,40.07745],[49.44001,40.06089],[49.43855,40.04292],[49.44678,40.02668],[49.45786,40.01477],[49.46848,40.00596],[49.47623,39.99777],[49.4791,39.98967],[49.47578,39.98203],[49.46657,39.9744],[49.45482,39.96699],[49.44442,39.96085],[49.43595,39.95481],[49.42885,39.9466],[49.42443,39.93591],[49.42446,39.92237],[49.42904,39.90559],[49.43532,39.88834],[49.43874,39.87399],[49.43685,39.86303],[49.43078,39.85487],[49.42341,39.8486],[49.41758,39.84235],[49.41506,39.83537],[49.41577,39.82868],[49.41795,39.82273],[49.41952,39.81689],[49.41856,39.8107],[49.41322,39.80352],[49.40452,39.79457],[49.39759,39.78486],[49.39569,39.77594],[49.39658,39.76676],[49.39919,39.75469],[49.40638,39.73904],[49.41553,39.72283],[49.41693,39.70978],[49.40537,39.69866],[49.38466,39.68471],[49.36122,39.66609],[49.33992,39.64492],[49.32452,39.62403],[49.31507,39.60463],[49.30687,39.58555],[49.29758,39.5651],[49.28977,39.54318],[49.28623,39.52037],[49.29339,39.4947],[49.32123,39.46228],[49.36225,39.42749],[49.39271,39.40214],[49.40446,39.38913],[49.40567,39.38076],[49.40243,39.36877],[49.39943,39.3519],[49.39982,39.33681],[49.39976,39.32929],[49.39441,39.32954],[49.38584,39.33481],[49.37817,39.34173],[49.37238,39.34645],[49.36958,39.34451],[49.37193,39.33449],[49.37978,39.32033],[49.39086,39.30716],[49.39926,39.2976],[49.39767,39.2935],[49.38574,39.29663],[49.3682,39.30705],[49.34373,39.32164],[49.31108,39.33172],[49.27844,39.32719],[49.25454,39.30221],[49.24128,39.25535],[49.23557,39.20057],[49.23161,39.15998],[49.22525,39.13423],[49.21721,39.11073],[49.21057,39.08547],[49.20581,39.05978],[49.1966,39.03473],[49.17128,39.00908],[49.12908,38.9857],[49.08764,38.97501],[49.06273,38.97984],[49.05429,38.99069],[49.05468,38.99991],[49.06128,39.00717],[49.07772,39.01398],[49.10178,39.02128],[49.12325,39.03104],[49.13652,39.04532],[49.14245,39.06342],[49.14104,39.08198],[49.12971,39.09704],[49.10778,39.10662],[49.08371,39.11513],[49.06845,39.13052],[49.06103,39.15187],[49.0527,39.16989],[49.03772,39.18027],[49.01498,39.18469],[48.99009,39.18472],[48.97189,39.18123],[48.96193,39.17446],[48.95562,39.16485],[48.9508,39.15445],[48.94825,39.14492],[48.94742,39.13631],[48.94594,39.12944],[48.94245,39.12567],[48.93803,39.12159],[48.93463,39.10824],[48.93447,39.08317],[48.93886,39.05529],[48.94299,39.02766],[48.93899,38.99343],[48.9275,38.95517],[48.9152,38.92388],[48.90354,38.90176],[48.88817,38.88502],[48.86641,38.87164],[48.84535,38.8578],[48.83482,38.83983],[48.83561,38.81852],[48.84406,38.78497],[48.856,38.71344],[48.86577,38.60093],[48.87106,38.49088],[48.87293,38.41535],[48.87201,38.36321],[48.87037,38.32159],[48.87201,38.28518],[48.87937,38.24126],[48.89346,38.17498],[48.91342,38.08624],[48.93159,38.00348],[48.93987,37.95251],[48.94167,37.92549],[48.94671,37.90367],[48.95949,37.87896],[48.97479,37.85363],[48.9833,37.83491],[48.98468,37.82196],[48.98729,37.80411],[48.99908,37.77369],[49.02638,37.73064],[49.07276,37.67956],[49.14047,37.62661],[49.23303,37.57531],[49.3589,37.52872],[49.53073,37.49185],[49.71635,37.4691],[49.84331,37.46246],[49.90069,37.46556],[49.93198,37.46669],[49.95233,37.46291],[49.95666,37.45971],[49.95063,37.45907],[49.94839,37.45627],[49.97212,37.44563],[50.03636,37.42708],[50.11908,37.40608],[50.18182,37.38499],[50.21282,37.36124],[50.22503,37.33522],[50.23312,37.30955],[50.24315,37.28546],[50.25548,37.26223],[50.27177,37.23362],[50.29453,37.19635],[50.32594,37.15737],[50.36927,37.12009],[50.42032,37.08212],[50.46416,37.04944],[50.49854,37.02708],[50.54169,37.00532],[50.59504,36.97996],[50.63701,36.96036],[50.66255,36.94674],[50.69192,36.92876],[50.75421,36.89583],[50.8602,36.8434],[50.99303,36.78435],[51.1514,36.73433],[51.34229,36.69278],[51.54159,36.65487],[51.72908,36.62253],[51.90992,36.60565],[52.08744,36.61526],[52.26075,36.64602],[52.43312,36.68075],[52.60654,36.71213],[52.77896,36.74438],[52.959,36.7824],[53.16017,36.82502],[53.37236,36.86278],[53.58528,36.88783],[53.78584,36.90529],[53.92605,36.92122],[53.98284,36.92773],[53.98015,36.9182],[53.94074,36.9023],[53.88747,36.89011],[53.8449,36.88191],[53.81892,36.87757],[53.79977,36.87781],[53.77993,36.87944],[53.75899,36.87822],[53.7357,36.8747],[53.70412,36.87303],[53.66416,36.87351],[53.63206,36.87192],[53.62392,36.86728],[53.63485,36.86303],[53.64574,36.86046],[53.64681,36.85678],[53.64929,36.84793],[53.67503,36.83332],[53.73592,36.81801],[53.81104,36.80646],[53.87052,36.80063],[53.92283,36.80376],[53.97877,36.8156],[54.01769,36.83608],[54.03093,36.87321],[54.03086,36.92133],[54.0238,36.9565],[54.01203,36.97209],[54.00334,36.98299],[54.00351,37.00092],[54.00474,37.02751],[53.9962,37.0626],[53.9785,37.11127],[53.95721,37.17133],[53.9377,37.22808],[53.92469,37.27615],[53.91725,37.32342],[53.91068,37.37946],[53.90203,37.44449],[53.89103,37.50223],[53.87978,37.54263],[53.86916,37.58156],[53.85481,37.65658],[53.83568,37.79146],[53.82144,37.94102],[53.81999,38.03816],[53.82889,38.08935],[53.84229,38.13775],[53.85474,38.1895],[53.8631,38.23246],[53.86809,38.27129],[53.86996,38.31609],[53.86815,38.35966],[53.86377,38.38825],[53.85842,38.40317],[53.85375,38.41412],[53.84972,38.42957],[53.84417,38.45666],[53.83806,38.49549],[53.83664,38.54246],[53.84253,38.59359],[53.85563,38.6416],[53.8775,38.68559],[53.90336,38.72925],[53.92104,38.76782],[53.92875,38.79515],[53.93518,38.81389],[53.94326,38.83087],[53.95127,38.8485],[53.95999,38.86547],[53.97003,38.88211],[53.97859,38.89829],[53.98171,38.91128],[53.9784,38.92144],[53.96851,38.93166],[53.95176,38.94156],[53.935,38.95001],[53.92578,38.95731],[53.92099,38.96261],[53.91517,38.96526],[53.90789,38.96694],[53.90074,38.96966],[53.89603,38.97456],[53.89388,38.98175],[53.89185,38.99032],[53.88811,39.00009],[53.88089,39.01144],[53.8683,39.02225],[53.84895,39.02954],[53.82457,39.03366],[53.80281,39.03632],[53.78916,39.03703],[53.78095,39.03499],[53.77339,39.03216],[53.76467,39.03308],[53.75576,39.04315],[53.74622,39.06433],[53.73482,39.08815],[53.72467,39.10102],[53.7203,39.09918],[53.72235,39.0887],[53.7278,39.07595],[53.73082,39.0652],[53.72643,39.06071],[53.71647,39.06608],[53.70788,39.08049],[53.70473,39.10011],[53.70471,39.121],[53.70434,39.13829],[53.70613,39.14997],[53.71251,39.15914],[53.7159,39.16857],[53.71284,39.18157],[53.7124,39.20188],[53.71307,39.22091],[53.70298,39.22456],[53.68574,39.21468],[53.67613,39.19644],[53.67717,39.16294],[53.67675,39.12396],[53.66601,39.10833],[53.65122,39.11983],[53.64152,39.13935],[53.63643,39.15764],[53.62969,39.17359],[53.61894,39.18538],[53.61046,39.19488],[53.60978,39.20664],[53.61164,39.22056],[53.60886,39.23136],[53.60178,39.23345],[53.59241,39.22431],[53.5811,39.21025],[53.57204,39.2062],[53.57097,39.22198],[53.57548,39.25167],[53.57678,39.27875],[53.57492,39.29615],[53.57696,39.31055],[53.57896,39.32202],[53.57413,39.32696],[53.56754,39.33168],[53.56404,39.33974],[53.55944,39.34442],[53.55009,39.34126],[53.53789,39.33508],[53.52403,39.3314],[53.50482,39.32876],[53.48074,39.32441],[53.46102,39.3215],[53.45097,39.32476],[53.44595,39.33085],[53.44017,39.33148],[53.43169,39.32512],[53.42,39.31672],[53.40667,39.31116],[53.39824,39.31195],[53.39842,39.31977],[53.39987,39.32918],[53.39459,39.33377],[53.38533,39.33411],[53.37835,39.33351],[53.37367,39.33208],[53.36806,39.32986],[53.3612,39.32943],[53.35484,39.33248],[53.34973,39.33673],[53.34332,39.33801],[53.33088,39.33498],[53.31371,39.33109],[53.30124,39.33128],[53.29828,39.33622],[53.29829,39.3419],[53.29419,39.34528],[53.28578,39.34677],[53.27471,39.34838],[53.26194,39.35178],[53.24876,39.35629],[53.23313,39.35868],[53.20995,39.35654],[53.18428,39.35007],[53.1731,39.34034],[53.18028,39.32885],[53.18854,39.31633],[53.18639,39.3021],[53.18007,39.28687],[53.1776,39.27002],[53.18007,39.24735],[53.18344,39.21936],[53.1821,39.19507],[53.17419,39.19106],[53.16091,39.22418],[53.14246,39.28344],[53.11992,39.33646],[53.10079,39.3722],[53.09423,39.39731],[53.10031,39.41535],[53.11369,39.43027],[53.12888,39.44506],[53.13988,39.4588],[53.14655,39.47091],[53.15498,39.48295],[53.16925,39.50085],[53.19029,39.53421],[53.21721,39.5814],[53.24715,39.62437],[53.27525,39.64809],[53.29249,39.65259],[53.29174,39.645],[53.27739,39.63038],[53.26073,39.61209],[53.24884,39.5935],[53.2405,39.57672],[53.23139,39.56163],[53.22435,39.5457],[53.23533,39.53122],[53.28009,39.52579],[53.34784,39.52843],[53.40668,39.5299],[53.44103,39.52572],[53.45887,39.51642],[53.46972,39.50329],[53.47917,39.48972],[53.49336,39.47971],[53.51563,39.47374],[53.54172,39.46968],[53.56336,39.4674],[53.57679,39.46976],[53.58251,39.47731],[53.58122,39.48603],[53.57558,39.49246],[53.57081,39.49822],[53.57098,39.5068],[53.57639,39.51511],[53.58546,39.51508],[53.59829,39.50628],[53.61625,39.4984],[53.63881,39.49995],[53.66172,39.50844],[53.68031,39.51438],[53.69566,39.51335],[53.71123,39.50975],[53.72556,39.51049],[53.73347,39.51754],[53.73131,39.52677],[53.7207,39.53431],[53.70421,39.54059],[53.68118,39.54785],[53.65724,39.557],[53.64517,39.56621],[53.64776,39.57406],[53.65391,39.58263],[53.65286,39.59343],[53.64357,39.60421],[53.62902,39.61168],[53.60888,39.615],[53.58765,39.61829],[53.57514,39.62691],[53.57042,39.64001],[53.56432,39.65252],[53.55446,39.66262],[53.5457,39.66891],[53.54216,39.66548],[53.54186,39.65157],[53.53712,39.64034],[53.5213,39.64621],[53.49628,39.66661],[53.47146,39.68574],[53.4566,39.6932],[53.45374,39.68942],[53.45373,39.68125],[53.44789,39.67739],[53.43957,39.67874],[53.43649,39.67715],[53.44041,39.66664],[53.44498,39.65176],[53.44095,39.64577],[53.43051,39.66113],[53.42502,39.69692],[53.42411,39.7334],[53.41817,39.75123],[53.40586,39.75412],[53.39317,39.75581],[53.38749,39.76087],[53.39751,39.77167],[53.42619,39.79443],[53.46248,39.82679],[53.48811,39.85491],[53.49586,39.87121],[53.49408,39.87936],[53.49323,39.88354],[53.49764,39.88583],[53.508,39.88776],[53.52217,39.8907],[53.53342,39.89588],[53.53595,39.90235],[53.5334,39.90816],[53.53469,39.91434],[53.54328,39.92316],[53.55608,39.93509],[53.5677,39.94848],[53.57322,39.95875],[53.57234,39.96236],[53.56891,39.96167],[53.56391,39.96105],[53.55495,39.96319],[53.54077,39.96773],[53.52082,39.97138],[53.49646,39.9742],[53.47246,39.98021],[53.45213,39.98941],[53.43488,39.99725],[53.41885,40.00113],[53.40304,40.00125],[53.38581,39.99621],[53.36366,39.9832],[53.33843,39.96592],[53.31834,39.95313],[53.30528,39.94621],[53.29415,39.94134],[53.28252,39.93907],[53.27023,39.94124],[53.25762,39.946],[53.24249,39.95283],[53.21797,39.96518],[53.18632,39.97932],[53.1602,39.98439],[53.1389,39.97924],[53.11053,39.97248],[53.08084,39.9706],[53.06706,39.97452],[53.06917,39.9809],[53.07116,39.98528],[53.05615,39.98421],[53.0205,39.9788],[52.97934,39.97734],[52.94754,39.98659],[52.92698,40.00131],[52.91369,40.00944],[52.90511,40.00642],[52.90236,39.9962],[52.90756,39.98248],[52.91815,39.96482],[52.92742,39.93982],[52.93357,39.90966],[52.94215,39.88278],[52.95744,39.86048],[52.97962,39.83503],[53.00663,39.80505],[53.03109,39.78058],[53.04242,39.76883],[53.0363,39.76784],[53.02465,39.77007],[53.02529,39.76573],[53.0331,39.75552],[53.02899,39.7526],[53.01228,39.76559],[52.99275,39.79168],[52.97122,39.82049],[52.94676,39.84237],[52.92489,39.85875],[52.91102,39.87749],[52.90275,39.90112],[52.88853,39.92751],[52.8542,39.95775],[52.80441,39.99279],[52.76504,40.02738],[52.7503,40.05932],[52.75181,40.08987],[52.7586,40.11572],[52.76445,40.13567],[52.76347,40.15418],[52.75461,40.17436],[52.74564,40.1936],[52.73991,40.20811],[52.731,40.22166],[52.71822,40.243],[52.71132,40.28311],[52.71817,40.35342],[52.736,40.43993],[52.75906,40.50948],[52.78968,40.55922],[52.82659,40.60675],[52.85498,40.65091],[52.86294,40.6809],[52.85382,40.69574],[52.84084,40.70359],[52.83481,40.71198],[52.8362,40.72279],[52.83921,40.7338],[52.84041,40.74133],[52.8425,40.7452],[52.84968,40.74831],[52.86037,40.75199],[52.8691,40.75724],[52.87298,40.76553],[52.87261,40.77548],[52.87167,40.78827],[52.8777,40.81608],[52.89544,40.86666],[52.91643,40.92722],[52.92681,40.98408],[52.92592,41.03304],[52.92496,41.06449],[52.9322,41.07268],[52.94651,41.06766],[52.96012,41.05945],[52.96681,41.04929],[52.96705,41.03774],[52.96556,41.02629],[52.96919,41.01231],[52.98378,40.99098],[53.00536,40.96321],[53.02299,40.93417],[53.03431,40.90729],[53.04621,40.88547],[53.06195,40.87114],[53.07924,40.86418],[53.09646,40.86292],[53.11051,40.86422],[53.1145,40.8631],[53.10491,40.85706],[53.0887,40.84878],[53.07731,40.84008],[53.07516,40.8302],[53.08047,40.82008],[53.09081,40.8114],[53.10141,40.80349],[53.10704,40.7944],[53.10819,40.78391],[53.11268,40.77425],[53.12927,40.76778],[53.15609,40.7655],[53.18482,40.76944],[53.21424,40.78239],[53.24192,40.79833],[53.25693,40.80288],[53.25722,40.79253],[53.25883,40.77883],[53.27875,40.772],[53.31163,40.77369],[53.33607,40.7813],[53.34484,40.79178],[53.34771,40.80294],[53.35284,40.81385],[53.36118,40.82316],[53.37032,40.82807],[53.37804,40.8269],[53.38224,40.81994],[53.38274,40.80877],[53.38373,40.7951],[53.38922,40.77938],[53.40055,40.76376],[53.41679,40.75237],[53.43323,40.74587],[53.44653,40.74101],[53.45865,40.73625],[53.47134,40.73362],[53.48375,40.73477],[53.49717,40.73949],[53.51551,40.74767],[53.53735,40.75948],[53.55446,40.77643],[53.5626,40.80048],[53.56677,40.82898],[53.57417,40.85619],[53.58517,40.87687],[53.59546,40.88721],[53.60425,40.88891],[53.61334,40.88726],[53.62331,40.88488],[53.63228,40.88159],[53.63786,40.87654],[53.64249,40.87077],[53.64988,40.86662],[53.65732,40.86333],[53.6602,40.85842],[53.65886,40.85246],[53.65681,40.84673],[53.65694,40.83919],[53.66025,40.82896],[53.66542,40.81854],[53.66851,40.80833],[53.66643,40.79789],[53.66184,40.78869],[53.66124,40.77788],[53.66822,40.75923],[53.68015,40.73488],[53.69166,40.71465],[53.70118,40.70366],[53.71083,40.69921],[53.72019,40.69547],[53.72494,40.68777],[53.72252,40.67563],[53.71672,40.66108],[53.71675,40.6455],[53.73167,40.6321],[53.76416,40.62566],[53.8077,40.62553],[53.8492,40.62897],[53.88034,40.63746],[53.90557,40.65046],[53.92886,40.66209],[53.94705,40.66714],[53.96332,40.66514],[53.98442,40.66017],[54.00862,40.65783],[54.03173,40.66049],[54.05411,40.66628],[54.07467,40.6731],[54.089,40.68071],[54.09535,40.68857],[54.0934,40.69476],[54.08254,40.69937],[54.07161,40.70427],[54.0782,40.70861],[54.1061,40.71179],[54.1426,40.71617],[54.18019,40.72139],[54.21351,40.72395],[54.23152,40.72136],[54.23289,40.71258],[54.22762,40.70056],[54.22508,40.6904],[54.24029,40.68253],[54.2882,40.67636],[54.34668,40.67509],[54.37537,40.6802],[54.37888,40.68864],[54.38834,40.69753],[54.40179,40.70616],[54.39142,40.71307],[54.35618,40.71751],[54.32632,40.72333],[54.31536,40.73511],[54.31117,40.75281],[54.30378,40.77438],[54.29324,40.79815],[54.28327,40.82046],[54.27637,40.837],[54.27334,40.84705],[54.27386,40.85339],[54.27609,40.85905],[54.27705,40.86509],[54.27398,40.86958],[54.26688,40.87117],[54.25913,40.87287],[54.25403,40.87751],[54.25248,40.88303],[54.25434,40.88638],[54.25952,40.88763],[54.26843,40.88999],[54.28192,40.89729],[54.29862,40.90852],[54.31591,40.91713],[54.33715,40.9167],[54.36836,40.90502],[54.40538,40.8883],[54.43746,40.87516],[54.45841,40.86428],[54.46498,40.85044],[54.46064,40.83461],[54.46631,40.82157],[54.50462,40.81692],[54.56509,40.82184],[54.61454,40.83122],[54.64385,40.84276],[54.6679,40.85743],[54.69394,40.8744],[54.71953,40.89567],[54.74175,40.92166],[54.75637,40.94579],[54.76116,40.96489],[54.75885,40.98072],[54.75281,40.99341]]]}}]}