{"type":"FeatureCollection","meta":{"year":2000,"level_m":-27.05,"reference_year":2015,"reference_level_m":-27.85,"status":"semi","model":"cross-shore translation: retreat = Δlevel / tan(β)","source_id":"model","projected":false},"features":[{"type":"Feature","properties":{"year":2000,"level_m":-27.05},"geometry":{"type":"Polygon","coordinates":[[[54.7403,41.00616],[54.7216,41.02639],[54.70027,41.04871],[54.68702,41.06254],[54.68818,41.06636],[54.70391,41.06352],[54.72877,41.0554],[54.74972,41.04797],[54.7548,41.04922],[54.74654,41.05759],[54.736,41.06675],[54.72857,41.07447],[54.72432,41.08067],[54.72292,41.08587],[54.72395,41.09086],[54.72666,41.09517],[54.72906,41.09899],[54.72594,41.10471],[54.71176,41.11232],[54.68802,41.119],[54.6635,41.1266],[54.64447,41.14131],[54.61592,41.17052],[54.54528,41.22087],[54.43745,41.28126],[54.34509,41.32687],[54.29243,41.35379],[54.25645,41.37504],[54.22332,41.3935],[54.19975,41.40657],[54.18588,41.41809],[54.17313,41.43273],[54.15679,41.44769],[54.13641,41.45824],[54.11362,41.46652],[54.09301,41.47691],[54.07646,41.49083],[54.06129,41.51035],[54.04684,41.5377],[54.03594,41.57462],[54.02989,41.62377],[54.02581,41.67934],[54.01941,41.72752],[54.00661,41.76659],[53.98486,41.80588],[53.95996,41.84404],[53.94208,41.8702],[53.9313,41.88188],[53.92147,41.88611],[53.91219,41.88975],[53.90604,41.89604],[53.90382,41.90473],[53.90516,41.91411],[53.90838,41.92353],[53.91062,41.93342],[53.91009,41.94498],[53.90852,41.95902],[53.90978,41.97508],[53.91414,41.99181],[53.91754,42.0082],[53.91743,42.02516],[53.91398,42.0436],[53.90613,42.06265],[53.88951,42.08226],[53.85956,42.10256],[53.81757,42.1194],[53.77077,42.12826],[53.70879,42.13003],[53.5986,42.12371],[53.45461,42.10717],[53.34353,42.08929],[53.27915,42.0818],[53.22478,42.08516],[53.17084,42.08901],[53.12622,42.08212],[53.08648,42.06183],[53.03919,42.0303],[52.9804,41.98221],[52.91534,41.90644],[52.85473,41.81852],[52.8137,41.75868],[52.79434,41.7344],[52.78463,41.71957],[52.77791,41.70028],[52.77513,41.68068],[52.77945,41.6696],[52.79301,41.67272],[52.8143,41.68497],[52.84173,41.69413],[52.87261,41.69422],[52.89851,41.68689],[52.91169,41.67433],[52.91208,41.65866],[52.90593,41.6431],[52.90116,41.62959],[52.90093,41.6165],[52.90275,41.60173],[52.89921,41.57804],[52.88136,41.53189],[52.85363,41.47039],[52.83202,41.42155],[52.82203,41.39496],[52.81935,41.37941],[52.82246,41.36315],[52.83021,41.33653],[52.83915,41.29729],[52.84993,41.25253],[52.86842,41.20626],[52.89151,41.16111],[52.90464,41.12511],[52.90198,41.09847],[52.89208,41.07534],[52.88308,41.05895],[52.87553,41.05489],[52.86695,41.06048],[52.85802,41.06938],[52.85277,41.08],[52.85279,41.09573],[52.85515,41.11754],[52.85574,41.14118],[52.85248,41.163],[52.846,41.18218],[52.83807,41.19762],[52.82988,41.20873],[52.82248,41.21706],[52.81761,41.2254],[52.81592,41.2365],[52.81471,41.25293],[52.80944,41.27768],[52.79993,41.30663],[52.7895,41.33031],[52.77768,41.34955],[52.76259,41.36805],[52.74668,41.38122],[52.73428,41.38861],[52.72679,41.39601],[52.72266,41.40566],[52.71983,41.41618],[52.71567,41.42583],[52.70716,41.43424],[52.69378,41.44161],[52.67746,41.44772],[52.65976,41.45491],[52.63987,41.46793],[52.61708,41.48514],[52.59491,41.49932],[52.57805,41.51032],[52.56822,41.52316],[52.56601,41.5378],[52.57148,41.55277],[52.58089,41.56822],[52.58783,41.58299],[52.59025,41.59725],[52.59107,41.61125],[52.59296,41.62299],[52.59544,41.63211],[52.59584,41.6395],[52.59266,41.64486],[52.58761,41.64831],[52.58342,41.65217],[52.57988,41.6598],[52.57482,41.67072],[52.56779,41.68008],[52.55949,41.68504],[52.5499,41.68698],[52.53975,41.68918],[52.53047,41.69403],[52.52145,41.70043],[52.51057,41.70656],[52.49749,41.71353],[52.48363,41.72138],[52.46895,41.72871],[52.45427,41.73758],[52.44423,41.75128],[52.44411,41.77282],[52.45614,41.8075],[52.47421,41.85374],[52.48543,41.89919],[52.48421,41.93478],[52.47529,41.95984],[52.46424,41.9762],[52.45368,41.98653],[52.44464,41.99439],[52.43842,42.00441],[52.43644,42.02051],[52.4372,42.04014],[52.43512,42.05745],[52.42658,42.07299],[52.4176,42.08987],[52.41691,42.10753],[52.42304,42.12562],[52.42925,42.14435],[52.43438,42.16182],[52.44179,42.1756],[52.4538,42.18521],[52.47148,42.19668],[52.4988,42.2229],[52.53648,42.26613],[52.57206,42.30763],[52.59257,42.33217],[52.60003,42.34577],[52.60234,42.35926],[52.60324,42.37401],[52.6061,42.38727],[52.61542,42.40007],[52.62978,42.41382],[52.64159,42.42679],[52.64741,42.43875],[52.65094,42.4525],[52.6571,42.47263],[52.66649,42.50219],[52.67372,42.53804],[52.67224,42.57572],[52.66003,42.6137],[52.63935,42.64874],[52.61333,42.67699],[52.58798,42.69977],[52.5724,42.72017],[52.56969,42.73621],[52.57498,42.74199],[52.583,42.73476],[52.59237,42.71899],[52.60398,42.70307],[52.6185,42.69159],[52.63635,42.68213],[52.65454,42.6717],[52.66653,42.66184],[52.67142,42.6546],[52.67496,42.64795],[52.68165,42.63585],[52.6915,42.61675],[52.702,42.59905],[52.71225,42.59207],[52.72285,42.59846],[52.73293,42.61516],[52.73998,42.63774],[52.74052,42.66547],[52.7305,42.69703],[52.70751,42.72476],[52.67518,42.74334],[52.64268,42.75805],[52.60786,42.77684],[52.55258,42.79959],[52.47491,42.81894],[52.40422,42.82881],[52.36384,42.83013],[52.34589,42.82749],[52.33424,42.82329],[52.32399,42.81732],[52.31516,42.80891],[52.30595,42.80035],[52.29015,42.80062],[52.25939,42.81977],[52.2167,42.85196],[52.17284,42.87639],[52.12431,42.88193],[52.06444,42.87346],[52.00575,42.85892],[51.96307,42.84605],[51.93267,42.84381],[51.90193,42.85823],[51.86893,42.88488],[51.84147,42.91296],[51.82168,42.93727],[51.80649,42.9589],[51.7944,42.98154],[51.78151,43.00786],[51.76163,43.03676],[51.73636,43.06425],[51.71458,43.0841],[51.69918,43.09376],[51.68744,43.09824],[51.67915,43.10372],[51.67564,43.11173],[51.67677,43.12074],[51.68007,43.13073],[51.68136,43.14385],[51.67708,43.16044],[51.66494,43.17578],[51.64214,43.18319],[51.60855,43.18239],[51.57298,43.17882],[51.54744,43.17456],[51.53401,43.16887],[51.52581,43.16307],[51.51741,43.15902],[51.50684,43.15794],[51.49285,43.16056],[51.47148,43.16432],[51.43108,43.16419],[51.36797,43.16059],[51.30695,43.16085],[51.27704,43.17409],[51.27943,43.20779],[51.29617,43.26331],[51.31073,43.3351],[51.31493,43.40805],[51.30723,43.46327],[51.29334,43.49667],[51.28291,43.51656],[51.27864,43.53144],[51.27577,43.54603],[51.26797,43.56056],[51.25104,43.5758],[51.23007,43.59271],[51.21491,43.60874],[51.20603,43.61996],[51.19738,43.62447],[51.1869,43.62424],[51.1759,43.62341],[51.16533,43.6245],[51.1539,43.62946],[51.13382,43.6488],[51.09646,43.69729],[51.05225,43.76252],[51.02357,43.81068],[51.01338,43.8333],[51.00878,43.84508],[51.0033,43.85408],[50.99762,43.86154],[50.99322,43.86962],[50.99106,43.88101],[50.9906,43.89504],[50.9876,43.90883],[50.97718,43.92234],[50.96194,43.93639],[50.94865,43.95079],[50.93764,43.96657],[50.92583,43.98365],[50.91376,43.99896],[50.9019,44.0097],[50.88851,44.01636],[50.87444,44.02186],[50.86331,44.02891],[50.85686,44.038],[50.85486,44.0478],[50.85589,44.06248],[50.85686,44.09217],[50.8558,44.13343],[50.85159,44.16859],[50.83991,44.19293],[50.81318,44.21511],[50.74775,44.24061],[50.61319,44.2709],[50.4448,44.30134],[50.32795,44.32387],[50.28011,44.339],[50.25864,44.35363],[50.243,44.37269],[50.23501,44.39864],[50.23351,44.42855],[50.23341,44.45444],[50.23248,44.47274],[50.23062,44.48816],[50.22706,44.5082],[50.22456,44.53498],[50.22839,44.55984],[50.23934,44.57106],[50.25317,44.57198],[50.26481,44.57874],[50.27165,44.59556],[50.27537,44.61238],[50.27889,44.62399],[50.28208,44.63419],[50.28571,44.64618],[50.29393,44.65803],[50.30808,44.66513],[50.32342,44.66533],[50.34442,44.66018],[50.3921,44.65148],[50.46664,44.64307],[50.5362,44.64092],[50.58364,44.64316],[50.61448,44.6416],[50.63807,44.63555],[50.6696,44.63012],[50.71096,44.62535],[50.74235,44.61983],[50.75509,44.6167],[50.75956,44.61865],[50.76399,44.62462],[50.77069,44.63206],[50.78366,44.63831],[50.80816,44.64124],[50.84176,44.64014],[50.87486,44.63398],[50.90386,44.61995],[50.93089,44.59896],[50.95466,44.57985],[50.97396,44.57027],[50.99034,44.56749],[51.00259,44.56445],[51.00773,44.55896],[51.00582,44.55319],[51.00131,44.54802],[51.00198,44.54093],[51.01713,44.52915],[51.05228,44.51314],[51.09893,44.49786],[51.14046,44.48941],[51.17225,44.48894],[51.20126,44.49545],[51.23221,44.50987],[51.26015,44.5277],[51.27623,44.53993],[51.28197,44.54553],[51.28598,44.54921],[51.29299,44.55227],[51.30484,44.55385],[51.32174,44.55476],[51.34181,44.5566],[51.36122,44.55691],[51.37528,44.54974],[51.38947,44.53711],[51.42014,44.52819],[51.47033,44.52321],[51.52069,44.51819],[51.55337,44.51765],[51.56662,44.5254],[51.56537,44.53767],[51.55208,44.55076],[51.52527,44.56645],[51.48733,44.58699],[51.44718,44.6061],[51.40766,44.61358],[51.36692,44.61051],[51.32963,44.61316],[51.29915,44.63773],[51.27105,44.67946],[51.23811,44.71962],[51.19561,44.75092],[51.15249,44.77476],[51.12456,44.78992],[51.10917,44.79829],[51.09228,44.80405],[51.07331,44.80822],[51.06001,44.81184],[51.0482,44.81849],[51.02622,44.83147],[50.99643,44.84929],[50.97192,44.86827],[50.95956,44.88772],[50.96021,44.90586],[50.96911,44.91835],[50.97868,44.92508],[50.98799,44.93078],[50.99573,44.93865],[50.99477,44.94756],[50.98441,44.95428],[50.97128,44.95777],[50.95881,44.96141],[50.95148,44.9698],[50.95773,44.98263],[50.97791,44.99471],[51.00356,45.00221],[51.02781,45.00505],[51.047,45.00568],[51.05995,45.00729],[51.06906,45.01179],[51.07779,45.01939],[51.08996,45.02994],[51.11042,45.04318],[51.13911,45.05707],[51.16948,45.06692],[51.19672,45.06836],[51.22016,45.06081],[51.23956,45.04866],[51.25589,45.03887],[51.27109,45.03668],[51.28194,45.04427],[51.282,45.06001],[51.27284,45.07769],[51.26183,45.09201],[51.25188,45.10357],[51.24451,45.11499],[51.24392,45.12596],[51.25073,45.13589],[51.25672,45.14602],[51.25292,45.15642],[51.24435,45.16719],[51.24472,45.18154],[51.25753,45.20161],[51.27451,45.22409],[51.29316,45.24808],[51.32306,45.28031],[51.36109,45.31862],[51.3878,45.35036],[51.40107,45.37194],[51.41623,45.38268],[51.43958,45.37729],[51.46831,45.36136],[51.50236,45.34941],[51.54209,45.34818],[51.58238,45.35626],[51.61713,45.37053],[51.64472,45.3854],[51.66614,45.39463],[51.68187,45.39854],[51.69316,45.40402],[51.70368,45.41606],[51.71679,45.43304],[51.73449,45.44875],[51.756,45.45569],[51.77621,45.45058],[51.79017,45.43793],[51.802,45.42469],[51.8255,45.41392],[51.86331,45.40456],[51.8993,45.3944],[51.92332,45.38463],[51.94023,45.38042],[51.95835,45.38482],[51.98172,45.39389],[52.009,45.39985],[52.03849,45.39911],[52.08566,45.39661],[52.18413,45.39984],[52.3226,45.40758],[52.43907,45.41268],[52.5204,45.40984],[52.60921,45.39418],[52.71783,45.3688],[52.8144,45.34593],[52.87965,45.33208],[52.93094,45.32647],[52.98464,45.32494],[53.03532,45.32119],[53.07526,45.31494],[53.10505,45.31254],[53.13173,45.31752],[53.15928,45.32626],[53.18132,45.3332],[53.19458,45.33807],[53.20653,45.34279],[53.22213,45.34555],[53.23615,45.34505],[53.24316,45.34408],[53.24788,45.34506],[53.25758,45.34826],[53.2677,45.35484],[53.26107,45.36569],[53.22613,45.37827],[53.17952,45.38874],[53.14925,45.39606],[53.13711,45.40217],[53.12665,45.40834],[53.1081,45.41408],[53.07357,45.42218],[53.01552,45.43817],[52.94873,45.45858],[52.90268,45.47334],[52.88181,45.48238],[52.86924,45.49142],[52.85514,45.49984],[52.83449,45.50627],[52.8047,45.51324],[52.77508,45.5217],[52.75813,45.53042],[52.75267,45.53941],[52.7498,45.54813],[52.74765,45.55523],[52.74889,45.56211],[52.75224,45.57087],[52.75394,45.58053],[52.7533,45.59025],[52.75272,45.60238],[52.75339,45.61864],[52.75471,45.63671],[52.7589,45.65218],[52.77007,45.66257],[52.78723,45.67215],[52.80479,45.69108],[52.82221,45.72311],[52.84275,45.75706],[52.86416,45.77983],[52.88296,45.7911],[52.90007,45.79909],[52.91951,45.8113],[52.94509,45.82978],[52.97167,45.85318],[52.9901,45.88051],[53.00249,45.9074],[53.01672,45.92715],[53.03408,45.93896],[53.04957,45.94938],[53.059,45.96415],[53.06812,45.98244],[53.08227,46.00158],[53.09321,46.0195],[53.09513,46.03262],[53.09188,46.04099],[53.08671,46.05118],[53.08639,46.06661],[53.0984,46.0833],[53.11687,46.10157],[53.13413,46.13405],[53.1552,46.19124],[53.17728,46.26534],[53.1808,46.33872],[53.15652,46.40016],[53.11821,46.44617],[53.08988,46.47419],[53.08536,46.48282],[53.09669,46.47864],[53.11012,46.47324],[53.11906,46.47273],[53.12056,46.47658],[53.11788,46.48478],[53.11143,46.49944],[53.09004,46.51532],[53.0543,46.52089],[53.02636,46.51522],[53.02053,46.5072],[53.02405,46.50482],[53.01693,46.51685],[53.00835,46.54366],[53.02371,46.56664],[53.0531,46.57279],[53.06643,46.57123],[53.06735,46.57042],[53.08243,46.57094],[53.11129,46.58033],[53.13003,46.6028],[53.13206,46.62253],[53.1233,46.62682],[53.1089,46.62722],[53.10423,46.63644],[53.12001,46.65053],[53.1463,46.66046],[53.1658,46.6636],[53.17637,46.66156],[53.19361,46.65503],[53.2206,46.65167],[53.23884,46.66582],[53.23486,46.69737],[53.20998,46.72953],[53.17585,46.74941],[53.14972,46.7565],[53.13999,46.7584],[53.13934,46.76934],[53.13534,46.80115],[53.12343,46.84552],[53.10697,46.88234],[53.08472,46.90517],[53.054,46.91799],[53.02588,46.92274],[53.00988,46.92589],[52.99442,46.93816],[52.96501,46.95937],[52.91918,46.97631],[52.85894,46.98077],[52.78864,46.97864],[52.71498,46.9779],[52.65153,46.97936],[52.61255,46.98282],[52.58955,46.99171],[52.56075,47.00603],[52.5179,47.019],[52.46815,47.02375],[52.43034,47.01718],[52.42406,47.00002],[52.43806,46.97881],[52.43251,46.96136],[52.39624,46.94708],[52.35412,46.93153],[52.31533,46.91611],[52.27645,46.90537],[52.24267,46.90263],[52.21559,46.90332],[52.2019,46.89638],[52.20687,46.88352],[52.21553,46.87734],[52.22105,46.87807],[52.23287,46.87586],[52.25018,46.86751],[52.26492,46.8557],[52.27506,46.84173],[52.27869,46.82814],[52.26293,46.82297],[52.21567,46.82958],[52.15586,46.83935],[52.11805,46.8448],[52.10758,46.84597],[52.10767,46.84581],[52.10654,46.84972],[52.09913,46.85999],[52.08603,46.87221],[52.06994,46.88403],[52.05315,46.8953],[52.04168,46.90173],[52.03433,46.90353],[52.01841,46.9093],[52.00075,46.9203],[52.00715,46.9291],[52.0281,46.93742],[52.0239,46.94841],[51.98921,46.94994],[51.95377,46.93456],[51.93515,46.91635],[51.92592,46.9091],[51.90897,46.90939],[51.87821,46.9109],[51.85605,46.91777],[51.86545,46.93281],[51.8821,46.94794],[51.86877,46.95428],[51.83356,46.95035],[51.80532,46.9426],[51.79185,46.93926],[51.78334,46.94232],[51.77033,46.95061],[51.75099,46.96254],[51.72778,46.97584],[51.70602,46.99387],[51.69757,47.02055],[51.70021,47.04973],[51.68713,47.07052],[51.65021,47.07464],[51.61291,47.06113],[51.59142,47.03943],[51.58522,47.02168],[51.59105,47.01367],[51.60011,47.01617],[51.59773,47.02968],[51.57854,47.05125],[51.54671,47.07222],[51.50355,47.08736],[51.44597,47.09961],[51.37225,47.11366],[51.29283,47.12899],[51.2247,47.13837],[51.17099,47.13525],[51.12071,47.12212],[51.05926,47.10574],[50.98854,47.08826],[50.93287,47.06996],[50.90719,47.05516],[50.90293,47.04885],[50.90109,47.0512],[50.88579,47.05773],[50.8568,47.06061],[50.83221,47.0542],[50.82863,47.04169],[50.8321,47.03065],[50.81642,47.01914],[50.78396,46.99475],[50.75885,46.96031],[50.75101,46.93787],[50.74261,46.93682],[50.73022,46.94825],[50.73782,46.96292],[50.75576,46.9774],[50.74806,46.98689],[50.71583,46.98382],[50.68486,46.97165],[50.66535,46.96226],[50.64999,46.95911],[50.62706,46.95555],[50.59757,46.94166],[50.5754,46.91465],[50.56527,46.88573],[50.5608,46.8673],[50.55611,46.8584],[50.54592,46.85277],[50.53403,46.85263],[50.53565,46.86244],[50.55351,46.87882],[50.56479,46.89452],[50.54889,46.90273],[50.51773,46.9013],[50.49708,46.89509],[50.49461,46.88903],[50.49841,46.88648],[50.4925,46.8912],[50.47458,46.90132],[50.45426,46.90964],[50.43611,46.91219],[50.41922,46.90901],[50.40301,46.89757],[50.38675,46.87386],[50.37256,46.84546],[50.36541,46.82994],[50.36641,46.834],[50.36509,46.846],[50.35127,46.84991],[50.33389,46.84263],[50.32493,46.83319],[50.32225,46.82828],[50.31798,46.82693],[50.30746,46.82506],[50.29335,46.82051],[50.27888,46.81099],[50.26067,46.79167],[50.24026,46.76627],[50.2257,46.74826],[50.21468,46.74305],[50.20595,46.74649],[50.20995,46.75552],[50.21937,46.76716],[50.2118,46.77504],[50.18146,46.76993],[50.13361,46.74458],[50.0799,46.70539],[50.04015,46.67149],[50.01906,46.6542],[50.00184,46.6491],[49.97885,46.64721],[49.95436,46.64244],[49.93477,46.63341],[49.91994,46.62324],[49.90409,46.61386],[49.8859,46.60425],[49.87132,46.59663],[49.85747,46.59354],[49.83597,46.5891],[49.8141,46.57765],[49.8048,46.56524],[49.80554,46.56055],[49.80421,46.56438],[49.79267,46.5716],[49.77104,46.57358],[49.74984,46.56513],[49.74195,46.55343],[49.74712,46.54914],[49.75107,46.55441],[49.74109,46.5644],[49.71827,46.57069],[49.69469,46.56578],[49.68385,46.55119],[49.68734,46.54094],[49.68449,46.54996],[49.65732,46.57071],[49.62171,46.57712],[49.60298,46.56156],[49.6002,46.54358],[49.59587,46.53562],[49.58548,46.52985],[49.58141,46.52235],[49.58611,46.52133],[49.5827,46.53202],[49.56034,46.55005],[49.52638,46.56571],[49.48998,46.57361],[49.45777,46.57707],[49.44356,46.57637],[49.45717,46.56787],[49.48748,46.5545],[49.5098,46.53899],[49.51077,46.5233],[49.50062,46.51577],[49.4932,46.5192],[49.48829,46.52482],[49.48065,46.52578],[49.46525,46.52422],[49.4442,46.52479],[49.43397,46.52874],[49.44373,46.53714],[49.45743,46.55089],[49.45266,46.56423],[49.42883,46.56809],[49.40634,46.56242],[49.4005,46.55781],[49.40257,46.56092],[49.39375,46.5681],[49.3696,46.57672],[49.33991,46.58597],[49.32701,46.58593],[49.34501,46.56474],[49.3697,46.53003],[49.37441,46.506],[49.36498,46.50213],[49.35556,46.50543],[49.3508,46.50756],[49.34609,46.51352],[49.33279,46.52567],[49.31135,46.53739],[49.29775,46.53998],[49.29996,46.53036],[49.30259,46.51228],[49.30446,46.49381],[49.32309,46.48023],[49.35079,46.46605],[49.36178,46.44545],[49.35241,46.4247],[49.34354,46.41227],[49.3483,46.40971],[49.35501,46.41572],[49.34926,46.42712],[49.33468,46.43972],[49.31989,46.4527],[49.30423,46.46683],[49.28248,46.48003],[49.25654,46.48815],[49.24262,46.48842],[49.24677,46.48071],[49.24699,46.46621],[49.2366,46.44942],[49.24263,46.43693],[49.27018,46.42827],[49.28824,46.41993],[49.285,46.41477],[49.27317,46.41599],[49.24912,46.42262],[49.20812,46.42919],[49.1724,46.42775],[49.16566,46.41914],[49.1815,46.41262],[49.19641,46.41148],[49.20563,46.41065],[49.21567,46.40342],[49.21709,46.38625],[49.2047,46.36348],[49.19342,46.34425],[49.1952,46.33392],[49.21391,46.33085],[49.2482,46.32604],[49.28153,46.3112],[49.2938,46.2903],[49.28749,46.27493],[49.28228,46.27066],[49.28346,46.27363],[49.27956,46.27932],[49.26426,46.28667],[49.24003,46.29444],[49.20856,46.30172],[49.17129,46.30927],[49.14225,46.31977],[49.13403,46.33405],[49.13141,46.34375],[49.11616,46.33991],[49.09276,46.32636],[49.07018,46.31062],[49.05364,46.29564],[49.0462,46.2853],[49.0459,46.28039],[49.05466,46.27665],[49.07567,46.27227],[49.09848,46.26422],[49.10533,46.24442],[49.09791,46.21248],[49.0973,46.1846],[49.10789,46.17522],[49.11409,46.17981],[49.10814,46.18997],[49.09075,46.2031],[49.06362,46.21283],[49.03411,46.21251],[49.01304,46.20521],[49.00322,46.19898],[48.99336,46.19472],[48.97149,46.18642],[48.94207,46.17173],[48.92373,46.15338],[48.92826,46.13561],[48.93919,46.12247],[48.93485,46.11449],[48.92426,46.11004],[48.92144,46.10687],[48.91754,46.10248],[48.90889,46.10164],[48.91032,46.11406],[48.91826,46.13775],[48.90799,46.15748],[48.87998,46.15941],[48.85967,46.14521],[48.85995,46.13145],[48.87345,46.12974],[48.88219,46.13887],[48.87055,46.15108],[48.84684,46.15434],[48.83732,46.1436],[48.84387,46.12423],[48.84799,46.10413],[48.85184,46.09304],[48.85799,46.09342],[48.8508,46.09977],[48.83014,46.11142],[48.81158,46.12379],[48.8054,46.12426],[48.80785,46.11018],[48.80471,46.09155],[48.79895,46.07889],[48.801,46.07381],[48.79908,46.07001],[48.78704,46.06879],[48.78107,46.08098],[48.77865,46.10679],[48.75731,46.13085],[48.72224,46.14052],[48.70128,46.13919],[48.6968,46.1379],[48.68587,46.13774],[48.66273,46.13187],[48.6429,46.11988],[48.63451,46.10848],[48.63492,46.10367],[48.63778,46.10529],[48.63616,46.10755],[48.63719,46.10616],[48.6549,46.10104],[48.68541,46.09112],[48.71571,46.07409],[48.73514,46.05372],[48.73243,46.03749],[48.71225,46.0272],[48.69459,46.02038],[48.68667,46.01595],[48.68051,46.01308],[48.66839,46.00882],[48.64917,45.99887],[48.63417,45.98355],[48.63719,45.97204],[48.64984,45.97201],[48.65823,45.97989],[48.67222,45.98827],[48.70283,45.99232],[48.73623,45.98821],[48.74833,45.97569],[48.73613,45.9599],[48.7198,45.94435],[48.71596,45.92936],[48.72691,45.91805],[48.73848,45.90955],[48.74155,45.89729],[48.75219,45.88203],[48.77182,45.87012],[48.78004,45.86558],[48.77223,45.86737],[48.75403,45.86853],[48.73023,45.86382],[48.70893,45.85404],[48.69979,45.84389],[48.70159,45.83935],[48.69555,45.84322],[48.67742,45.85509],[48.66868,45.87149],[48.67769,45.88677],[48.68972,45.89857],[48.69106,45.90819],[48.68142,45.91694],[48.6686,45.92414],[48.65747,45.92875],[48.64631,45.9293],[48.62955,45.92399],[48.61227,45.91876],[48.61098,45.92511],[48.61975,45.94487],[48.61191,45.96816],[48.58129,45.98297],[48.54322,45.98349],[48.51261,45.9746],[48.4971,45.96629],[48.49251,45.96338],[48.4863,45.96354],[48.47111,45.96237],[48.45019,45.95669],[48.42789,45.94408],[48.40545,45.9244],[48.38945,45.90525],[48.38362,45.89631],[48.37506,45.89474],[48.35886,45.88966],[48.35434,45.8806],[48.36993,45.87554],[48.3889,45.87388],[48.39701,45.86864],[48.39032,45.86175],[48.36389,45.85954],[48.32007,45.85818],[48.27925,45.84929],[48.25785,45.83352],[48.25126,45.8179],[48.24932,45.80663],[48.24761,45.80022],[48.24381,45.79702],[48.23619,45.79466],[48.22469,45.79109],[48.2101,45.78265],[48.19726,45.76714],[48.19323,45.74896],[48.19754,45.73429],[48.20567,45.72622],[48.21735,45.72637],[48.22682,45.73425],[48.21831,45.74617],[48.188,45.75594],[48.15424,45.7591],[48.12966,45.76008],[48.10563,45.76463],[48.07548,45.76712],[48.04644,45.76112],[48.02491,45.75097],[48.00905,45.74209],[47.9961,45.73381],[47.99026,45.7259],[47.99392,45.72001],[47.99656,45.71658],[47.99523,45.71868],[47.99907,45.72796],[48.00244,45.73878],[47.99405,45.7467],[47.976,45.75141],[47.95628,45.75213],[47.94129,45.74979],[47.92953,45.74618],[47.91413,45.73967],[47.8948,45.72742],[47.87694,45.71147],[47.86683,45.7026],[47.86748,45.71102],[47.86716,45.72866],[47.85155,45.73607],[47.82902,45.72643],[47.81493,45.70708],[47.80906,45.68507],[47.80721,45.66318],[47.80997,45.64578],[47.81425,45.638],[47.81443,45.63703],[47.81313,45.63535],[47.81303,45.63206],[47.80104,45.63313],[47.77164,45.64244],[47.74764,45.65856],[47.74394,45.67956],[47.7434,45.69893],[47.7306,45.70653],[47.71785,45.70822],[47.7137,45.71664],[47.7048,45.72628],[47.68913,45.7282],[47.68068,45.72644],[47.68267,45.72632],[47.68609,45.72754],[47.68528,45.72845],[47.68003,45.72662],[47.66596,45.71992],[47.64338,45.71348],[47.62497,45.71512],[47.62002,45.72455],[47.62768,45.73967],[47.63726,45.75893],[47.63357,45.77575],[47.61337,45.78605],[47.5835,45.78963],[47.55243,45.78252],[47.53348,45.76608],[47.53642,45.75518],[47.55527,45.75819],[47.57444,45.76289],[47.58101,45.75511],[47.57942,45.73787],[47.58886,45.72702],[47.61032,45.72898],[47.62402,45.73221],[47.61951,45.72598],[47.6044,45.71259],[47.59277,45.69879],[47.5902,45.68808],[47.59298,45.68312],[47.59669,45.68464],[47.59596,45.68614],[47.5883,45.67965],[47.58008,45.66664],[47.57718,45.65513],[47.58106,45.64795],[47.59558,45.64262],[47.61701,45.6338],[47.63275,45.61674],[47.64034,45.59588],[47.64397,45.5784],[47.64125,45.56717],[47.62794,45.56596],[47.60473,45.57681],[47.58025,45.59793],[47.56415,45.62886],[47.55053,45.66308],[47.52822,45.68556],[47.50443,45.69297],[47.48881,45.69687],[47.47315,45.70357],[47.44968,45.71077],[47.42928,45.71826],[47.42696,45.72742],[47.44128,45.73534],[47.46039,45.73929],[47.47307,45.74285],[47.46639,45.74779],[47.43958,45.75022],[47.41475,45.7538],[47.40291,45.76329],[47.38903,45.76897],[47.36871,45.76096],[47.35735,45.74227],[47.36217,45.72195],[47.37304,45.70805],[47.37881,45.70067],[47.38062,45.69291],[47.38771,45.6841],[47.40576,45.68211],[47.42619,45.68892],[47.43811,45.69636],[47.44428,45.69638],[47.44531,45.68542],[47.44177,45.66926],[47.45019,45.66246],[47.47978,45.66687],[47.51445,45.66665],[47.53152,45.65245],[47.52781,45.63222],[47.52249,45.61632],[47.53135,45.60471],[47.5496,45.59236],[47.56387,45.57892],[47.56926,45.56781],[47.56849,45.56],[47.56357,45.55358],[47.55636,45.54771],[47.5485,45.5436],[47.53812,45.54451],[47.52479,45.55406],[47.5129,45.56987],[47.50431,45.58167],[47.49773,45.58189],[47.49453,45.57402],[47.49707,45.56355],[47.50639,45.54878],[47.52,45.5298],[47.53087,45.51462],[47.53281,45.50652],[47.52395,45.49822],[47.50947,45.48538],[47.49914,45.47135],[47.49617,45.45735],[47.4951,45.44323],[47.4868,45.43241],[47.46339,45.42714],[47.42948,45.42462],[47.40172,45.42022],[47.3937,45.4133],[47.40785,45.40697],[47.43278,45.40217],[47.45086,45.39699],[47.45571,45.39033],[47.45216,45.38297],[47.44444,45.3764],[47.43535,45.37142],[47.42831,45.3675],[47.42275,45.36131],[47.41332,45.34724],[47.39909,45.32506],[47.38659,45.29814],[47.37972,45.26315],[47.37485,45.22355],[47.36697,45.19677],[47.35403,45.18961],[47.33632,45.19166],[47.31664,45.19131],[47.29921,45.18101],[47.28546,45.15722],[47.27328,45.12409],[47.26042,45.09114],[47.24548,45.06135],[47.22875,45.03021],[47.21261,45.00028],[47.19742,44.98115],[47.18179,44.97238],[47.16697,44.96322],[47.15509,44.94986],[47.14569,44.94013],[47.13632,44.94076],[47.12498,44.94831],[47.11257,44.95418],[47.10364,44.94901],[47.10061,44.92263],[47.09745,44.877],[47.08919,44.83238],[47.0806,44.80427],[47.07484,44.79199],[47.06649,44.79384],[47.05076,44.8104],[47.03175,44.83646],[47.0176,44.86559],[47.00885,44.8929],[47.00026,44.90928],[46.99173,44.90774],[46.98844,44.89196],[46.99265,44.8706],[46.99994,44.84988],[47.00205,44.83114],[46.99329,44.81123],[46.97669,44.79049],[46.95924,44.77672],[46.94106,44.77171],[46.91822,44.76611],[46.89263,44.75456],[46.87066,44.74021],[46.85477,44.72563],[46.84068,44.71259],[46.82129,44.70373],[46.79511,44.69519],[46.76823,44.68072],[46.74536,44.66413],[46.72761,44.64767],[46.7161,44.62236],[46.7113,44.59073],[46.71235,44.56833],[46.71631,44.55771],[46.71823,44.55155],[46.71468,44.5476],[46.70598,44.54529],[46.69528,44.54222],[46.68651,44.53578],[46.68309,44.52259],[46.68627,44.50022],[46.69357,44.473],[46.7026,44.44917],[46.7156,44.43088],[46.73429,44.41568],[46.75657,44.40406],[46.78231,44.39802],[46.81058,44.39682],[46.84347,44.39577],[46.89549,44.3883],[46.96309,44.37393],[47.01501,44.35844],[47.04039,44.34202],[47.05448,44.31919],[47.06651,44.2917],[47.07774,44.26796],[47.09001,44.25059],[47.10464,44.23662],[47.12028,44.22559],[47.13496,44.21806],[47.14942,44.21219],[47.16448,44.20756],[47.17889,44.20731],[47.19283,44.21339],[47.20789,44.22106],[47.22488,44.21961],[47.24425,44.19895],[47.26595,44.15719],[47.28919,44.10693],[47.31182,44.06698],[47.33092,44.04381],[47.34663,44.02728],[47.36365,44.00217],[47.38475,43.96619],[47.40511,43.93206],[47.41881,43.90725],[47.42754,43.88952],[47.4374,43.87733],[47.4489,43.86873],[47.45574,43.85973],[47.45407,43.84766],[47.44835,43.83424],[47.44709,43.82546],[47.45447,43.82377],[47.46708,43.82426],[47.47945,43.81993],[47.48962,43.80687],[47.49675,43.78878],[47.4973,43.77431],[47.48837,43.76613],[47.47347,43.76039],[47.45978,43.75403],[47.45005,43.74571],[47.44372,43.73294],[47.44279,43.71474],[47.44623,43.69647],[47.44695,43.68453],[47.44186,43.67834],[47.43349,43.67209],[47.42236,43.65902],[47.40808,43.63857],[47.39304,43.62147],[47.38065,43.61632],[47.3723,43.61727],[47.36784,43.61323],[47.36771,43.59986],[47.3721,43.58106],[47.38009,43.56389],[47.38997,43.55133],[47.39829,43.54022],[47.40357,43.52741],[47.41108,43.5161],[47.42586,43.51421],[47.44461,43.52783],[47.46038,43.5561],[47.46989,43.59074],[47.47447,43.62081],[47.47759,43.64066],[47.48219,43.65282],[47.48923,43.66266],[47.49694,43.67443],[47.50194,43.69072],[47.5047,43.71017],[47.5102,43.73008],[47.52015,43.75174],[47.53054,43.77702],[47.53757,43.80419],[47.54076,43.82963],[47.5425,43.85018],[47.54793,43.86601],[47.56135,43.88023],[47.5807,43.89256],[47.6021,43.89927],[47.62593,43.89953],[47.65173,43.8949],[47.67167,43.88426],[47.67101,43.8616],[47.64247,43.81633],[47.59767,43.73897],[47.55398,43.63779],[47.52009,43.54201],[47.49754,43.47211],[47.48667,43.42301],[47.48595,43.38393],[47.48859,43.35298],[47.48896,43.33012],[47.48983,43.31282],[47.49708,43.30237],[47.51225,43.30371],[47.53209,43.31453],[47.55132,43.32517],[47.56593,43.32946],[47.57507,43.32716],[47.58028,43.32022],[47.58278,43.31103],[47.58235,43.30176],[47.57866,43.29321],[47.5718,43.28339],[47.56045,43.27092],[47.54311,43.2578],[47.52251,43.24522],[47.50392,43.23162],[47.49073,43.21606],[47.48479,43.19977],[47.4839,43.1846],[47.48256,43.17163],[47.47989,43.16012],[47.47897,43.14894],[47.47964,43.13815],[47.47809,43.12779],[47.47166,43.11748],[47.46259,43.10706],[47.45626,43.09265],[47.45975,43.06455],[47.48322,43.02081],[47.5266,42.97686],[47.56939,42.94748],[47.59459,42.93057],[47.61184,42.91578],[47.63947,42.89702],[47.67381,42.87604],[47.69689,42.85763],[47.70561,42.8431],[47.70877,42.82925],[47.71104,42.80944],[47.71336,42.78424],[47.71564,42.7647],[47.71683,42.75443],[47.71621,42.74447],[47.71565,42.72581],[47.71959,42.69734],[47.73562,42.66532],[47.77129,42.63517],[47.82231,42.60304],[47.87756,42.55623],[47.93243,42.49338],[47.98359,42.43458],[48.0281,42.39429],[48.07204,42.35829],[48.1274,42.29882],[48.1916,42.21947],[48.24478,42.15669],[48.27811,42.12317],[48.29772,42.10175],[48.30884,42.0812],[48.31954,42.05504],[48.34186,42.01338],[48.37806,41.96196],[48.41993,41.92272],[48.46324,41.90248],[48.50679,41.88852],[48.54397,41.87168],[48.56795,41.85504],[48.58174,41.84369],[48.59729,41.83415],[48.62577,41.81549],[48.67148,41.77814],[48.72468,41.72952],[48.76557,41.69002],[48.79056,41.66232],[48.81782,41.62939],[48.8566,41.58483],[48.89453,41.54336],[48.92098,41.51785],[48.93841,41.50297],[48.95213,41.48871],[48.9655,41.47237],[48.97842,41.45678],[48.98917,41.44586],[49.00038,41.43951],[49.01422,41.43405],[49.0297,41.42338],[49.04971,41.39873],[49.07592,41.36008],[49.10164,41.32173],[49.1204,41.2942],[49.13284,41.26938],[49.1426,41.23275],[49.15182,41.1885],[49.16089,41.15585],[49.17016,41.13558],[49.18309,41.10657],[49.21131,41.05487],[49.26453,40.98718],[49.32556,40.92516],[49.36582,40.88645],[49.38737,40.86623],[49.4111,40.85108],[49.44091,40.83883],[49.4678,40.83007],[49.48891,40.8204],[49.50733,40.80852],[49.52289,40.79669],[49.53082,40.78233],[49.52835,40.76086],[49.51979,40.73537],[49.51262,40.71403],[49.51008,40.69962],[49.51172,40.68908],[49.51708,40.67963],[49.52402,40.67119],[49.52934,40.66492],[49.53404,40.65949],[49.54275,40.65166],[49.55704,40.64141],[49.57547,40.63206],[49.59873,40.62585],[49.62551,40.62175],[49.65062,40.61623],[49.67419,40.60603],[49.70082,40.59284],[49.73343,40.58166],[49.77165,40.57369],[49.80861,40.56788],[49.83952,40.56621],[49.87051,40.57086],[49.91051,40.5787],[49.96334,40.58331],[50.01757,40.58205],[50.05165,40.57702],[50.06339,40.57051],[50.06842,40.56294],[50.07688,40.55307],[50.09103,40.54073],[50.11379,40.52803],[50.15109,40.51624],[50.19629,40.50492],[50.23005,40.49281],[50.24802,40.4774],[50.26145,40.45857],[50.27729,40.44098],[50.29594,40.4281],[50.31548,40.41711],[50.33325,40.40312],[50.34775,40.38121],[50.35924,40.34642],[50.36873,40.30581],[50.37691,40.2748],[50.38349,40.25453],[50.38596,40.23984],[50.38051,40.23687],[50.3661,40.25032],[50.34404,40.2733],[50.31475,40.29776],[50.28215,40.31895],[50.25203,40.33325],[50.22178,40.34157],[50.18746,40.34799],[50.15515,40.35356],[50.13195,40.35645],[50.11658,40.35593],[50.10275,40.35361],[50.08444,40.35132],[50.06041,40.34781],[50.03402,40.34018],[50.00895,40.33097],[49.9889,40.32744],[49.97501,40.33234],[49.96441,40.34136],[49.95367,40.34906],[49.93906,40.35437],[49.91867,40.35904],[49.89498,40.36069],[49.87186,40.35342],[49.85303,40.3363],[49.8365,40.31468],[49.81109,40.29416],[49.76881,40.27645],[49.71258,40.25883],[49.6514,40.23918],[49.59721,40.21933],[49.55714,40.19988],[49.52842,40.18091],[49.50795,40.16477],[49.49631,40.14944],[49.49277,40.13061],[49.49067,40.11048],[49.4785,40.09315],[49.45643,40.07766],[49.44027,40.06101],[49.43898,40.04304],[49.44721,40.02687],[49.45826,40.01502],[49.46889,40.0062],[49.47663,39.99795],[49.47932,39.98982],[49.4757,39.98224],[49.46629,39.97469],[49.45449,39.9673],[49.44414,39.96114],[49.43586,39.95497],[49.42907,39.94662],[49.42488,39.93587],[49.42497,39.92239],[49.42954,39.90568],[49.43576,39.88844],[49.43895,39.87409],[49.43672,39.8632],[49.43049,39.85509],[49.4233,39.84875],[49.41781,39.84239],[49.4155,39.83539],[49.41626,39.82876],[49.41844,39.82282],[49.41997,39.81693],[49.4188,39.81076],[49.41318,39.80365],[49.40447,39.79471],[49.39781,39.78494],[49.39615,39.77599],[49.3971,39.76681],[49.3997,39.75478],[49.4068,39.73919],[49.41573,39.72303],[49.41682,39.71003],[49.40507,39.69895],[49.38431,39.68501],[49.36089,39.66634],[49.3398,39.64506],[49.32467,39.62405],[49.31526,39.60461],[49.30701,39.58555],[49.29784,39.56506],[49.29022,39.54312],[49.28674,39.52037],[49.29386,39.49481],[49.32165,39.46249],[49.36265,39.42773],[49.39308,39.40236],[49.40469,39.3893],[49.4058,39.38085],[49.4027,39.36879],[49.39982,39.35192],[49.40007,39.33691],[49.39984,39.32949],[49.39455,39.3298],[49.38616,39.33508],[49.37857,39.34197],[49.37281,39.34663],[49.37005,39.34462],[49.37241,39.3346],[49.38024,39.32052],[49.39125,39.30741],[49.39953,39.29791],[49.39785,39.29384],[49.38596,39.29697],[49.3685,39.30736],[49.34398,39.32196],[49.31112,39.33205],[49.27828,39.32747],[49.25445,39.30237],[49.24151,39.2554],[49.23603,39.20054],[49.23212,39.15991],[49.22575,39.13413],[49.21771,39.11064],[49.21108,39.0854],[49.20627,39.05974],[49.19685,39.03477],[49.17125,39.00929],[49.12897,38.98602],[49.08772,38.97532],[49.06307,38.98004],[49.05471,38.99076],[49.05492,38.99998],[49.06123,39.00737],[49.07753,39.01429],[49.10155,39.02163],[49.12299,39.03131],[49.13641,39.04547],[49.14266,39.0635],[49.14143,39.0821],[49.13004,39.09728],[49.10801,39.10694],[49.08396,39.11541],[49.06884,39.13068],[49.06148,39.15201],[49.05308,39.17011],[49.03796,39.1806],[49.01505,39.18506],[48.99004,39.18506],[48.9719,39.18142],[48.96218,39.17445],[48.95606,39.16474],[48.9513,39.15434],[48.9487,39.14488],[48.94766,39.13637],[48.94589,39.12963],[48.94233,39.12596],[48.9381,39.12185],[48.93496,39.10836],[48.93495,39.08322],[48.93936,39.05535],[48.94349,39.0277],[48.93943,38.9934],[48.9277,38.95516],[48.91502,38.92396],[48.90315,38.90194],[48.88779,38.88528],[48.86615,38.87192],[48.8453,38.85802],[48.83506,38.83995],[48.83606,38.81861],[48.84457,38.78505],[48.8565,38.7135],[48.86626,38.60096],[48.87152,38.49088],[48.87337,38.41535],[48.87244,38.3632],[48.87079,38.32158],[48.87244,38.2852],[48.8798,38.2413],[48.89389,38.17503],[48.91384,38.08629],[48.93201,38.00351],[48.94029,37.95253],[48.94208,37.92553],[48.94711,37.90376],[48.95988,37.87908],[48.97519,37.85372],[48.98372,37.83493],[48.9851,37.82194],[48.98771,37.80414],[48.99948,37.7738],[49.02674,37.7308],[49.07308,37.67977],[49.14073,37.62686],[49.23324,37.57559],[49.35905,37.52904],[49.53082,37.49218],[49.71636,37.46943],[49.84326,37.46279],[49.90066,37.46589],[49.93203,37.46701],[49.95244,37.46323],[49.95675,37.46003],[49.95064,37.45938],[49.94839,37.45657],[49.97219,37.44593],[50.03649,37.42739],[50.11925,37.40639],[50.18207,37.38523],[50.21316,37.36139],[50.22543,37.33531],[50.23351,37.30965],[50.24354,37.28558],[50.25586,37.26237],[50.27215,37.23376],[50.29489,37.19651],[50.32627,37.15757],[50.36957,37.12033],[50.4206,37.08237],[50.46441,37.0497],[50.49877,37.02736],[50.5419,37.00562],[50.59524,36.98026],[50.63721,36.96066],[50.66278,36.94701],[50.69217,36.92903],[50.75446,36.8961],[50.86042,36.8437],[50.99322,36.78466],[51.15153,36.73465],[51.34239,36.69311],[51.54167,36.6552],[51.72915,36.62286],[51.90993,36.60598],[52.08739,36.61559],[52.26065,36.64635],[52.43302,36.68108],[52.60645,36.71245],[52.77886,36.7447],[52.9589,36.78273],[53.16007,36.82535],[53.37228,36.86312],[53.58523,36.88817],[53.78576,36.90562],[53.92596,36.92154],[53.98273,36.92802],[53.98,36.91849],[53.9406,36.9026],[53.88736,36.89042],[53.84481,36.88223],[53.81888,36.8779],[53.79979,36.87814],[53.77994,36.87977],[53.75894,36.87855],[53.73564,36.87502],[53.70408,36.87336],[53.66414,36.87384],[53.63208,36.87223],[53.62401,36.86758],[53.63496,36.86334],[53.64582,36.86077],[53.64692,36.85705],[53.64948,36.84817],[53.67524,36.83358],[53.73606,36.81832],[53.81114,36.80678],[53.87057,36.80095],[53.92278,36.80408],[53.97859,36.81587],[54.01738,36.83625],[54.03059,36.87329],[54.03067,36.92141],[54.02386,36.95666],[54.01223,36.9723],[54.00342,36.98318],[54.00339,37.00104],[54.00459,37.02759],[53.99609,37.06264],[53.97829,37.11125],[53.95685,37.17125],[53.93729,37.228],[53.92427,37.2761],[53.91683,37.32338],[53.91018,37.37941],[53.90123,37.44434],[53.88978,37.50196],[53.87822,37.54232],[53.8675,37.5813],[53.85313,37.65638],[53.83399,37.79134],[53.81975,37.94105],[53.81831,38.03836],[53.82722,38.08964],[53.84061,38.13802],[53.85304,38.18971],[53.86139,38.23263],[53.86639,38.27139],[53.86826,38.31609],[53.86648,38.35948],[53.86215,38.38789],[53.85681,38.40273],[53.8521,38.41375],[53.84805,38.42931],[53.84247,38.45646],[53.83635,38.49538],[53.83493,38.5425],[53.84084,38.59381],[53.854,38.64199],[53.87592,38.6861],[53.90175,38.72971],[53.91939,38.76814],[53.92711,38.79548],[53.93357,38.81433],[53.94165,38.83133],[53.94965,38.84898],[53.95842,38.86601],[53.96846,38.88262],[53.977,38.89853],[53.9801,38.91111],[53.97695,38.9211],[53.96765,38.93169],[53.95162,38.94215],[53.93485,38.95061],[53.92507,38.95748],[53.92036,38.96271],[53.9153,38.96587],[53.90855,38.968],[53.90144,38.97069],[53.89623,38.9751],[53.89316,38.98169],[53.89041,38.98997],[53.88665,38.99979],[53.88012,39.01146],[53.86842,39.02283],[53.84941,39.03063],[53.82491,39.03496],[53.8029,39.03764],[53.78881,39.03827],[53.78023,39.03611],[53.77291,39.0332],[53.76485,39.03398],[53.75591,39.04365],[53.74564,39.0644],[53.73388,39.08826],[53.72378,39.10142],[53.71915,39.09946],[53.72084,39.08852],[53.7263,39.0756],[53.72982,39.06523],[53.72616,39.06126],[53.71633,39.06661],[53.70705,39.08062],[53.70322,39.10005],[53.703,39.12096],[53.70267,39.13838],[53.7046,39.15032],[53.71123,39.15967],[53.71507,39.16909],[53.71227,39.18206],[53.71147,39.20233],[53.71175,39.22142],[53.70165,39.22527],[53.68439,39.21536],[53.67458,39.19674],[53.67567,39.163],[53.676,39.12416],[53.66626,39.10878],[53.65149,39.12019],[53.64082,39.13936],[53.6351,39.15752],[53.62886,39.17376],[53.61902,39.18597],[53.61057,39.19557],[53.609,39.20703],[53.61025,39.22065],[53.60761,39.23155],[53.60075,39.23399],[53.59139,39.22501],[53.58035,39.21088],[53.57153,39.2067],[53.57003,39.22228],[53.57416,39.25182],[53.57586,39.27894],[53.57442,39.29646],[53.57614,39.31089],[53.57776,39.32237],[53.57288,39.32729],[53.5663,39.33194],[53.563,39.34018],[53.55871,39.34526],[53.54942,39.34234],[53.53733,39.33627],[53.52372,39.33268],[53.50455,39.33007],[53.48018,39.32559],[53.46005,39.32223],[53.44962,39.32496],[53.44448,39.331],[53.43879,39.33202],[53.43045,39.326],[53.41907,39.31777],[53.40623,39.31226],[53.39788,39.31288],[53.39758,39.32043],[53.39885,39.32983],[53.394,39.33475],[53.38509,39.33537],[53.37796,39.33478],[53.373,39.33326],[53.3676,39.33102],[53.36147,39.33051],[53.35574,39.33344],[53.35054,39.33771],[53.34347,39.33915],[53.33057,39.33624],[53.31344,39.3323],[53.30087,39.33225],[53.29748,39.33691],[53.29754,39.34258],[53.29407,39.34624],[53.28608,39.34799],[53.27515,39.34967],[53.26253,39.35303],[53.24931,39.35753],[53.23332,39.35997],[53.20964,39.35773],[53.18362,39.35089],[53.17244,39.34084],[53.17963,39.32934],[53.18752,39.31687],[53.18491,39.30257],[53.1784,39.28716],[53.17589,39.27009],[53.17835,39.24728],[53.18178,39.21941],[53.18059,39.19542],[53.17278,39.1915],[53.1596,39.22439],[53.1418,39.28359],[53.12023,39.33682],[53.10111,39.37268],[53.09359,39.39779],[53.099,39.41595],[53.11229,39.43104],[53.12745,39.44579],[53.13833,39.45936],[53.14498,39.47145],[53.15349,39.48362],[53.16779,39.50157],[53.18876,39.53485],[53.21571,39.58203],[53.24602,39.62517],[53.27481,39.64907],[53.2924,39.65362],[53.29123,39.64599],[53.27625,39.63125],[53.25926,39.61277],[53.24726,39.59403],[53.23893,39.57726],[53.23003,39.56224],[53.22356,39.54642],[53.2352,39.53217],[53.28016,39.52699],[53.34791,39.52973],[53.40686,39.53105],[53.44098,39.52634],[53.45827,39.51643],[53.46919,39.50326],[53.47939,39.49024],[53.49397,39.48076],[53.51611,39.47502],[53.54201,39.47098],[53.56324,39.46856],[53.57595,39.47057],[53.58126,39.47769],[53.58048,39.48629],[53.57569,39.49299],[53.57085,39.49892],[53.57036,39.50747],[53.5759,39.51584],[53.58587,39.51597],[53.59916,39.50727],[53.61666,39.49949],[53.63848,39.5011],[53.66117,39.50963],[53.68018,39.51561],[53.69598,39.51459],[53.71137,39.51093],[53.72496,39.5114],[53.73237,39.51798],[53.73062,39.52703],[53.72089,39.53493],[53.70488,39.54165],[53.68171,39.54901],[53.65719,39.55791],[53.64441,39.56689],[53.64654,39.57466],[53.65265,39.58308],[53.65219,39.59378],[53.6438,39.60483],[53.62959,39.61272],[53.60908,39.61618],[53.58718,39.61917],[53.57396,39.62722],[53.56902,39.63993],[53.56361,39.65254],[53.55467,39.66304],[53.54586,39.6695],[53.54135,39.66586],[53.54052,39.6518],[53.53639,39.64075],[53.5217,39.6469],[53.49726,39.66752],[53.47211,39.68673],[53.45635,39.69392],[53.45277,39.68966],[53.45294,39.6815],[53.44781,39.67805],[53.4395,39.67951],[53.43562,39.67749],[53.43904,39.66656],[53.4438,39.65174],[53.44,39.64595],[53.42932,39.66122],[53.42351,39.69698],[53.42277,39.73382],[53.41743,39.75215],[53.40584,39.75532],[53.39364,39.75698],[53.38782,39.76191],[53.39709,39.77264],[53.4251,39.79536],[53.46111,39.82755],[53.48664,39.85525],[53.49433,39.8711],[53.49257,39.87926],[53.49195,39.88398],[53.49679,39.88684],[53.50746,39.88901],[53.52153,39.89182],[53.53252,39.89661],[53.53521,39.90277],[53.53289,39.90863],[53.53387,39.915],[53.54202,39.92395],[53.55466,39.93585],[53.56623,39.94912],[53.57186,39.9594],[53.57126,39.96326],[53.5681,39.96278],[53.56356,39.96218],[53.55522,39.96431],[53.5413,39.96892],[53.52121,39.97265],[53.49687,39.97546],[53.47317,39.9814],[53.45299,39.99057],[53.43553,39.99847],[53.4191,40.00242],[53.40281,40.00254],[53.38512,39.9974],[53.36266,39.98429],[53.33739,39.967],[53.31739,39.95425],[53.3044,39.94736],[53.29355,39.94253],[53.28249,39.94031],[53.27076,39.94247],[53.2584,39.94721],[53.24333,39.95402],[53.21874,39.96634],[53.18663,39.98046],[53.15982,39.98553],[53.13822,39.98042],[53.11,39.97369],[53.08025,39.97172],[53.06607,39.97546],[53.06795,39.9818],[53.07014,39.98633],[53.0555,39.98542],[53.02027,39.98007],[52.97965,39.97853],[52.94837,39.98762],[52.92773,40.00227],[52.91361,40.01033],[52.90427,40.00703],[52.90162,39.99648],[52.90711,39.98254],[52.91729,39.96468],[52.92612,39.93965],[52.93282,39.90975],[52.94257,39.88327],[52.95866,39.86122],[52.98104,39.83583],[53.00801,39.80588],[53.03239,39.78146],[53.04356,39.7698],[53.03724,39.76893],[53.0254,39.77108],[53.02566,39.76638],[53.03318,39.75596],[53.02923,39.75314],[53.0124,39.766],[52.9922,39.79168],[52.97062,39.82053],[52.94679,39.84284],[52.92492,39.85926],[52.91019,39.87758],[52.9014,39.90098],[52.8877,39.92764],[52.85447,39.95836],[52.80526,39.99361],[52.76538,40.028],[52.74952,40.05964],[52.75028,40.09011],[52.7569,40.11603],[52.76295,40.13596],[52.76256,40.15443],[52.7541,40.17455],[52.74494,40.19377],[52.7394,40.20846],[52.73127,40.2222],[52.71849,40.24343],[52.71059,40.28331],[52.71664,40.35357],[52.7343,40.44023],[52.75743,40.50997],[52.78813,40.55985],[52.82502,40.60735],[52.85348,40.65135],[52.86197,40.6814],[52.85361,40.6965],[52.84064,40.70432],[52.83386,40.71239],[52.83465,40.72298],[52.83756,40.73387],[52.83889,40.74143],[52.84124,40.74571],[52.84874,40.7493],[52.85947,40.75306],[52.86788,40.75796],[52.87139,40.76574],[52.87088,40.77534],[52.86995,40.78813],[52.87598,40.81617],[52.89372,40.86694],[52.9147,40.92746],[52.92505,40.98416],[52.92432,41.03315],[52.92405,41.06493],[52.93217,41.07341],[52.94651,41.06822],[52.95929,41.05955],[52.96527,41.04925],[52.9653,41.03783],[52.96382,41.02631],[52.96753,41.01203],[52.9822,40.99042],[53.00378,40.9626],[53.02154,40.93376],[53.03353,40.90731],[53.04644,40.88607],[53.06264,40.87217],[53.07963,40.86543],[53.09629,40.86418],[53.10978,40.86532],[53.11341,40.86405],[53.1038,40.85803],[53.08755,40.84963],[53.0761,40.84054],[53.07446,40.83049],[53.08062,40.82055],[53.09096,40.81183],[53.10063,40.80355],[53.1057,40.7943],[53.10735,40.7841],[53.11273,40.77495],[53.1296,40.76891],[53.15607,40.76679],[53.18431,40.77067],[53.21328,40.78344],[53.24061,40.79909],[53.25538,40.80331],[53.25564,40.79279],[53.25762,40.77926],[53.27803,40.77283],[53.31089,40.77466],[53.33483,40.78197],[53.34322,40.79211],[53.34603,40.80327],[53.35137,40.81444],[53.36022,40.82407],[53.37003,40.8291],[53.37784,40.82775],[53.38134,40.82041],[53.38119,40.80889],[53.38221,40.795],[53.38844,40.77942],[53.40073,40.76434],[53.41746,40.75343],[53.43399,40.74708],[53.44732,40.7422],[53.45925,40.73745],[53.47142,40.73487],[53.48327,40.73602],[53.49637,40.74068],[53.51456,40.74879],[53.53619,40.76041],[53.553,40.77701],[53.56092,40.80075],[53.56505,40.82921],[53.57259,40.85664],[53.58401,40.87767],[53.59498,40.88832],[53.60442,40.89016],[53.61383,40.88836],[53.62345,40.88542],[53.63174,40.88154],[53.63727,40.87653],[53.64245,40.87126],[53.64979,40.86721],[53.65641,40.8636],[53.65866,40.85862],[53.6572,40.85282],[53.65514,40.84703],[53.65526,40.83915],[53.65863,40.82858],[53.66384,40.81811],[53.66692,40.80825],[53.66483,40.79823],[53.66025,40.78907],[53.6596,40.7779],[53.66657,40.75888],[53.6787,40.73443],[53.69083,40.71456],[53.70104,40.70415],[53.71066,40.69974],[53.71929,40.69556],[53.72345,40.68776],[53.72086,40.67586],[53.71522,40.66139],[53.71581,40.6459],[53.73143,40.63289],[53.76419,40.62685],[53.80759,40.62684],[53.84873,40.6302],[53.87948,40.63857],[53.90463,40.65157],[53.92825,40.66329],[53.94698,40.66841],[53.96367,40.66643],[53.98476,40.66146],[54.00856,40.65914],[54.03129,40.66178],[54.05346,40.66752],[54.07377,40.6742],[54.08772,40.68149],[54.09394,40.68899],[54.0925,40.69515],[54.0825,40.70014],[54.07197,40.70541],[54.07834,40.7099],[54.10591,40.71312],[54.14229,40.71749],[54.17986,40.72265],[54.21291,40.72496],[54.23036,40.722],[54.23129,40.71299],[54.22606,40.7009],[54.2241,40.69089],[54.24008,40.68341],[54.28838,40.67758],[54.34681,40.67629],[54.37516,40.68104],[54.37818,40.68923],[54.38749,40.69833],[54.40127,40.7073],[54.39135,40.71437],[54.35635,40.71869],[54.32617,40.72409],[54.31441,40.73528],[54.30962,40.75258],[54.30208,40.77399],[54.29155,40.79771],[54.28157,40.82005],[54.27466,40.83671],[54.27162,40.84705],[54.27217,40.85368],[54.27442,40.85937],[54.2755,40.86522],[54.27289,40.8698],[54.26636,40.8718],[54.25862,40.8735],[54.25301,40.87775],[54.25121,40.88334],[54.25341,40.88721],[54.25899,40.88882],[54.26784,40.8912],[54.28101,40.89839],[54.29766,40.90959],[54.3154,40.9183],[54.33733,40.91792],[54.36906,40.90622],[54.40609,40.88935],[54.43757,40.87579],[54.45761,40.86447],[54.46357,40.85056],[54.45917,40.83483],[54.46519,40.82196],[54.50395,40.81772],[54.56459,40.82301],[54.61383,40.83242],[54.64286,40.84385],[54.66679,40.85847],[54.69276,40.87539],[54.71818,40.8965],[54.7402,40.92228],[54.75469,40.94613],[54.75943,40.96489],[54.75718,40.98038],[54.75123,40.99282]]]}}]}