{"type":"FeatureCollection","meta":{"year":2005,"level_m":-26.95,"reference_year":2015,"reference_level_m":-27.85,"status":"semi","model":"cross-shore translation: retreat = Δlevel / tan(β)","source_id":"model","projected":false},"features":[{"type":"Feature","properties":{"year":2005,"level_m":-26.95},"geometry":{"type":"Polygon","coordinates":[[[54.74063,41.00632],[54.72193,41.02657],[54.70058,41.04887],[54.68725,41.06258],[54.68829,41.06625],[54.70394,41.0634],[54.72879,41.05535],[54.74979,41.04798],[54.75496,41.04931],[54.7468,41.05776],[54.73631,41.06693],[54.72891,41.07461],[54.72469,41.08076],[54.72329,41.08588],[54.7243,41.09077],[54.72692,41.09502],[54.72926,41.09889],[54.72614,41.10473],[54.7119,41.11235],[54.68805,41.1189],[54.66356,41.12647],[54.64468,41.14131],[54.61622,41.17065],[54.54553,41.22105],[54.43759,41.28137],[54.34518,41.32692],[54.29257,41.3539],[54.25666,41.37525],[54.22354,41.39372],[54.19998,41.40675],[54.18613,41.41822],[54.17336,41.43283],[54.15693,41.44772],[54.13645,41.45815],[54.11364,41.46644],[54.09313,41.47693],[54.07668,41.49094],[54.06155,41.51045],[54.04712,41.53777],[54.03623,41.57466],[54.03019,41.6238],[54.02611,41.67937],[54.01971,41.72755],[54.00689,41.76666],[53.98514,41.80597],[53.96023,41.84414],[53.94232,41.8703],[53.93143,41.88191],[53.9215,41.88603],[53.91223,41.88966],[53.90621,41.89601],[53.90408,41.90472],[53.90545,41.91408],[53.90868,41.92349],[53.91091,41.93341],[53.91039,41.94499],[53.90882,41.95903],[53.91008,41.97506],[53.91443,41.99177],[53.91783,42.00818],[53.91773,42.02517],[53.91427,42.04364],[53.9064,42.06273],[53.88974,42.08239],[53.85973,42.10271],[53.81767,42.11946],[53.7708,42.12816],[53.70879,42.12984],[53.59862,42.12348],[53.45467,42.10695],[53.3436,42.08908],[53.27917,42.08159],[53.22476,42.08495],[53.17086,42.0888],[53.12633,42.08192],[53.08666,42.06165],[53.03939,42.03014],[52.98062,41.98207],[52.91559,41.90632],[52.85498,41.81841],[52.81395,41.75856],[52.79459,41.73429],[52.7849,41.71949],[52.7782,41.70025],[52.77541,41.68069],[52.7797,41.6696],[52.79322,41.67265],[52.81446,41.68482],[52.84181,41.69395],[52.87268,41.69411],[52.89866,41.68689],[52.91193,41.67436],[52.91235,41.65863],[52.90621,41.64305],[52.90144,41.62956],[52.90122,41.61651],[52.90304,41.60173],[52.89951,41.57802],[52.88166,41.53184],[52.85392,41.47033],[52.83234,41.42149],[52.82238,41.39492],[52.81974,41.37941],[52.82285,41.36319],[52.8306,41.33659],[52.83953,41.29735],[52.85031,41.25261],[52.8688,41.20636],[52.89189,41.16119],[52.90502,41.12512],[52.90237,41.0984],[52.89243,41.07525],[52.8833,41.05886],[52.8756,41.05481],[52.86696,41.06044],[52.85809,41.06935],[52.85298,41.07999],[52.85314,41.09573],[52.85555,41.11754],[52.85613,41.1412],[52.85286,41.16306],[52.84636,41.18228],[52.83842,41.19775],[52.83021,41.20889],[52.82282,41.2172],[52.81798,41.22549],[52.81631,41.23654],[52.8151,41.25296],[52.80983,41.27773],[52.80031,41.30673],[52.78986,41.33043],[52.77801,41.34965],[52.76279,41.36805],[52.74671,41.3811],[52.7343,41.38849],[52.72696,41.39599],[52.72293,41.40571],[52.72012,41.41624],[52.71591,41.4259],[52.70728,41.43426],[52.69375,41.44153],[52.67738,41.44756],[52.65976,41.45481],[52.63998,41.46795],[52.61718,41.48515],[52.5949,41.49925],[52.57805,41.51023],[52.56837,41.52312],[52.56627,41.53777],[52.57176,41.5527],[52.58117,41.56814],[52.58812,41.58294],[52.59054,41.59722],[52.59136,41.61123],[52.59325,41.62295],[52.59573,41.63208],[52.5961,41.63952],[52.59279,41.64486],[52.5876,41.64823],[52.5834,41.65209],[52.58001,41.6598],[52.57503,41.67077],[52.56793,41.6801],[52.55949,41.68493],[52.54988,41.68681],[52.5398,41.68907],[52.53059,41.69404],[52.52155,41.70044],[52.51052,41.70649],[52.49734,41.71338],[52.48345,41.72121],[52.46883,41.72854],[52.45426,41.73747],[52.44439,41.75124],[52.44437,41.7728],[52.45643,41.80746],[52.4745,41.8537],[52.48572,41.89919],[52.4845,41.93483],[52.47556,41.95993],[52.46449,41.97633],[52.45391,41.98668],[52.44488,41.99451],[52.43869,42.00449],[52.43674,42.02053],[52.4375,42.04016],[52.4354,42.05751],[52.42685,42.07307],[52.41788,42.08991],[52.41719,42.1075],[52.42333,42.12557],[52.42954,42.14431],[52.43466,42.16176],[52.44202,42.17549],[52.45398,42.18505],[52.47166,42.19651],[52.49902,42.22276],[52.53674,42.26601],[52.57232,42.30751],[52.59284,42.33208],[52.60032,42.34571],[52.60264,42.35923],[52.60354,42.37398],[52.60639,42.38721],[52.61568,42.39997],[52.63003,42.4137],[52.64186,42.4267],[52.64769,42.43869],[52.65123,42.45245],[52.6574,42.47257],[52.66679,42.50215],[52.67402,42.53803],[52.6725,42.57573],[52.66025,42.61375],[52.63954,42.64882],[52.61349,42.67708],[52.58814,42.69984],[52.57256,42.72022],[52.56984,42.73625],[52.57512,42.74206],[52.58316,42.73483],[52.59254,42.71907],[52.60414,42.70316],[52.61862,42.6917],[52.63647,42.68224],[52.65468,42.67179],[52.66669,42.66191],[52.6716,42.65466],[52.67514,42.64801],[52.68183,42.63591],[52.69168,42.6168],[52.70218,42.59904],[52.71241,42.59198],[52.72303,42.59835],[52.73313,42.61509],[52.74018,42.63772],[52.74071,42.66549],[52.73069,42.69708],[52.70765,42.72485],[52.67529,42.74346],[52.64279,42.75817],[52.60799,42.77696],[52.55268,42.79971],[52.47496,42.81906],[52.40426,42.82886],[52.36388,42.83008],[52.34596,42.82737],[52.33434,42.82317],[52.32413,42.81722],[52.31532,42.80884],[52.30609,42.80034],[52.29026,42.80069],[52.25951,42.81988],[52.21683,42.85206],[52.17293,42.87642],[52.12436,42.88187],[52.0645,42.87333],[52.00582,42.8588],[51.96314,42.84601],[51.93276,42.84386],[51.90204,42.85833],[51.86908,42.88497],[51.84164,42.91305],[51.82185,42.93734],[51.80668,42.95896],[51.79458,42.98159],[51.78169,43.00791],[51.76181,43.03683],[51.73652,43.06433],[51.71471,43.08421],[51.69928,43.09388],[51.68754,43.09836],[51.6793,43.10379],[51.67583,43.11175],[51.67696,43.12072],[51.68027,43.1307],[51.68156,43.14385],[51.67727,43.16048],[51.66506,43.17587],[51.64219,43.18332],[51.60854,43.18254],[51.57296,43.17896],[51.54745,43.17463],[51.53408,43.16887],[51.52588,43.16307],[51.51742,43.15908],[51.50686,43.15807],[51.4929,43.1607],[51.47152,43.16446],[51.43108,43.16434],[51.36797,43.16073],[51.30701,43.16096],[51.27718,43.17413],[51.27961,43.20778],[51.29637,43.26328],[51.31094,43.33508],[51.31513,43.40806],[51.30743,43.46331],[51.29354,43.49672],[51.28311,43.5166],[51.27884,43.53146],[51.27597,43.54606],[51.26815,43.56064],[51.25119,43.5759],[51.23023,43.5928],[51.21508,43.60881],[51.20615,43.62004],[51.19741,43.62459],[51.18689,43.62439],[51.17591,43.62356],[51.16539,43.62465],[51.154,43.62958],[51.13397,43.6489],[51.09664,43.69736],[51.05244,43.76257],[51.02377,43.81072],[51.01358,43.83334],[51.00897,43.84513],[51.00348,43.85414],[50.99778,43.86159],[50.99328,43.86965],[50.99101,43.88103],[50.99055,43.89506],[50.98766,43.90888],[50.97733,43.92243],[50.96212,43.93647],[50.94884,43.95087],[50.93783,43.96664],[50.92602,43.98373],[50.91393,43.99905],[50.90204,44.00981],[50.88862,44.01649],[50.87456,44.02198],[50.86344,44.02899],[50.85692,44.03805],[50.85479,44.04783],[50.85572,44.0625],[50.85668,44.09218],[50.85571,44.13344],[50.85165,44.16863],[50.84005,44.193],[50.81332,44.21521],[50.74786,44.24075],[50.61326,44.27105],[50.44487,44.30148],[50.32804,44.324],[50.28023,44.33912],[50.25876,44.35373],[50.24305,44.37275],[50.23492,44.39867],[50.23332,44.42855],[50.23321,44.45444],[50.23227,44.47274],[50.23041,44.48815],[50.22685,44.5082],[50.22437,44.53499],[50.22827,44.55989],[50.23933,44.57115],[50.25316,44.57208],[50.26464,44.57884],[50.2711,44.59576],[50.27433,44.61272],[50.27751,44.62436],[50.28059,44.63446],[50.28428,44.64651],[50.29289,44.65863],[50.30777,44.66598],[50.32384,44.66626],[50.34511,44.66115],[50.39258,44.65252],[50.46678,44.64417],[50.53612,44.64202],[50.58373,44.64421],[50.61498,44.64258],[50.63872,44.63651],[50.67009,44.63114],[50.71138,44.62639],[50.74269,44.62083],[50.75492,44.61763],[50.7587,44.61941],[50.76275,44.62523],[50.76955,44.63274],[50.78296,44.6392],[50.80796,44.6423],[50.84196,44.64123],[50.87535,44.63496],[50.90442,44.62065],[50.93126,44.59932],[50.95482,44.58002],[50.97402,44.5704],[50.99039,44.56762],[51.00268,44.56455],[51.00778,44.55904],[51.0058,44.55328],[51.0013,44.54811],[51.00206,44.54102],[51.01726,44.52925],[51.0524,44.51325],[51.099,44.49799],[51.14048,44.48955],[51.17223,44.48909],[51.20119,44.49559],[51.23209,44.51],[51.26,44.5278],[51.27606,44.54001],[51.2818,44.54561],[51.28584,44.5493],[51.2929,44.55238],[51.3048,44.55399],[51.32171,44.5549],[51.34179,44.55673],[51.36126,44.55702],[51.3754,44.54982],[51.38959,44.53719],[51.42021,44.52831],[51.47036,44.52335],[51.52071,44.51832],[51.55342,44.51774],[51.56673,44.52545],[51.56553,44.53773],[51.55222,44.55085],[51.52544,44.56661],[51.4876,44.58738],[51.44744,44.60685],[51.40768,44.61453],[51.36687,44.61133],[51.32999,44.61371],[51.30012,44.63817],[51.27233,44.67997],[51.23932,44.7203],[51.19665,44.75174],[51.1535,44.77561],[51.1256,44.79074],[51.11008,44.79916],[51.09293,44.80503],[51.07393,44.80921],[51.06087,44.81273],[51.04924,44.81932],[51.0273,44.83227],[50.99742,44.84994],[50.97234,44.86867],[50.95901,44.88804],[50.95908,44.90637],[50.96791,44.91902],[50.97761,44.92567],[50.98751,44.93116],[50.9962,44.93905],[50.99567,44.94821],[50.98517,44.9552],[50.97181,44.95869],[50.95891,44.9621],[50.95088,44.97035],[50.95677,44.98332],[50.97716,44.99564],[51.00317,45.00328],[51.02763,45.00616],[51.04675,45.00675],[51.05933,45.00827],[51.06806,45.01261],[51.07659,45.02011],[51.08878,45.03068],[51.10941,45.04402],[51.13836,45.05802],[51.16914,45.06794],[51.19698,45.06935],[51.22096,45.0617],[51.24045,45.04952],[51.25646,45.03973],[51.27157,45.03736],[51.28286,45.0447],[51.28334,45.06038],[51.27428,45.07813],[51.2631,45.09239],[51.25244,45.10385],[51.24395,45.11526],[51.24277,45.12624],[51.25013,45.13616],[51.25707,45.14631],[51.25326,45.15673],[51.24377,45.16752],[51.24344,45.18195],[51.2561,45.20211],[51.27309,45.2246],[51.29175,45.2486],[51.32169,45.28087],[51.3597,45.31915],[51.38637,45.35078],[51.39986,45.37239],[51.4158,45.3833],[51.44006,45.37804],[51.46908,45.36223],[51.50275,45.35041],[51.54193,45.34924],[51.58177,45.35726],[51.61626,45.37144],[51.64392,45.38632],[51.66558,45.39562],[51.68127,45.3995],[51.69219,45.4048],[51.70238,45.41666],[51.7155,45.43363],[51.73364,45.44948],[51.75599,45.45651],[51.77707,45.45128],[51.79146,45.43849],[51.80318,45.42529],[51.82632,45.41475],[51.86398,45.40553],[51.90002,45.39537],[51.92388,45.38561],[51.94024,45.38142],[51.95785,45.38582],[51.98117,45.3949],[52.00881,45.40092],[52.03865,45.40021],[52.08585,45.39772],[52.18415,45.40095],[52.32253,45.4087],[52.43906,45.4138],[52.52058,45.41094],[52.60958,45.39526],[52.71831,45.36987],[52.81488,45.347],[52.88002,45.33316],[52.93114,45.32757],[52.9848,45.32605],[53.03559,45.32229],[53.07546,45.31604],[53.10491,45.31361],[53.13124,45.31857],[53.15866,45.32728],[53.1806,45.33419],[53.19376,45.339],[53.20591,45.34372],[53.22198,45.34656],[53.23617,45.34611],[53.24283,45.34509],[53.24723,45.34589],[53.2573,45.3488],[53.26826,45.35522],[53.26198,45.36627],[53.22687,45.37915],[53.18024,45.38968],[53.15022,45.39688],[53.13822,45.40295],[53.12756,45.40921],[53.10871,45.41509],[53.07406,45.42325],[53.01608,45.43922],[52.94936,45.45961],[52.90344,45.4743],[52.88278,45.48323],[52.87029,45.49224],[52.85599,45.50075],[52.8351,45.50729],[52.8053,45.51425],[52.77597,45.52251],[52.75939,45.53093],[52.75414,45.53972],[52.75131,45.54837],[52.74917,45.5553],[52.75042,45.56196],[52.75378,45.5707],[52.75551,45.58053],[52.75488,45.59033],[52.75431,45.60238],[52.7548,45.61855],[52.75547,45.63681],[52.75875,45.6527],[52.76944,45.6633],[52.7868,45.67266],[52.80455,45.69132],[52.82155,45.72343],[52.84164,45.75764],[52.86309,45.78063],[52.88207,45.79202],[52.89914,45.79999],[52.91856,45.812],[52.94468,45.83011],[52.9721,45.85315],[52.99056,45.88049],[53.00209,45.90774],[53.01578,45.92768],[53.03363,45.93928],[53.05,45.94938],[53.0596,45.96407],[53.06853,45.98242],[53.08306,46.00154],[53.09458,46.01953],[53.09669,46.0328],[53.09325,46.04125],[53.08735,46.05146],[53.08611,46.06696],[53.09811,46.08356],[53.11752,46.10158],[53.13575,46.13387],[53.15792,46.19104],[53.18129,46.26537],[53.18551,46.33939],[53.1611,46.40163],[53.12244,46.44819],[53.09368,46.47656],[53.08847,46.48556],[53.09897,46.48166],[53.11223,46.4762],[53.12209,46.47521],[53.12476,46.4783],[53.12267,46.48573],[53.11579,46.50029],[53.09224,46.51692],[53.05357,46.52336],[53.02458,46.51808],[53.02058,46.5098],[53.02629,46.50648],[53.0185,46.51782],[53.00749,46.54486],[53.0228,46.56838],[53.0542,46.57496],[53.06764,46.57387],[53.06689,46.57307],[53.08217,46.57259],[53.11344,46.58092],[53.13363,46.60357],[53.13496,46.62432],[53.12406,46.629],[53.1068,46.6291],[53.10051,46.63831],[53.11707,46.65297],[53.14507,46.66359],[53.16517,46.66704],[53.17544,46.66463],[53.19364,46.65688],[53.22319,46.65209],[53.24334,46.66587],[53.2394,46.69831],[53.21343,46.73172],[53.17821,46.75242],[53.15208,46.75947],[53.14347,46.76049],[53.14396,46.77041],[53.14041,46.80182],[53.12848,46.84642],[53.1116,46.88372],[53.0881,46.90728],[53.0557,46.92091],[53.02705,46.92602],[53.01212,46.92887],[52.99775,46.94074],[52.96801,46.96204],[52.92065,46.97945],[52.85909,46.98427],[52.78846,46.98224],[52.71514,46.98149],[52.6524,46.98284],[52.6145,46.98603],[52.59237,46.99465],[52.5634,47.00901],[52.51938,47.02226],[52.46788,47.02705],[52.42869,47.01985],[52.4233,47.00152],[52.43971,46.97934],[52.43415,46.96193],[52.39511,46.94854],[52.35123,46.93393],[52.31301,46.91914],[52.27572,46.9087],[52.24323,46.90599],[52.21638,46.90633],[52.20307,46.89845],[52.20958,46.88474],[52.21917,46.87885],[52.22417,46.88056],[52.2357,46.87877],[52.25364,46.87005],[52.26922,46.8576],[52.27987,46.84301],[52.28342,46.82896],[52.26653,46.82416],[52.21767,46.83192],[52.15733,46.84253],[52.1203,46.84793],[52.11096,46.84853],[52.11198,46.84759],[52.11121,46.85104],[52.10334,46.86166],[52.08956,46.87458],[52.07331,46.88671],[52.05673,46.89789],[52.04565,46.90386],[52.03831,46.90486],[52.02053,46.9103],[52.00012,46.92162],[52.00642,46.9305],[52.02949,46.93878],[52.02536,46.95031],[51.98804,46.95228],[51.95044,46.93682],[51.93202,46.91879],[51.92457,46.91214],[51.90896,46.91263],[51.87751,46.91357],[51.85386,46.91976],[51.86378,46.93476],[51.88209,46.95042],[51.86865,46.95729],[51.8323,46.95361],[51.80434,46.94593],[51.79254,46.94254],[51.7857,46.94536],[51.77363,46.95338],[51.75473,46.96497],[51.73134,46.97757],[51.7082,46.99479],[51.69863,47.02135],[51.7018,47.05125],[51.68856,47.07294],[51.64933,47.07731],[51.60949,47.06319],[51.5868,47.04085],[51.58098,47.02319],[51.58901,47.01579],[51.60127,47.01861],[51.60116,47.03199],[51.58235,47.05359],[51.54968,47.07502],[51.50553,47.09061],[51.44746,47.10306],[51.37368,47.11714],[51.29409,47.13243],[51.22496,47.14173],[51.16974,47.13851],[51.11865,47.12537],[51.05724,47.10903],[50.98627,47.0914],[50.93,47.07282],[50.90475,47.05801],[50.90246,47.05188],[50.90264,47.0543],[50.8875,47.06084],[50.85659,47.06361],[50.83015,47.05662],[50.82682,47.04322],[50.83096,47.03157],[50.814,47.02008],[50.78027,46.99624],[50.75654,46.96239],[50.75138,46.93997],[50.74331,46.93849],[50.72902,46.94961],[50.73654,46.96422],[50.75615,46.97903],[50.74814,46.9892],[50.71393,46.9866],[50.68221,46.97463],[50.66367,46.96549],[50.64947,46.96248],[50.62618,46.95854],[50.59475,46.94369],[50.57088,46.91575],[50.56031,46.88666],[50.55636,46.86884],[50.55264,46.86061],[50.54282,46.85495],[50.53023,46.85422],[50.53155,46.86375],[50.55095,46.88049],[50.56426,46.89697],[50.54855,46.90584],[50.51613,46.90453],[50.4949,46.89814],[50.49349,46.89174],[50.49911,46.88869],[50.49429,46.89306],[50.47635,46.90318],[50.45537,46.91166],[50.4361,46.91422],[50.41787,46.91079],[50.40062,46.89892],[50.3841,46.87497],[50.37044,46.84666],[50.36408,46.83115],[50.36578,46.83493],[50.36464,46.84682],[50.34992,46.85086],[50.33138,46.84363],[50.32219,46.83431],[50.32012,46.82979],[50.31657,46.82884],[50.30621,46.82708],[50.29163,46.82234],[50.27656,46.81251],[50.25807,46.793],[50.2381,46.76768],[50.2246,46.74981],[50.21397,46.7444],[50.20463,46.74741],[50.20892,46.75629],[50.21956,46.76828],[50.212,46.77669],[50.18045,46.77178],[50.13159,46.74627],[50.07747,46.70688],[50.03782,46.67299],[50.01739,46.65596],[50.00097,46.65115],[49.97812,46.64933],[49.95299,46.64435],[49.93269,46.63506],[49.91771,46.62484],[49.90204,46.61558],[49.88406,46.60605],[49.87001,46.59853],[49.8567,46.59553],[49.83484,46.59084],[49.81203,46.57891],[49.80272,46.5664],[49.8049,46.56205],[49.80526,46.56607],[49.79403,46.57327],[49.77099,46.57503],[49.74801,46.56617],[49.73971,46.55437],[49.74625,46.55043],[49.75202,46.556],[49.7426,46.56612],[49.71863,46.57237],[49.69321,46.56698],[49.68145,46.55176],[49.68592,46.54146],[49.68483,46.55097],[49.65784,46.57202],[49.62055,46.57817],[49.60053,46.56226],[49.59794,46.54448],[49.59414,46.53698],[49.58379,46.53131],[49.58046,46.5237],[49.58695,46.52264],[49.58477,46.53347],[49.56255,46.55189],[49.52824,46.56773],[49.49042,46.57501],[49.45573,46.57751],[49.44023,46.5764],[49.45544,46.56817],[49.48887,46.55528],[49.51285,46.54002],[49.51286,46.52438],[49.50114,46.51722],[49.49362,46.52138],[49.48957,46.52745],[49.48234,46.52812],[49.46582,46.52582],[49.44233,46.52566],[49.43068,46.52918],[49.44178,46.53775],[49.45802,46.55229],[49.45403,46.56638],[49.42852,46.57025],[49.40397,46.56407],[49.398,46.55941],[49.40172,46.56312],[49.39467,46.57076],[49.37127,46.5793],[49.34116,46.58828],[49.32798,46.588],[49.34649,46.56649],[49.37075,46.53148],[49.37411,46.50758],[49.36461,46.50433],[49.35649,46.50798],[49.35316,46.5098],[49.34933,46.51536],[49.33582,46.52757],[49.31327,46.53964],[49.29921,46.54227],[49.30187,46.53213],[49.30407,46.51332],[49.30512,46.49463],[49.32448,46.48156],[49.35302,46.46777],[49.36263,46.44669],[49.35048,46.42511],[49.34008,46.41253],[49.34588,46.41072],[49.3551,46.41762],[49.35144,46.42933],[49.33783,46.44174],[49.32332,46.45452],[49.30746,46.46876],[49.28478,46.48233],[49.25757,46.49077],[49.24335,46.49101],[49.24814,46.4828],[49.24765,46.46736],[49.23526,46.44971],[49.24127,46.43725],[49.27083,46.42939],[49.28949,46.42182],[49.28527,46.41716],[49.27332,46.41871],[49.24983,46.42547],[49.20832,46.43191],[49.17139,46.4299],[49.1649,46.42065],[49.18254,46.41416],[49.19849,46.41362],[49.20765,46.41319],[49.21751,46.40566],[49.21771,46.38754],[49.20281,46.36375],[49.18962,46.34399],[49.19139,46.33369],[49.21202,46.3312],[49.24916,46.32725],[49.28386,46.3129],[49.29475,46.29179],[49.28625,46.27627],[49.28081,46.2725],[49.28371,46.27607],[49.28131,46.28191],[49.26628,46.28929],[49.24181,46.29715],[49.21001,46.30426],[49.17146,46.31119],[49.1404,46.32106],[49.13143,46.33542],[49.12917,46.34564],[49.11375,46.34204],[49.0899,46.32846],[49.067,46.31244],[49.05005,46.29699],[49.04243,46.28651],[49.04268,46.2819],[49.053,46.27851],[49.07616,46.27443],[49.10014,46.26629],[49.10594,46.24573],[49.09631,46.21304],[49.09523,46.18544],[49.10783,46.17692],[49.11631,46.18184],[49.1113,46.19186],[49.09334,46.20515],[49.06442,46.21524],[49.03276,46.21491],[49.01031,46.20731],[49.00036,46.20108],[48.99097,46.19711],[48.96923,46.18895],[48.93948,46.17394],[48.92109,46.15476],[48.92655,46.13624],[48.93814,46.12302],[48.93282,46.1154],[48.92129,46.11148],[48.91901,46.10876],[48.91551,46.10402],[48.9065,46.1022],[48.90891,46.1143],[48.91907,46.13873],[48.90915,46.15921],[48.87899,46.16092],[48.85662,46.14595],[48.85689,46.13218],[48.87246,46.13119],[48.88363,46.14082],[48.8724,46.15306],[48.84723,46.15589],[48.83673,46.14443],[48.84297,46.12455],[48.84618,46.10443],[48.85013,46.09393],[48.858,46.09486],[48.85155,46.1009],[48.83007,46.11209],[48.81093,46.12455],[48.80481,46.12512],[48.80697,46.11085],[48.80252,46.09212],[48.79598,46.07987],[48.79901,46.07535],[48.7978,46.07122],[48.78519,46.06898],[48.7797,46.08108],[48.77922,46.10797],[48.75848,46.13307],[48.72221,46.14304],[48.70078,46.14166],[48.69703,46.14036],[48.68581,46.14012],[48.66084,46.13381],[48.6394,46.12114],[48.63046,46.10925],[48.63119,46.10462],[48.635,46.10704],[48.63443,46.11],[48.63648,46.10881],[48.65554,46.10368],[48.6874,46.09356],[48.71867,46.07615],[48.73812,46.05537],[48.73365,46.03882],[48.71069,46.02839],[48.69147,46.02187],[48.68376,46.018],[48.67829,46.01558],[48.66633,46.01142],[48.64661,46.00106],[48.63136,45.98491],[48.63545,45.97288],[48.64942,45.97333],[48.65772,45.9821],[48.67129,45.991],[48.7026,45.99513],[48.73701,45.99065],[48.74855,45.97729],[48.73418,45.96077],[48.7161,45.94491],[48.71227,45.92973],[48.72463,45.91836],[48.73713,45.90982],[48.73978,45.89722],[48.7506,45.88198],[48.77129,45.87094],[48.77992,45.86736],[48.77191,45.86974],[48.75316,45.87117],[48.72856,45.86641],[48.70658,45.85622],[48.69759,45.84573],[48.70065,45.84109],[48.69508,45.84458],[48.67544,45.85593],[48.66536,45.87228],[48.67519,45.88806],[48.68954,45.90054],[48.69287,45.91053],[48.68394,45.91934],[48.67088,45.92666],[48.65926,45.93146],[48.64748,45.93186],[48.62933,45.92561],[48.61046,45.91914],[48.60965,45.92524],[48.62078,45.94584],[48.61408,45.97008],[48.58226,45.98542],[48.5422,45.98604],[48.51026,45.97695],[48.49457,45.96858],[48.49084,45.96594],[48.48554,45.96638],[48.47023,45.96517],[48.44825,45.95917],[48.42498,45.94617],[48.40223,45.92631],[48.38691,45.90732],[48.38249,45.89879],[48.37454,45.89733],[48.3577,45.89175],[48.35328,45.88222],[48.37029,45.87742],[48.38989,45.87626],[48.39697,45.87098],[48.3892,45.86393],[48.36276,45.86197],[48.31883,45.8607],[48.27684,45.85115],[48.25419,45.83444],[48.2471,45.81836],[48.24526,45.80736],[48.24409,45.80163],[48.24113,45.79917],[48.23436,45.7973],[48.22317,45.79377],[48.20795,45.78464],[48.19399,45.76785],[48.18933,45.7485],[48.19361,45.73319],[48.20201,45.72531],[48.21475,45.72659],[48.22624,45.73594],[48.21922,45.7487],[48.18876,45.75868],[48.15439,45.76187],[48.13011,45.76286],[48.10625,45.76735],[48.07497,45.76972],[48.04447,45.76356],[48.02236,45.75334],[48.00638,45.74438],[47.99309,45.73584],[47.9874,45.72774],[47.99233,45.72165],[47.99621,45.71761],[47.99562,45.71924],[48.00066,45.72898],[48.00507,45.74061],[47.99634,45.74906],[47.97688,45.75406],[47.95554,45.75485],[47.93955,45.75245],[47.92751,45.7488],[47.91186,45.74215],[47.89203,45.72948],[47.87371,45.71255],[47.86363,45.70264],[47.86543,45.71116],[47.86637,45.72999],[47.85031,45.73806],[47.82615,45.72793],[47.811,45.70786],[47.80491,45.68545],[47.8032,45.66306],[47.80612,45.64512],[47.81044,45.6376],[47.81071,45.63768],[47.81005,45.63693],[47.81134,45.63382],[47.80005,45.63413],[47.76957,45.64224],[47.74453,45.65782],[47.74181,45.67959],[47.74301,45.70016],[47.73068,45.70788],[47.71786,45.70911],[47.71409,45.718],[47.70474,45.72854],[47.6877,45.73073],[47.67872,45.72897],[47.68153,45.72903],[47.68611,45.73044],[47.68608,45.73137],[47.68107,45.72913],[47.6661,45.72125],[47.64149,45.71334],[47.62146,45.71419],[47.61654,45.7236],[47.62599,45.73944],[47.638,45.76003],[47.63553,45.77796],[47.61494,45.78874],[47.58372,45.79229],[47.55081,45.78447],[47.53052,45.76696],[47.53366,45.7559],[47.55383,45.75993],[47.574,45.7653],[47.58018,45.75676],[47.57747,45.73821],[47.58727,45.72723],[47.61066,45.73034],[47.62533,45.73439],[47.61952,45.72777],[47.60208,45.71339],[47.5889,45.69891],[47.58599,45.68803],[47.58907,45.6835],[47.59352,45.686],[47.5934,45.68821],[47.58549,45.68126],[47.57655,45.66703],[47.57319,45.65467],[47.57731,45.64755],[47.59293,45.64281],[47.61539,45.63432],[47.6314,45.61696],[47.63935,45.59578],[47.64359,45.57835],[47.64116,45.56721],[47.62763,45.56593],[47.60346,45.57644],[47.57803,45.59722],[47.56265,45.62863],[47.55071,45.66427],[47.52921,45.68796],[47.50576,45.69566],[47.49089,45.69934],[47.47544,45.7058],[47.45056,45.71277],[47.42792,45.72016],[47.42455,45.72955],[47.43933,45.73784],[47.45902,45.74193],[47.47222,45.74547],[47.46627,45.75018],[47.4395,45.75186],[47.41426,45.75492],[47.40245,45.76497],[47.38806,45.77124],[47.36632,45.76263],[47.35393,45.74249],[47.35855,45.72095],[47.36934,45.70682],[47.37484,45.69989],[47.37652,45.6923],[47.38419,45.68334],[47.40389,45.68193],[47.4261,45.6902],[47.43862,45.69884],[47.44464,45.69893],[47.44493,45.68681],[47.44012,45.66927],[47.4484,45.66253],[47.47948,45.66834],[47.51532,45.66888],[47.53162,45.65394],[47.52575,45.63244],[47.51905,45.61585],[47.52848,45.60421],[47.54822,45.59207],[47.56348,45.57884],[47.56911,45.56782],[47.56835,45.56004],[47.56344,45.55365],[47.55624,45.54778],[47.54842,45.54367],[47.53805,45.54455],[47.5247,45.55406],[47.51277,45.56983],[47.50417,45.58165],[47.49759,45.58188],[47.49439,45.57401],[47.49693,45.56352],[47.50625,45.54874],[47.51986,45.52976],[47.53073,45.51461],[47.53268,45.50656],[47.52383,45.49828],[47.50933,45.48544],[47.499,45.47138],[47.49602,45.45736],[47.49496,45.44325],[47.4867,45.43247],[47.46335,45.42724],[47.42944,45.42472],[47.40166,45.4203],[47.39363,45.41336],[47.40781,45.40704],[47.43275,45.40223],[47.45078,45.39701],[47.45558,45.39035],[47.45203,45.38302],[47.44433,45.37647],[47.43525,45.37151],[47.42819,45.36757],[47.42261,45.36136],[47.41317,45.34728],[47.39894,45.3251],[47.38644,45.29816],[47.37957,45.26317],[47.37471,45.22358],[47.3669,45.19683],[47.35402,45.18971],[47.33633,45.19177],[47.3166,45.1914],[47.2991,45.18107],[47.28532,45.15726],[47.27313,45.12412],[47.26027,45.09117],[47.24533,45.06138],[47.22861,45.03024],[47.21249,45.00034],[47.19733,44.98123],[47.18171,44.97247],[47.16687,44.96329],[47.15496,44.94991],[47.14556,44.94016],[47.13621,44.94075],[47.1249,44.9483],[47.11252,44.95421],[47.10355,44.94906],[47.10047,44.92265],[47.0973,44.87701],[47.08903,44.8324],[47.08045,44.80429],[47.07469,44.79198],[47.06635,44.79381],[47.05063,44.81035],[47.0316,44.83641],[47.01745,44.86556],[47.0087,44.89287],[47.00013,44.90926],[46.9916,44.90773],[46.9883,44.89195],[46.99251,44.87058],[46.99979,44.84986],[47.0019,44.83115],[46.99315,44.81127],[46.97658,44.79056],[46.95918,44.77681],[46.94102,44.77181],[46.91817,44.76621],[46.89254,44.75464],[46.87055,44.74029],[46.85466,44.72569],[46.84059,44.71267],[46.82122,44.70382],[46.79504,44.69529],[46.76813,44.6808],[46.74525,44.66421],[46.72748,44.64774],[46.71596,44.62239],[46.71115,44.59072],[46.71221,44.5683],[46.71618,44.55769],[46.71811,44.55157],[46.7146,44.54767],[46.70593,44.54539],[46.6952,44.54231],[46.68639,44.53584],[46.68294,44.52261],[46.68611,44.5002],[46.69341,44.47297],[46.70246,44.44913],[46.71548,44.43082],[46.73419,44.41561],[46.75651,44.40404],[46.78229,44.39807],[46.81057,44.39692],[46.84348,44.39588],[46.8955,44.38839],[46.96308,44.37397],[47.01495,44.35842],[47.04027,44.34197],[47.05434,44.31915],[47.06636,44.29166],[47.07759,44.26791],[47.08987,44.25053],[47.10453,44.23656],[47.12021,44.22556],[47.13493,44.21806],[47.14941,44.21221],[47.16447,44.20762],[47.17885,44.20739],[47.19274,44.21346],[47.20779,44.22108],[47.22478,44.21959],[47.24413,44.1989],[47.26581,44.15715],[47.28904,44.10688],[47.31168,44.06692],[47.33079,44.04374],[47.3465,44.02721],[47.36351,44.00212],[47.38461,43.96614],[47.40497,43.93201],[47.41867,43.9072],[47.42741,43.88947],[47.43728,43.87726],[47.44879,43.86867],[47.45561,43.85971],[47.45392,43.84767],[47.44821,43.83425],[47.44698,43.82548],[47.4544,43.82382],[47.46702,43.8243],[47.47937,43.81992],[47.48949,43.80683],[47.49661,43.78878],[47.49717,43.77435],[47.48828,43.76621],[47.47339,43.76048],[47.45968,43.75411],[47.44992,43.74576],[47.44358,43.73297],[47.44264,43.71475],[47.44609,43.69648],[47.44683,43.68457],[47.44176,43.67841],[47.43337,43.67216],[47.42224,43.65908],[47.40794,43.63862],[47.39292,43.62149],[47.38055,43.61629],[47.3722,43.61723],[47.36771,43.61321],[47.36756,43.59985],[47.37195,43.58103],[47.37995,43.56384],[47.38984,43.55127],[47.39816,43.54017],[47.40344,43.52738],[47.41097,43.5161],[47.42576,43.51426],[47.4445,43.52788],[47.46024,43.55614],[47.46974,43.59076],[47.47432,43.62083],[47.47745,43.64069],[47.48205,43.65286],[47.4891,43.66272],[47.4968,43.67448],[47.50179,43.69074],[47.50455,43.71018],[47.51005,43.73011],[47.52,43.75177],[47.53039,43.77705],[47.53741,43.80421],[47.54061,43.82963],[47.54235,43.85019],[47.54779,43.86605],[47.56124,43.8803],[47.58062,43.89265],[47.60207,43.89938],[47.62593,43.89963],[47.65171,43.89496],[47.6716,43.88428],[47.6709,43.86162],[47.64234,43.81638],[47.59753,43.73901],[47.55383,43.63782],[47.51995,43.54203],[47.49739,43.47213],[47.48651,43.42302],[47.48578,43.38393],[47.48843,43.35298],[47.48881,43.33012],[47.48969,43.31281],[47.49696,43.30237],[47.51215,43.30374],[47.532,43.31461],[47.55125,43.32525],[47.56585,43.32952],[47.57497,43.32717],[47.58015,43.3202],[47.58263,43.31102],[47.5822,43.30178],[47.57852,43.29326],[47.57167,43.28345],[47.56033,43.271],[47.543,43.25788],[47.52241,43.24531],[47.50381,43.23169],[47.4906,43.2161],[47.48464,43.19978],[47.48375,43.18461],[47.48241,43.17164],[47.47974,43.16014],[47.47882,43.14894],[47.47949,43.13815],[47.47794,43.12781],[47.47152,43.11753],[47.46246,43.10712],[47.45612,43.09269],[47.45961,43.06455],[47.48309,43.02077],[47.5265,42.9768],[47.56928,42.94741],[47.59447,42.9305],[47.61172,42.91572],[47.63936,42.89695],[47.6737,42.87597],[47.69677,42.85758],[47.70546,42.84307],[47.70862,42.82923],[47.71089,42.80943],[47.7132,42.78422],[47.7155,42.76467],[47.71668,42.75442],[47.71606,42.74448],[47.7155,42.7258],[47.71945,42.69732],[47.7355,42.66528],[47.77119,42.63511],[47.82221,42.60296],[47.87744,42.55616],[47.9323,42.49331],[47.98347,42.43451],[48.02799,42.39422],[48.07193,42.35821],[48.12728,42.29875],[48.19148,42.21941],[48.24466,42.15662],[48.278,42.12311],[48.2976,42.10169],[48.30871,42.08116],[48.3194,42.05501],[48.34173,42.01335],[48.37794,41.9619],[48.41984,41.92263],[48.46317,41.90239],[48.50673,41.88844],[48.5439,41.87161],[48.56787,41.85497],[48.58166,41.84363],[48.59722,41.83408],[48.62569,41.81543],[48.67139,41.77808],[48.72459,41.72947],[48.76548,41.68998],[48.79046,41.66228],[48.81773,41.62935],[48.85651,41.58477],[48.89445,41.5433],[48.9209,41.51779],[48.93833,41.5029],[48.95203,41.48865],[48.9654,41.47233],[48.97832,41.45673],[48.98909,41.4458],[49.00032,41.43944],[49.01415,41.43397],[49.02962,41.42332],[49.0496,41.39868],[49.07581,41.36004],[49.10153,41.32169],[49.12029,41.29416],[49.13273,41.26935],[49.14248,41.23273],[49.15171,41.18848],[49.16078,41.15582],[49.17005,41.13555],[49.18298,41.10654],[49.2112,41.05484],[49.26443,40.98713],[49.32546,40.9251],[49.36572,40.8864],[49.38728,40.86617],[49.41103,40.85101],[49.44087,40.83875],[49.46775,40.82999],[49.48885,40.82033],[49.50726,40.80846],[49.5228,40.79664],[49.53073,40.78231],[49.52824,40.76086],[49.51967,40.73538],[49.5125,40.71404],[49.50996,40.69961],[49.51161,40.68905],[49.51698,40.67958],[49.52393,40.67113],[49.52924,40.66488],[49.53394,40.65944],[49.54266,40.65161],[49.55697,40.64134],[49.57542,40.63197],[49.5987,40.62576],[49.62549,40.62166],[49.65058,40.61615],[49.67414,40.60596],[49.70077,40.59276],[49.73339,40.58158],[49.77162,40.57361],[49.80859,40.56779],[49.83952,40.56612],[49.87054,40.57077],[49.91054,40.57861],[49.96335,40.58322],[50.01754,40.58197],[50.05158,40.57695],[50.06329,40.57046],[50.06831,40.56288],[50.07679,40.55302],[50.09095,40.54067],[50.11372,40.52796],[50.15104,40.51616],[50.19624,40.50485],[50.22998,40.49274],[50.24793,40.47734],[50.26135,40.45852],[50.2772,40.44092],[50.29587,40.42803],[50.31542,40.41705],[50.33317,40.40306],[50.34764,40.38117],[50.35912,40.34639],[50.36861,40.30579],[50.3768,40.27477],[50.38337,40.25451],[50.38585,40.23982],[50.38041,40.23683],[50.36601,40.25026],[50.34395,40.27323],[50.31467,40.29769],[50.28209,40.31888],[50.25199,40.33317],[50.22176,40.34149],[50.18744,40.3479],[50.15512,40.35347],[50.13195,40.35636],[50.1166,40.35584],[50.10278,40.35352],[50.08446,40.35124],[50.06044,40.34772],[50.03405,40.3401],[50.00897,40.33089],[49.98887,40.32737],[49.97495,40.33227],[49.96433,40.34129],[49.9536,40.34899],[49.93901,40.35429],[49.91864,40.35895],[49.89499,40.3606],[49.87192,40.35335],[49.85312,40.33625],[49.83659,40.31464],[49.81116,40.2941],[49.76886,40.27638],[49.71263,40.25875],[49.65145,40.23909],[49.59727,40.21925],[49.55721,40.19981],[49.52849,40.18084],[49.50796,40.16473],[49.49625,40.14943],[49.49268,40.1306],[49.49062,40.11045],[49.47851,40.0931],[49.45643,40.07761],[49.44021,40.06098],[49.43889,40.04302],[49.44712,40.02683],[49.45818,40.01497],[49.4688,40.00615],[49.47655,39.99791],[49.47927,39.98978],[49.47572,39.9822],[49.46635,39.97463],[49.45457,39.96723],[49.4442,39.96108],[49.43588,39.95494],[49.42902,39.94662],[49.42478,39.93588],[49.42486,39.92238],[49.42943,39.90566],[49.43567,39.88841],[49.4389,39.87406],[49.43674,39.86316],[49.43055,39.85504],[49.42333,39.84872],[49.41776,39.84239],[49.4154,39.83539],[49.41615,39.82874],[49.41833,39.8228],[49.41987,39.81692],[49.41874,39.81074],[49.41319,39.80362],[49.40449,39.79469],[49.39776,39.78493],[49.39605,39.77598],[49.39699,39.7668],[49.39958,39.75476],[49.40671,39.73915],[49.41569,39.72299],[49.41684,39.70998],[49.40514,39.69889],[49.38438,39.68494],[49.36096,39.66628],[49.33982,39.64503],[49.32463,39.62404],[49.31522,39.60461],[49.30698,39.58555],[49.29779,39.56506],[49.29012,39.54313],[49.28662,39.52037],[49.29375,39.49479],[49.32156,39.46245],[49.36256,39.42768],[49.393,39.40231],[49.40464,39.38926],[49.40577,39.38083],[49.40264,39.36879],[49.39974,39.35191],[49.40001,39.33689],[49.39982,39.32944],[49.39452,39.32974],[49.3861,39.33501],[49.37849,39.34192],[49.37271,39.34659],[49.36995,39.3446],[49.3723,39.33458],[49.38013,39.32048],[49.39116,39.30736],[49.39947,39.29784],[49.39781,39.29376],[49.38592,39.29689],[49.36844,39.30729],[49.34393,39.32189],[49.31112,39.33198],[49.27832,39.3274],[49.25447,39.30233],[49.24146,39.25539],[49.23593,39.20055],[49.23201,39.15992],[49.22564,39.13415],[49.2176,39.11066],[49.21097,39.08542],[49.20616,39.05975],[49.19679,39.03476],[49.17126,39.00924],[49.129,38.98595],[49.0877,38.97525],[49.06299,38.97999],[49.05461,38.99074],[49.05486,38.99997],[49.06124,39.00733],[49.07757,39.01422],[49.1016,39.02155],[49.12304,39.03125],[49.13643,39.04543],[49.14261,39.06348],[49.14135,39.08207],[49.12997,39.09723],[49.10796,39.10687],[49.08391,39.11535],[49.06875,39.13065],[49.06138,39.15198],[49.053,39.17007],[49.0379,39.18053],[49.01503,39.18498],[48.99005,39.18498],[48.9719,39.18137],[48.96213,39.17445],[48.95596,39.16476],[48.95119,39.15436],[48.9486,39.14488],[48.9476,39.13635],[48.9459,39.12959],[48.94236,39.1259],[48.93809,39.12179],[48.93488,39.10833],[48.93484,39.08321],[48.93925,39.05533],[48.94338,39.02768],[48.93933,38.9934],[48.92766,38.95516],[48.91507,38.92394],[48.90324,38.9019],[48.88787,38.88522],[48.86621,38.87186],[48.84531,38.85797],[48.83501,38.83993],[48.83596,38.81859],[48.84445,38.78503],[48.8564,38.71349],[48.86616,38.60096],[48.87142,38.49089],[48.87327,38.41535],[48.87234,38.36321],[48.8707,38.32159],[48.87234,38.2852],[48.87971,38.2413],[48.8938,38.17502],[48.91375,38.08628],[48.93192,38.0035],[48.9402,37.95253],[48.942,37.92552],[48.94702,37.90374],[48.95979,37.87905],[48.9751,37.8537],[48.98362,37.83493],[48.98501,37.82196],[48.98762,37.80414],[48.99939,37.77378],[49.02666,37.73076],[49.07301,37.67972],[49.14068,37.6268],[49.23319,37.57553],[49.35901,37.52897],[49.5308,37.4921],[49.71635,37.46936],[49.84327,37.46272],[49.90067,37.46582],[49.93203,37.46694],[49.95242,37.46316],[49.95673,37.45995],[49.95063,37.45931],[49.94839,37.4565],[49.97217,37.44587],[50.03646,37.42732],[50.11921,37.40632],[50.18201,37.38518],[50.21309,37.36136],[50.22534,37.3353],[50.23342,37.30962],[50.24345,37.28556],[50.25578,37.26234],[50.27206,37.23373],[50.29481,37.19648],[50.3262,37.15752],[50.3695,37.12027],[50.42054,37.08231],[50.46436,37.04964],[50.49871,37.02729],[50.54184,37.00555],[50.5952,36.98019],[50.63716,36.96059],[50.66273,36.94695],[50.69211,36.92897],[50.7544,36.89604],[50.86037,36.84363],[50.99318,36.78458],[51.15151,36.73457],[51.34237,36.69304],[51.54165,36.65514],[51.72914,36.62279],[51.90993,36.60591],[52.0874,36.61552],[52.26067,36.64628],[52.43304,36.68101],[52.60647,36.71238],[52.77887,36.74462],[52.95892,36.78265],[53.16009,36.82527],[53.3723,36.86304],[53.58524,36.88809],[53.78578,36.90555],[53.92599,36.92147],[53.98276,36.92796],[53.98003,36.91842],[53.94062,36.90253],[53.88739,36.89035],[53.84483,36.88216],[53.81889,36.87783],[53.79979,36.87807],[53.77994,36.8797],[53.75896,36.87847],[53.73565,36.87495],[53.70409,36.87329],[53.66415,36.87376],[53.63208,36.87215],[53.62398,36.86751],[53.63493,36.86327],[53.6458,36.8607],[53.64689,36.85699],[53.64944,36.84812],[53.67519,36.83353],[53.73604,36.81825],[53.81112,36.80671],[53.87056,36.80088],[53.9228,36.80401],[53.97863,36.81581],[54.01745,36.83621],[54.03067,36.87327],[54.03071,36.9214],[54.02385,36.95662],[54.01218,36.97226],[54.0034,36.98314],[54.00341,37.00102],[54.00462,37.02757],[53.99612,37.06263],[53.97834,37.11126],[53.95693,37.17127],[53.93738,37.22802],[53.92436,37.27611],[53.91692,37.32339],[53.91029,37.37942],[53.90141,37.44438],[53.89006,37.50202],[53.87856,37.54238],[53.86787,37.58135],[53.8535,37.65642],[53.83436,37.79137],[53.82012,37.94104],[53.81868,38.03831],[53.82759,38.08956],[53.84099,38.13795],[53.85342,38.18966],[53.86177,38.23259],[53.86677,38.27137],[53.86864,38.31608],[53.86685,38.35951],[53.8625,38.38796],[53.85717,38.40282],[53.85247,38.41383],[53.84842,38.42937],[53.84285,38.45651],[53.83673,38.4954],[53.83531,38.54248],[53.84122,38.59376],[53.85437,38.64191],[53.87627,38.68599],[53.90211,38.72961],[53.91976,38.76808],[53.92747,38.7954],[53.93393,38.81423],[53.94201,38.83123],[53.95001,38.84888],[53.95877,38.86589],[53.96881,38.88251],[53.97736,38.89848],[53.98045,38.91115],[53.97726,38.92117],[53.96784,38.93168],[53.95166,38.94201],[53.93488,38.95048],[53.92522,38.95744],[53.9205,38.96269],[53.91528,38.96574],[53.90841,38.96776],[53.90129,38.97046],[53.89619,38.97498],[53.89332,38.9817],[53.89073,38.99004],[53.88697,38.99985],[53.8803,39.01145],[53.86839,39.02269],[53.84931,39.03038],[53.82484,39.03468],[53.80288,39.03735],[53.78889,39.03799],[53.78039,39.03586],[53.77302,39.03297],[53.76481,39.03378],[53.75587,39.04354],[53.74576,39.06438],[53.73409,39.08823],[53.72398,39.10133],[53.71941,39.09939],[53.72117,39.08855],[53.72663,39.07568],[53.73005,39.06522],[53.72622,39.06114],[53.71636,39.0665],[53.70723,39.0806],[53.70355,39.10007],[53.70337,39.12097],[53.70304,39.13837],[53.70495,39.15024],[53.71152,39.15955],[53.71526,39.16897],[53.71239,39.18195],[53.71168,39.20223],[53.71205,39.22131],[53.70195,39.22511],[53.68469,39.21521],[53.67493,39.19668],[53.676,39.16299],[53.67617,39.12412],[53.6662,39.10868],[53.65143,39.12011],[53.64097,39.13935],[53.6354,39.15755],[53.62905,39.17373],[53.619,39.18584],[53.61054,39.19541],[53.60917,39.20694],[53.61056,39.22063],[53.60789,39.23151],[53.60097,39.23387],[53.59161,39.22485],[53.58051,39.21075],[53.57164,39.20659],[53.57024,39.22222],[53.57446,39.25178],[53.57606,39.27889],[53.57453,39.29639],[53.57632,39.31082],[53.57802,39.32229],[53.57316,39.32722],[53.56658,39.33189],[53.56323,39.34009],[53.55887,39.34507],[53.54957,39.3421],[53.53746,39.33601],[53.52379,39.33239],[53.5046,39.32978],[53.48031,39.32532],[53.46026,39.32206],[53.44992,39.32492],[53.4448,39.33096],[53.43909,39.3319],[53.43072,39.3258],[53.41927,39.31754],[53.40633,39.31202],[53.39796,39.31267],[53.39777,39.32028],[53.39908,39.32969],[53.39414,39.33453],[53.38514,39.33508],[53.37804,39.3345],[53.37315,39.333],[53.3677,39.33076],[53.36142,39.33027],[53.35554,39.33323],[53.35036,39.33749],[53.34344,39.3389],[53.33064,39.33596],[53.3135,39.33203],[53.30095,39.33203],[53.29766,39.33676],[53.2977,39.34242],[53.2941,39.34602],[53.28601,39.34773],[53.27505,39.34938],[53.26241,39.35275],[53.24919,39.35726],[53.23328,39.35968],[53.20971,39.35747],[53.18377,39.35071],[53.17259,39.34073],[53.17978,39.32924],[53.18775,39.31675],[53.18524,39.30247],[53.17878,39.2871],[53.17628,39.27007],[53.17873,39.24729],[53.18215,39.21939],[53.18093,39.19534],[53.1731,39.1914],[53.15989,39.22435],[53.14195,39.28355],[53.12016,39.33674],[53.10103,39.37257],[53.09373,39.39768],[53.09929,39.41582],[53.1126,39.43087],[53.12777,39.44562],[53.13867,39.45923],[53.14533,39.47133],[53.15382,39.48347],[53.16811,39.50141],[53.18911,39.5347],[53.21604,39.58189],[53.24627,39.62499],[53.2749,39.64885],[53.29241,39.65339],[53.29134,39.64576],[53.2765,39.63105],[53.25959,39.61261],[53.24761,39.5939],[53.23928,39.57714],[53.23033,39.56211],[53.22373,39.54626],[53.23523,39.53195],[53.28015,39.52673],[53.34789,39.52944],[53.40682,39.53079],[53.44099,39.5262],[53.45841,39.51643],[53.46932,39.50326],[53.47934,39.49013],[53.49383,39.48053],[53.516,39.47474],[53.54194,39.47069],[53.56327,39.46831],[53.57613,39.47039],[53.58153,39.4776],[53.58064,39.48624],[53.57566,39.49287],[53.57084,39.49877],[53.5705,39.50732],[53.57601,39.51568],[53.58577,39.51577],[53.59896,39.50705],[53.61656,39.49925],[53.63855,39.50084],[53.66129,39.50937],[53.68021,39.51534],[53.69591,39.51432],[53.71134,39.51067],[53.7251,39.51119],[53.73262,39.51788],[53.73078,39.52698],[53.72085,39.53479],[53.70473,39.54142],[53.68159,39.54875],[53.6572,39.55771],[53.64458,39.56674],[53.64681,39.57453],[53.65293,39.58298],[53.65234,39.5937],[53.64375,39.60469],[53.62946,39.61248],[53.60904,39.61592],[53.58728,39.61897],[53.57422,39.62715],[53.56933,39.63994],[53.56376,39.65254],[53.55462,39.66294],[53.54583,39.66936],[53.54153,39.66577],[53.54081,39.65175],[53.53655,39.64066],[53.52161,39.64674],[53.49704,39.66731],[53.47196,39.68651],[53.45641,39.69376],[53.45299,39.68961],[53.45312,39.68144],[53.44783,39.67791],[53.43952,39.67934],[53.43582,39.67742],[53.43935,39.66658],[53.44406,39.65174],[53.44021,39.64591],[53.42959,39.66121],[53.42384,39.69698],[53.42307,39.73373],[53.4176,39.75195],[53.40585,39.75506],[53.39353,39.75673],[53.38774,39.76168],[53.39718,39.77243],[53.42534,39.79515],[53.46142,39.82738],[53.48696,39.85517],[53.49467,39.87112],[53.4929,39.87928],[53.49223,39.88388],[53.49697,39.88661],[53.50758,39.88873],[53.52167,39.89158],[53.53272,39.89645],[53.53538,39.90268],[53.533,39.90853],[53.53405,39.91485],[53.54231,39.92377],[53.55498,39.93568],[53.56656,39.94897],[53.57216,39.95926],[53.5715,39.96306],[53.56829,39.96253],[53.56364,39.96193],[53.55517,39.96406],[53.54118,39.96866],[53.52112,39.97237],[53.49679,39.97519],[53.47302,39.98114],[53.4528,39.99031],[53.43539,39.9982],[53.41904,40.00214],[53.40286,40.00225],[53.38528,39.99714],[53.36289,39.98405],[53.33762,39.96676],[53.3176,39.954],[53.3046,39.94711],[53.29368,39.94227],[53.28249,39.94003],[53.27064,39.9422],[53.25822,39.94694],[53.24314,39.95376],[53.21856,39.96608],[53.18656,39.98021],[53.1599,39.98528],[53.13837,39.98016],[53.11012,39.97343],[53.08038,39.97147],[53.06629,39.97525],[53.06823,39.9816],[53.07037,39.9861],[53.05564,39.98515],[53.02031,39.97979],[52.97958,39.97827],[52.94818,39.98739],[52.92756,40.00205],[52.91362,40.01013],[52.90446,40.00689],[52.90179,39.99641],[52.90721,39.98252],[52.91748,39.96471],[52.92642,39.93969],[52.93299,39.90974],[52.94249,39.88317],[52.95839,39.86106],[52.98072,39.83565],[53.0077,39.80569],[53.03209,39.78126],[53.04331,39.76958],[53.03704,39.76868],[53.02523,39.77085],[53.02558,39.76624],[53.03316,39.75587],[53.02918,39.75302],[53.01237,39.76591],[52.99232,39.79168],[52.97075,39.82052],[52.94678,39.84274],[52.92491,39.85915],[52.91038,39.87756],[52.90171,39.90101],[52.88789,39.92761],[52.85441,39.95822],[52.80507,39.99343],[52.76531,40.02786],[52.7497,40.05956],[52.75062,40.09005],[52.75728,40.11595],[52.76328,40.13589],[52.76275,40.15437],[52.75421,40.17451],[52.74509,40.19373],[52.73951,40.20838],[52.73121,40.22208],[52.71843,40.24334],[52.71075,40.28326],[52.71698,40.35354],[52.73467,40.44016],[52.75779,40.50986],[52.78847,40.55971],[52.82537,40.60721],[52.85381,40.65125],[52.86219,40.68129],[52.85366,40.69634],[52.84069,40.70417],[52.83407,40.7123],[52.83499,40.72294],[52.83792,40.73385],[52.83922,40.74141],[52.84151,40.7456],[52.84895,40.74907],[52.85967,40.75281],[52.86815,40.7578],[52.87174,40.76569],[52.87126,40.77537],[52.87033,40.78816],[52.87636,40.81615],[52.8941,40.86688],[52.91508,40.92741],[52.92545,40.98414],[52.92468,41.03312],[52.92426,41.06483],[52.93218,41.07325],[52.94651,41.06809],[52.95948,41.05952],[52.96561,41.04926],[52.96569,41.03781],[52.96422,41.02631],[52.96791,41.01208],[52.98255,40.99054],[53.00413,40.96273],[53.02186,40.93385],[53.0337,40.90731],[53.0464,40.88594],[53.06248,40.87194],[53.07955,40.86515],[53.09633,40.8639],[53.10994,40.86508],[53.11365,40.86384],[53.10405,40.85781],[53.08781,40.84944],[53.07636,40.84044],[53.07461,40.83042],[53.08059,40.82044],[53.09093,40.81173],[53.10081,40.80354],[53.106,40.79432],[53.10754,40.78405],[53.11272,40.77479],[53.12953,40.76865],[53.15607,40.7665],[53.18442,40.7704],[53.2135,40.78321],[53.2409,40.79892],[53.25572,40.80321],[53.25599,40.79273],[53.25789,40.77916],[53.27819,40.77265],[53.31105,40.77445],[53.33511,40.78182],[53.34358,40.79204],[53.34641,40.8032],[53.3517,40.81431],[53.36044,40.82387],[53.3701,40.82887],[53.37788,40.82756],[53.38154,40.82031],[53.38153,40.80887],[53.38255,40.79502],[53.38861,40.77941],[53.40069,40.76422],[53.41731,40.7532],[53.43382,40.74681],[53.44714,40.74193],[53.45912,40.73718],[53.4714,40.73459],[53.48338,40.73574],[53.49654,40.74043],[53.51477,40.74855],[53.53645,40.76021],[53.55333,40.77689],[53.5613,40.80069],[53.56543,40.82916],[53.57294,40.85654],[53.58427,40.87749],[53.59509,40.88807],[53.60439,40.88989],[53.61372,40.88812],[53.62342,40.8853],[53.63186,40.88155],[53.6374,40.87653],[53.64246,40.87115],[53.64981,40.86707],[53.65661,40.86354],[53.65901,40.85858],[53.65757,40.85274],[53.65552,40.84696],[53.65564,40.83915],[53.65899,40.82866],[53.66419,40.8182],[53.66728,40.80826],[53.66519,40.79816],[53.66061,40.78898],[53.65997,40.7779],[53.66694,40.75896],[53.67903,40.73453],[53.69102,40.71458],[53.70107,40.70404],[53.7107,40.69962],[53.71949,40.69553],[53.72378,40.68776],[53.72122,40.67581],[53.71554,40.66132],[53.71601,40.64581],[53.73148,40.63272],[53.76418,40.62658],[53.80761,40.62655],[53.84883,40.62992],[53.87967,40.63833],[53.90484,40.65132],[53.92839,40.66303],[53.947,40.66813],[53.9636,40.66614],[53.98468,40.66117],[54.00858,40.65884],[54.03139,40.66149],[54.05361,40.66725],[54.07397,40.67396],[54.08801,40.68132],[54.09426,40.68889],[54.0927,40.69507],[54.08251,40.69997],[54.07189,40.70516],[54.07831,40.70962],[54.10595,40.71283],[54.14236,40.7172],[54.17993,40.72237],[54.21305,40.72473],[54.23062,40.72186],[54.23165,40.7129],[54.22641,40.70083],[54.22432,40.69078],[54.24013,40.68321],[54.28834,40.67731],[54.34678,40.67602],[54.37521,40.68085],[54.37833,40.6891],[54.38768,40.69815],[54.40139,40.70705],[54.39136,40.71407],[54.35631,40.71843],[54.32621,40.72392],[54.31463,40.73524],[54.30996,40.75263],[54.30246,40.77408],[54.29192,40.79781],[54.28195,40.82014],[54.27504,40.83678],[54.272,40.84706],[54.27255,40.85362],[54.27479,40.8593],[54.27585,40.86519],[54.27314,40.86975],[54.26647,40.87166],[54.25873,40.87336],[54.25324,40.87769],[54.2515,40.88327],[54.25362,40.88703],[54.25911,40.88856],[54.26797,40.89093],[54.28121,40.89814],[54.29787,40.90935],[54.31551,40.91803],[54.33729,40.91765],[54.36891,40.90595],[54.40593,40.88912],[54.43755,40.87565],[54.45779,40.86442],[54.46388,40.85054],[54.4595,40.83478],[54.46544,40.82187],[54.50411,40.81754],[54.5647,40.82275],[54.61399,40.83216],[54.64308,40.84361],[54.66704,40.85824],[54.69302,40.87517],[54.71848,40.89631],[54.74054,40.92214],[54.75507,40.94605],[54.75982,40.96489],[54.75755,40.98045],[54.75158,40.99295]]]}}]}