{"type":"FeatureCollection","meta":{"year":2010,"level_m":-27.35,"reference_year":2015,"reference_level_m":-27.85,"status":"semi","model":"cross-shore translation: retreat = Δlevel / tan(β)","source_id":"model","projected":false},"features":[{"type":"Feature","properties":{"year":2010,"level_m":-27.35},"geometry":{"type":"Polygon","coordinates":[[[54.7393,41.00568],[54.72064,41.02587],[54.69936,41.04827],[54.68633,41.06244],[54.68784,41.06668],[54.70381,41.06389],[54.7287,41.05555],[54.74953,41.04794],[54.75432,41.04893],[54.74576,41.05706],[54.73507,41.0662],[54.72755,41.07403],[54.72323,41.08041],[54.7218,41.08586],[54.72293,41.09115],[54.72589,41.09565],[54.72845,41.09931],[54.72536,41.10465],[54.71135,41.11225],[54.6879,41.11932],[54.66331,41.12698],[54.64385,41.14129],[54.61504,41.17011],[54.54452,41.22036],[54.43702,41.28094],[54.34483,41.32673],[54.29199,41.35346],[54.25581,41.37444],[54.22266,41.39285],[54.19908,41.40603],[54.18516,41.41768],[54.17244,41.43243],[54.15637,41.44764],[54.13634,41.45848],[54.11357,41.46674],[54.09265,41.47679],[54.07581,41.4905],[54.06051,41.51004],[54.046,41.53749],[54.03507,41.5745],[54.02899,41.62371],[54.02492,41.67927],[54.01853,41.72738],[54.00576,41.76638],[53.98405,41.80562],[53.95916,41.84375],[53.94137,41.86995],[53.93088,41.88183],[53.9214,41.88636],[53.9121,41.89004],[53.90557,41.89612],[53.90303,41.90474],[53.90428,41.91422],[53.90751,41.92367],[53.90973,41.93348],[53.90919,41.94495],[53.90763,41.959],[53.9089,41.97516],[53.91325,41.99192],[53.91665,42.00825],[53.91654,42.02512],[53.91311,42.04346],[53.90531,42.06239],[53.88881,42.08187],[53.85902,42.10213],[53.81724,42.11923],[53.77067,42.12853],[53.70878,42.13063],[53.59853,42.12437],[53.45443,42.10782],[53.34335,42.08994],[53.27911,42.08246],[53.22483,42.08582],[53.17076,42.08964],[53.12586,42.08269],[53.08593,42.06235],[53.03857,42.03079],[52.97972,41.98264],[52.91459,41.90681],[52.85396,41.81888],[52.81295,41.75906],[52.79358,41.73476],[52.78382,41.71982],[52.77706,41.70038],[52.77432,41.68064],[52.77873,41.66958],[52.79238,41.67294],[52.81385,41.68544],[52.84151,41.69465],[52.87242,41.69453],[52.89806,41.68688],[52.91097,41.67425],[52.91125,41.65874],[52.90508,41.64327],[52.90029,41.62967],[52.90004,41.61648],[52.90186,41.60169],[52.89834,41.57811],[52.8805,41.53205],[52.85276,41.4706],[52.83107,41.42175],[52.82096,41.3951],[52.81821,41.3794],[52.8213,41.363],[52.82904,41.33635],[52.83797,41.29713],[52.84877,41.25234],[52.86729,41.206],[52.89039,41.1609],[52.9035,41.1251],[52.90085,41.09866],[52.89107,41.07564],[52.88246,41.05926],[52.87532,41.0551],[52.86689,41.06057],[52.85782,41.06944],[52.85213,41.08006],[52.85175,41.09577],[52.85396,41.11756],[52.85455,41.14113],[52.85131,41.16283],[52.84487,41.18189],[52.83702,41.19721],[52.82888,41.20826],[52.82146,41.21663],[52.8165,41.22514],[52.81475,41.23641],[52.81353,41.25287],[52.80828,41.27752],[52.79881,41.30636],[52.78842,41.32994],[52.77672,41.34922],[52.76202,41.36802],[52.74661,41.38157],[52.73423,41.38897],[52.7263,41.39604],[52.72183,41.40551],[52.71896,41.416],[52.71495,41.42564],[52.70681,41.43417],[52.69387,41.44188],[52.67768,41.44819],[52.65974,41.4552],[52.63955,41.46789],[52.61682,41.48508],[52.59495,41.49952],[52.57804,41.51059],[52.56779,41.52328],[52.56525,41.5379],[52.57066,41.55297],[52.58006,41.56844],[52.58697,41.58313],[52.58936,41.59731],[52.59018,41.61133],[52.59208,41.62311],[52.59457,41.63218],[52.59508,41.63946],[52.59229,41.64487],[52.58768,41.64853],[52.58346,41.65241],[52.57948,41.6598],[52.57417,41.67055],[52.56737,41.68005],[52.55945,41.68534],[52.54997,41.68748],[52.53961,41.6895],[52.53008,41.69402],[52.52117,41.70038],[52.51071,41.70682],[52.49795,41.71401],[52.48414,41.72193],[52.46933,41.72924],[52.4543,41.73794],[52.44378,41.75142],[52.44332,41.7729],[52.45527,41.80765],[52.47334,41.85388],[52.48456,41.89921],[52.48335,41.93465],[52.47448,41.95957],[52.46351,41.97582],[52.45299,41.9861],[52.44393,41.994],[52.43763,42.00418],[52.43558,42.02044],[52.43632,42.0401],[52.43427,42.0573],[52.42576,42.07277],[52.41678,42.08976],[52.41607,42.10761],[52.42218,42.12579],[52.42838,42.14451],[52.43355,42.16203],[52.44109,42.17596],[52.45323,42.18571],[52.47092,42.19719],[52.49813,42.22334],[52.53574,42.26651],[52.57128,42.30797],[52.59175,42.33244],[52.59916,42.34593],[52.60145,42.35934],[52.60235,42.37408],[52.60527,42.38745],[52.61466,42.4004],[52.62903,42.41419],[52.64079,42.42707],[52.64654,42.43892],[52.65004,42.45262],[52.65621,42.47276],[52.6656,42.50232],[52.67284,42.53809],[52.67144,42.57566],[52.65937,42.61356],[52.63882,42.64852],[52.61285,42.67672],[52.58749,42.69954],[52.57188,42.72004],[52.56922,42.7361],[52.57456,42.7418],[52.58254,42.73455],[52.59186,42.71879],[52.60353,42.7028],[52.61812,42.69125],[52.63599,42.68177],[52.65411,42.67141],[52.66601,42.66163],[52.67088,42.65442],[52.67442,42.64775],[52.68109,42.63564],[52.69091,42.61659],[52.70148,42.59907],[52.71178,42.59233],[52.72232,42.59878],[52.73233,42.61536],[52.73938,42.63782],[52.73993,42.66544],[52.72998,42.69687],[52.70709,42.72448],[52.67485,42.74298],[52.64234,42.75769],[52.60752,42.77648],[52.55232,42.79919],[52.47476,42.81857],[52.40413,42.82865],[52.36372,42.83028],[52.34569,42.82784],[52.33393,42.82367],[52.32357,42.81764],[52.31469,42.80912],[52.30554,42.80037],[52.28981,42.80043],[52.25903,42.81946],[52.21634,42.85167],[52.17257,42.87628],[52.12413,42.88211],[52.06426,42.87383],[52.00553,42.85927],[51.96284,42.84619],[51.93243,42.84367],[51.90159,42.85794],[51.86847,42.8846],[51.84096,42.91272],[51.82114,42.93705],[51.80594,42.9587],[51.79382,42.98137],[51.78095,43.00769],[51.76111,43.03654],[51.73589,43.06397],[51.71419,43.08378],[51.69889,43.09338],[51.68713,43.09789],[51.67871,43.1035],[51.67509,43.11169],[51.67618,43.12082],[51.67948,43.13081],[51.68077,43.14385],[51.67655,43.16031],[51.66458,43.17552],[51.64203,43.18281],[51.60858,43.18196],[51.57304,43.17843],[51.5474,43.17435],[51.53379,43.16889],[51.52561,43.16309],[51.51737,43.15882],[51.50681,43.15756],[51.49272,43.16013],[51.47134,43.16389],[51.43104,43.16375],[51.36794,43.16017],[51.30675,43.16053],[51.27661,43.17395],[51.27886,43.20781],[51.29557,43.26339],[51.31013,43.33514],[51.31433,43.40801],[51.30665,43.46315],[51.29276,43.49652],[51.28232,43.51645],[51.27803,43.53136],[51.27519,43.54592],[51.26745,43.56037],[51.25056,43.57553],[51.22957,43.59246],[51.21441,43.60851],[51.20569,43.6197],[51.19729,43.62411],[51.18695,43.62382],[51.17589,43.62297],[51.16516,43.62409],[51.15357,43.6291],[51.13337,43.64851],[51.09594,43.69706],[51.05168,43.76234],[51.02298,43.81055],[51.01279,43.83318],[51.0082,43.84492],[51.00274,43.85388],[50.99714,43.86135],[50.99302,43.86951],[50.99123,43.88096],[50.99078,43.89497],[50.98743,43.90867],[50.97675,43.92211],[50.96144,43.93613],[50.94812,43.95057],[50.93708,43.96637],[50.92529,43.98344],[50.91327,43.9987],[50.90151,44.00937],[50.88819,44.01599],[50.87409,44.02151],[50.86292,44.02866],[50.85667,44.03784],[50.85509,44.0477],[50.85643,44.06241],[50.8574,44.09214],[50.85604,44.1334],[50.85139,44.1685],[50.83946,44.19273],[50.81276,44.2148],[50.74746,44.24023],[50.61298,44.27049],[50.4446,44.30092],[50.32767,44.32348],[50.27972,44.33866],[50.25824,44.35336],[50.24283,44.37252],[50.23527,44.39857],[50.23406,44.42853],[50.23404,44.45445],[50.2331,44.47277],[50.23125,44.48821],[50.22769,44.50825],[50.22513,44.53497],[50.22872,44.5597],[50.23937,44.57078],[50.25318,44.57169],[50.26534,44.57843],[50.27333,44.59498],[50.27849,44.61134],[50.28301,44.6229],[50.28658,44.63338],[50.28999,44.64521],[50.29706,44.65624],[50.309,44.66257],[50.32216,44.66251],[50.34237,44.65728],[50.39067,44.64837],[50.46626,44.63979],[50.53645,44.63762],[50.58342,44.64002],[50.61302,44.63869],[50.63614,44.63268],[50.66814,44.62708],[50.70969,44.62223],[50.74133,44.61681],[50.75558,44.61394],[50.76215,44.61638],[50.76772,44.62276],[50.77411,44.63003],[50.78577,44.63564],[50.80875,44.63807],[50.84114,44.63687],[50.87338,44.63104],[50.90219,44.61785],[50.92977,44.59787],[50.95418,44.57935],[50.97378,44.56987],[50.99016,44.5671],[51.00232,44.56414],[51.00754,44.55872],[51.00587,44.55295],[51.00133,44.54776],[51.00172,44.54067],[51.01674,44.52885],[51.05197,44.51276],[51.09874,44.49743],[51.14039,44.48897],[51.17234,44.48851],[51.2015,44.49505],[51.23257,44.50953],[51.26061,44.52741],[51.27676,44.53969],[51.28249,44.54529],[51.28641,44.54891],[51.29324,44.55188],[51.30495,44.55341],[51.3218,44.55431],[51.34186,44.55617],[51.36111,44.55658],[51.37495,44.5495],[51.38911,44.53686],[51.41994,44.52784],[51.47025,44.52279],[51.52064,44.5178],[51.55325,44.51738],[51.56628,44.52524],[51.56489,44.53748],[51.55162,44.55047],[51.52475,44.56593],[51.4865,44.58581],[51.4464,44.60387],[51.40758,44.61073],[51.36706,44.60805],[51.32854,44.61152],[51.29624,44.63643],[51.26721,44.6779],[51.23448,44.71757],[51.19245,44.74845],[51.14943,44.7722],[51.12143,44.78742],[51.10644,44.79566],[51.0903,44.80111],[51.07143,44.80524],[51.05741,44.80915],[51.04506,44.81603],[51.02297,44.82909],[50.99345,44.84734],[50.97066,44.86708],[50.9612,44.88678],[50.96361,44.90438],[50.97272,44.91636],[50.98191,44.92334],[50.98944,44.92963],[50.99436,44.93748],[50.99207,44.94559],[50.98217,44.95154],[50.9697,44.95502],[50.9585,44.95932],[50.95328,44.96814],[50.96059,44.98057],[50.98016,44.99195],[51.00472,44.99901],[51.0283,45.00173],[51.04774,45.00245],[51.06179,45.00438],[51.07208,45.00933],[51.08141,45.01724],[51.0935,45.02774],[51.11345,45.04064],[51.14138,45.05419],[51.1705,45.06385],[51.19592,45.06539],[51.21775,45.05815],[51.23687,45.0461],[51.25418,45.03632],[51.26966,45.03463],[51.2792,45.04298],[51.27797,45.05889],[51.26851,45.07639],[51.258,45.09088],[51.25018,45.10275],[51.24617,45.11421],[51.24735,45.12515],[51.25251,45.13511],[51.25568,45.14515],[51.25188,45.15548],[51.24609,45.16622],[51.24856,45.18033],[51.26179,45.20012],[51.27875,45.22256],[51.29735,45.24651],[51.32713,45.27861],[51.36522,45.31706],[51.39211,45.34913],[51.40469,45.3706],[51.41752,45.38082],[51.43816,45.37505],[51.46601,45.35879],[51.50119,45.34643],[51.54257,45.34501],[51.58422,45.35326],[51.61973,45.36778],[51.64711,45.38262],[51.66782,45.39164],[51.68364,45.39565],[51.69607,45.40169],[51.70757,45.41424],[51.72068,45.43123],[51.73705,45.44652],[51.75603,45.45321],[51.77365,45.44844],[51.78631,45.43627],[51.79844,45.42287],[51.823,45.41142],[51.86132,45.40162],[51.89714,45.39147],[51.92163,45.3817],[51.94016,45.37741],[51.95985,45.38182],[51.98339,45.39086],[52.00958,45.39668],[52.03802,45.39582],[52.08508,45.39329],[52.18403,45.39649],[52.32278,45.40421],[52.43907,45.40931],[52.51988,45.40651],[52.60808,45.39093],[52.71636,45.36558],[52.81292,45.34273],[52.87853,45.32885],[52.93037,45.32318],[52.98418,45.32162],[53.03452,45.3179],[53.07465,45.31167],[53.10546,45.30931],[53.13317,45.31437],[53.16114,45.32316],[53.18346,45.33024],[53.19704,45.33531],[53.20844,45.34001],[53.22263,45.34252],[53.23609,45.34187],[53.24413,45.34105],[53.24985,45.34257],[53.25841,45.34665],[53.26604,45.35367],[53.2583,45.36392],[53.22389,45.37562],[53.17736,45.3859],[53.14631,45.39358],[53.13381,45.39984],[53.12394,45.4057],[53.10627,45.41105],[53.07206,45.41899],[53.01384,45.435],[52.94683,45.45549],[52.90039,45.47046],[52.87887,45.47982],[52.86607,45.48897],[52.85257,45.49712],[52.83267,45.50322],[52.80288,45.5102],[52.77238,45.51925],[52.75432,45.5289],[52.74823,45.53847],[52.74523,45.54741],[52.74309,45.55503],[52.74432,45.5626],[52.74762,45.5714],[52.74925,45.58056],[52.74854,45.58999],[52.74796,45.60236],[52.74915,45.61888],[52.75238,45.63641],[52.75933,45.65061],[52.77197,45.66038],[52.7885,45.67063],[52.80553,45.69033],[52.82419,45.72213],[52.84606,45.7553],[52.86738,45.77743],[52.88563,45.78835],[52.90285,45.79641],[52.92237,45.8092],[52.9463,45.82878],[52.97036,45.85327],[52.98876,45.88055],[53.00373,45.90638],[53.01955,45.92555],[53.03539,45.938],[53.04825,45.9494],[53.05719,45.9644],[53.06688,45.98253],[53.07988,46.0017],[53.08909,46.01944],[53.09045,46.03207],[53.08776,46.04024],[53.08479,46.05035],[53.08725,46.06558],[53.09927,46.08252],[53.11494,46.10153],[53.12925,46.13455],[53.14708,46.19185],[53.16528,46.26526],[53.16669,46.3367],[53.14276,46.39573],[53.10554,46.44009],[53.07847,46.46709],[53.07602,46.47461],[53.08985,46.46957],[53.10377,46.46439],[53.10995,46.46529],[53.10798,46.47142],[53.10351,46.48193],[53.09837,46.49692],[53.08344,46.51051],[53.05648,46.51348],[53.03168,46.50661],[53.02041,46.49939],[53.01734,46.49981],[53.01221,46.51397],[53.01096,46.54006],[53.02647,46.56139],[53.04981,46.56628],[53.06278,46.5633],[53.06874,46.56248],[53.0832,46.56597],[53.10486,46.57857],[53.11928,46.60047],[53.12336,46.61716],[53.12102,46.62027],[53.11517,46.62154],[53.11539,46.63081],[53.12886,46.64318],[53.15002,46.65104],[53.16767,46.65328],[53.17914,46.65235],[53.19349,46.64949],[53.21279,46.6504],[53.22532,46.66565],[53.22121,46.69455],[53.19964,46.72294],[53.16875,46.74035],[53.14262,46.74759],[53.12955,46.75213],[53.12547,46.76615],[53.1201,46.79916],[53.10829,46.84283],[53.09307,46.8782],[53.07455,46.89887],[53.04888,46.90922],[53.02238,46.91293],[53.00321,46.91695],[52.98444,46.93041],[52.95603,46.95139],[52.91477,46.96692],[52.85848,46.97028],[52.78916,46.96784],[52.71452,46.96711],[52.64894,46.9689],[52.6067,46.97318],[52.5811,46.98287],[52.55277,46.99706],[52.51344,47.00922],[52.46895,47.0139],[52.43529,47.00918],[52.42637,46.99554],[52.4331,46.97724],[52.42759,46.95966],[52.39963,46.94269],[52.36278,46.92429],[52.3223,46.907],[52.27868,46.89537],[52.24102,46.89257],[52.21324,46.89432],[52.19839,46.89019],[52.19872,46.87987],[52.20462,46.8728],[52.21168,46.87059],[52.22438,46.86713],[52.23977,46.85988],[52.25203,46.84996],[52.26066,46.83791],[52.26452,46.82568],[52.25212,46.81944],[52.20965,46.82256],[52.15145,46.82983],[52.1113,46.83543],[52.09744,46.83832],[52.09477,46.84047],[52.09254,46.84575],[52.0865,46.85495],[52.07545,46.86508],[52.05986,46.87597],[52.04241,46.88752],[52.02977,46.89535],[52.02241,46.89953],[52.01206,46.90629],[52.00267,46.91631],[52.00935,46.92491],[52.02391,46.93334],[52.01951,46.9427],[51.99273,46.94291],[51.96375,46.92779],[51.94455,46.90905],[51.92998,46.90001],[51.90901,46.89967],[51.88032,46.90288],[51.86262,46.91182],[51.87045,46.92695],[51.8821,46.94049],[51.86913,46.94526],[51.83733,46.94056],[51.80829,46.9326],[51.78979,46.92943],[51.77626,46.93318],[51.76044,46.94232],[51.73979,46.95526],[51.71711,46.97067],[51.69949,46.99112],[51.69438,47.01816],[51.69545,47.04518],[51.68282,47.06326],[51.65286,47.06667],[51.62317,47.05494],[51.60529,47.03517],[51.59793,47.01713],[51.59719,47.00727],[51.59663,47.00883],[51.58742,47.02277],[51.5671,47.04422],[51.53782,47.06383],[51.49762,47.07757],[51.44151,47.08924],[51.36792,47.10322],[51.28905,47.11864],[51.22391,47.12828],[51.17475,47.12548],[51.12685,47.11239],[51.06529,47.09587],[50.99535,47.07883],[50.94149,47.06135],[50.91452,47.04658],[50.90434,47.0397],[50.89646,47.04188],[50.88067,47.0484],[50.85741,47.05162],[50.83838,47.04695],[50.83404,47.03713],[50.83552,47.02793],[50.82366,47.01636],[50.79502,46.99029],[50.76574,46.95409],[50.7499,46.93157],[50.7405,46.93181],[50.73381,46.94417],[50.74166,46.95904],[50.75457,46.97255],[50.74782,46.97997],[50.72153,46.97549],[50.69281,46.96276],[50.67039,46.95259],[50.65153,46.94901],[50.62969,46.9466],[50.606,46.93558],[50.58893,46.91134],[50.58015,46.88293],[50.57411,46.86268],[50.56653,46.85178],[50.55522,46.84625],[50.54544,46.84784],[50.54796,46.85849],[50.56118,46.87377],[50.56638,46.88714],[50.54989,46.89341],[50.52251,46.8916],[50.50361,46.88597],[50.49796,46.88093],[50.49634,46.87985],[50.48715,46.88563],[50.46924,46.89576],[50.45095,46.9036],[50.43615,46.90609],[50.42324,46.90368],[50.41015,46.8935],[50.3947,46.87053],[50.37891,46.84189],[50.36942,46.82633],[50.36832,46.83119],[50.36641,46.84354],[50.35533,46.8471],[50.34145,46.83964],[50.33315,46.82984],[50.32863,46.82378],[50.3222,46.8212],[50.3112,46.81897],[50.29851,46.815],[50.28582,46.80642],[50.26846,46.78769],[50.24677,46.76204],[50.22899,46.74362],[50.21683,46.73902],[50.20993,46.74375],[50.21303,46.75323],[50.21878,46.76379],[50.21116,46.77011],[50.18449,46.7644],[50.13966,46.73953],[50.08718,46.70093],[50.04716,46.66699],[50.0241,46.64892],[50.00446,46.64293],[49.98101,46.64087],[49.95847,46.63673],[49.94099,46.62847],[49.92664,46.61845],[49.91026,46.60872],[49.8914,46.59884],[49.87526,46.59093],[49.85977,46.58759],[49.83934,46.58387],[49.8203,46.57388],[49.81102,46.56176],[49.80743,46.55608],[49.80107,46.55929],[49.78857,46.5666],[49.77117,46.56925],[49.75531,46.56201],[49.74866,46.5506],[49.74974,46.54525],[49.74822,46.54962],[49.73657,46.55925],[49.71722,46.56566],[49.69914,46.56217],[49.69107,46.54946],[49.69164,46.53936],[49.68345,46.5469],[49.65577,46.56677],[49.62515,46.57398],[49.61032,46.55947],[49.60697,46.5409],[49.60108,46.53156],[49.59056,46.52544],[49.58428,46.51827],[49.58362,46.51738],[49.5765,46.52765],[49.55369,46.54451],[49.52079,46.55964],[49.48865,46.56939],[49.46388,46.57575],[49.45355,46.57628],[49.46237,46.56698],[49.48329,46.55216],[49.50065,46.5359],[49.50453,46.52005],[49.49907,46.51142],[49.49195,46.51265],[49.48444,46.51697],[49.47558,46.51877],[49.46353,46.51944],[49.44982,46.5222],[49.44383,46.52745],[49.44957,46.53533],[49.45565,46.54669],[49.44852,46.55779],[49.4298,46.56163],[49.41344,46.55745],[49.40801,46.55303],[49.40513,46.5543],[49.39101,46.5601],[49.3646,46.56897],[49.33613,46.57902],[49.32411,46.57973],[49.34057,46.55945],[49.36653,46.52567],[49.37529,46.50128],[49.36606,46.49556],[49.35278,46.49782],[49.34373,46.50084],[49.33636,46.50799],[49.32371,46.51998],[49.30558,46.53063],[49.29336,46.53308],[49.29424,46.52509],[49.29816,46.5092],[49.30246,46.49135],[49.31891,46.47624],[49.34409,46.46089],[49.35921,46.44174],[49.35818,46.42348],[49.35391,46.41148],[49.35559,46.40666],[49.35475,46.40999],[49.34275,46.42046],[49.32525,46.43366],[49.3096,46.44722],[49.29458,46.46103],[49.27558,46.47312],[49.25345,46.48029],[49.24045,46.48069],[49.24266,46.47447],[49.24499,46.46275],[49.24065,46.44854],[49.2467,46.43598],[49.26821,46.42491],[49.28451,46.41424],[49.28421,46.40759],[49.27273,46.40782],[49.24702,46.41403],[49.20755,46.42104],[49.17545,46.4213],[49.16796,46.41462],[49.17839,46.40805],[49.19015,46.40508],[49.19955,46.40302],[49.21015,46.3967],[49.21521,46.38238],[49.21038,46.36266],[49.20481,46.34504],[49.20665,46.33461],[49.21957,46.32982],[49.24532,46.32239],[49.27458,46.3061],[49.29097,46.28582],[49.29123,46.27092],[49.28668,46.26514],[49.2827,46.26634],[49.27431,46.27156],[49.2582,46.2788],[49.23468,46.28631],[49.20416,46.29408],[49.17079,46.30352],[49.14778,46.3159],[49.14181,46.32995],[49.13812,46.33811],[49.12335,46.33352],[49.10134,46.32006],[49.07973,46.30515],[49.06442,46.29162],[49.05748,46.28168],[49.05555,46.27585],[49.05964,46.27105],[49.0742,46.2658],[49.09347,46.258],[49.1035,46.24052],[49.10271,46.21078],[49.10348,46.18206],[49.10805,46.1701],[49.1074,46.17373],[49.09865,46.18428],[49.08299,46.19694],[49.06122,46.2056],[49.03815,46.20534],[49.02122,46.19891],[49.01179,46.19266],[49.00052,46.18752],[48.97824,46.17882],[48.94985,46.1651],[48.93165,46.14922],[48.93336,46.13373],[48.94233,46.12084],[48.94095,46.11176],[48.93317,46.10571],[48.92874,46.10123],[48.92361,46.09787],[48.91605,46.09996],[48.91457,46.11335],[48.91584,46.13482],[48.90452,46.15228],[48.88294,46.15487],[48.86883,46.14296],[48.86915,46.12928],[48.87641,46.12539],[48.87789,46.13303],[48.86499,46.14514],[48.84569,46.14969],[48.83908,46.1411],[48.84658,46.12325],[48.85342,46.10325],[48.85699,46.09038],[48.85796,46.08912],[48.84858,46.09638],[48.83035,46.10938],[48.81354,46.12149],[48.80716,46.12167],[48.8105,46.10815],[48.81129,46.08984],[48.80785,46.07594],[48.80699,46.06917],[48.80292,46.06642],[48.79259,46.0682],[48.78516,46.08069],[48.77692,46.10326],[48.75377,46.12421],[48.72231,46.13296],[48.70278,46.1318],[48.69607,46.13052],[48.68604,46.1306],[48.66842,46.12601],[48.6534,46.11607],[48.64666,46.1062],[48.64613,46.10083],[48.64611,46.10002],[48.64136,46.10023],[48.63932,46.09819],[48.653,46.09313],[48.67941,46.08381],[48.70683,46.06794],[48.72616,46.04877],[48.72875,46.03355],[48.71694,46.02363],[48.70394,46.01593],[48.69539,46.00979],[48.68719,46.00558],[48.67459,46.00102],[48.65683,45.99227],[48.64261,45.97948],[48.64243,45.96952],[48.6511,45.96806],[48.65971,45.97327],[48.67503,45.9801],[48.70351,45.98387],[48.73388,45.9809],[48.74766,45.97091],[48.74196,45.9573],[48.73087,45.94268],[48.72702,45.92824],[48.73376,45.91709],[48.74254,45.90873],[48.74681,45.8975],[48.75695,45.88215],[48.77342,45.8677],[48.78038,45.86024],[48.77319,45.86028],[48.75664,45.86061],[48.73526,45.85605],[48.71598,45.84751],[48.70638,45.83835],[48.7044,45.83412],[48.69697,45.83913],[48.68338,45.85258],[48.67863,45.86913],[48.68518,45.88289],[48.6903,45.89264],[48.68565,45.90115],[48.67386,45.90973],[48.66174,45.91659],[48.65208,45.92064],[48.64279,45.92162],[48.63021,45.91914],[48.61768,45.91763],[48.61494,45.92474],[48.61669,45.94196],[48.60543,45.96239],[48.57841,45.97559],[48.5463,45.97584],[48.5197,45.96754],[48.50468,45.95943],[48.49751,45.95571],[48.48856,45.95503],[48.47375,45.95398],[48.45598,45.94927],[48.43667,45.93779],[48.41514,45.91871],[48.39708,45.89902],[48.38703,45.88885],[48.37665,45.88697],[48.36236,45.88337],[48.35754,45.87575],[48.36887,45.86995],[48.38596,45.86678],[48.39718,45.86161],[48.39373,45.85519],[48.36732,45.85223],[48.32381,45.85062],[48.28646,45.8437],[48.26881,45.83076],[48.26373,45.81646],[48.26146,45.80441],[48.25817,45.79595],[48.25184,45.79058],[48.24169,45.78675],[48.22923,45.78306],[48.21655,45.77666],[48.20708,45.76495],[48.20495,45.75033],[48.20934,45.73754],[48.21666,45.72895],[48.22514,45.72569],[48.22859,45.72918],[48.21559,45.73859],[48.18573,45.74774],[48.15378,45.75076],[48.12833,45.75176],[48.10379,45.75648],[48.07702,45.75932],[48.05234,45.7538],[48.03256,45.74386],[48.01709,45.73523],[48.00513,45.72772],[47.99886,45.72042],[47.99871,45.71508],[47.9976,45.7135],[47.99406,45.71701],[47.99432,45.7249],[47.99456,45.73326],[47.98715,45.7396],[47.97335,45.74345],[47.95849,45.74397],[47.94649,45.7418],[47.93557,45.73831],[47.92095,45.73219],[47.90308,45.72125],[47.88663,45.70821],[47.87641,45.70251],[47.87362,45.71061],[47.86952,45.72465],[47.85529,45.73007],[47.83762,45.72189],[47.82672,45.70472],[47.82152,45.68393],[47.81925,45.66354],[47.82151,45.64778],[47.82563,45.63922],[47.82557,45.6351],[47.82236,45.63065],[47.81812,45.62681],[47.80401,45.63012],[47.77785,45.64307],[47.75697,45.66078],[47.75034,45.67947],[47.74453,45.69527],[47.73034,45.70249],[47.71784,45.70553],[47.71255,45.71254],[47.70497,45.71951],[47.69343,45.72059],[47.68657,45.71882],[47.6861,45.7182],[47.68604,45.71887],[47.6829,45.7197],[47.67693,45.71907],[47.66556,45.71593],[47.64905,45.71388],[47.63549,45.71793],[47.63047,45.7274],[47.63275,45.74035],[47.63503,45.75564],[47.62768,45.7691],[47.60866,45.77797],[47.58282,45.78164],[47.55728,45.77665],[47.54237,45.76344],[47.54471,45.75302],[47.55962,45.75295],[47.57575,45.75565],[47.58348,45.75017],[47.58525,45.73684],[47.5936,45.72638],[47.60928,45.72492],[47.62008,45.72564],[47.61946,45.7206],[47.61136,45.71017],[47.60438,45.69841],[47.60284,45.68821],[47.60469,45.68195],[47.60621,45.68051],[47.60367,45.67994],[47.59674,45.67481],[47.59069,45.66547],[47.58913,45.6565],[47.59227,45.64919],[47.60349,45.64207],[47.62187,45.63224],[47.6368,45.61609],[47.64331,45.59617],[47.6451,45.57854],[47.64154,45.56704],[47.62887,45.56603],[47.60855,45.57787],[47.58688,45.60005],[47.56866,45.62955],[47.55,45.65951],[47.52528,45.67835],[47.50042,45.68492],[47.48255,45.68947],[47.4663,45.69687],[47.44708,45.70476],[47.43339,45.71258],[47.43418,45.72105],[47.4471,45.72784],[47.46447,45.73136],[47.47559,45.73501],[47.46673,45.74061],[47.43982,45.74526],[47.4162,45.75043],[47.40429,45.75824],[47.39191,45.76215],[47.37588,45.75596],[47.36761,45.74162],[47.373,45.72498],[47.3841,45.71174],[47.3907,45.70298],[47.3929,45.69475],[47.39829,45.6864],[47.41136,45.68269],[47.42647,45.6851],[47.43657,45.68891],[47.44322,45.68873],[47.44644,45.68123],[47.44673,45.66922],[47.45556,45.66225],[47.48067,45.66248],[47.51183,45.65996],[47.53122,45.64801],[47.53396,45.63154],[47.5328,45.61771],[47.53997,45.60624],[47.55374,45.59322],[47.56507,45.57917],[47.56973,45.56782],[47.56893,45.55992],[47.56396,45.5534],[47.55667,45.54747],[47.54872,45.54336],[47.53829,45.54437],[47.52506,45.55407],[47.51329,45.56997],[47.50473,45.58174],[47.49816,45.5819],[47.49498,45.57404],[47.49752,45.56364],[47.50682,45.54892],[47.52042,45.52993],[47.53127,45.51465],[47.53319,45.50641],[47.52432,45.49802],[47.50986,45.48522],[47.49959,45.47127],[47.49663,45.45732],[47.49552,45.44315],[47.48709,45.43221],[47.46354,45.42685],[47.4296,45.42433],[47.40193,45.41999],[47.39391,45.41311],[47.40795,45.40676],[47.43288,45.40202],[47.45111,45.39695],[47.45609,45.39029],[47.45255,45.38282],[47.44477,45.37616],[47.43565,45.37117],[47.42865,45.36728],[47.42315,45.36114],[47.41376,45.34709],[47.39954,45.32493],[47.38705,45.29805],[47.38018,45.2631],[47.37525,45.22346],[47.36721,45.19657],[47.35405,45.18933],[47.33628,45.19136],[47.31674,45.19104],[47.29951,45.18082],[47.28588,45.1571],[47.27374,45.124],[47.26087,45.09104],[47.24592,45.06123],[47.22918,45.03008],[47.21298,45.00012],[47.1977,44.98092],[47.18204,44.97213],[47.16729,44.96301],[47.15548,44.94971],[47.14607,44.94007],[47.13666,44.9408],[47.12522,44.94834],[47.11276,44.95407],[47.10392,44.94888],[47.10102,44.92256],[47.09792,44.87696],[47.08965,44.83232],[47.08106,44.80421],[47.07527,44.79198],[47.0669,44.79394],[47.05117,44.81055],[47.03217,44.8366],[47.01805,44.8657],[47.00927,44.893],[47.00065,44.90936],[46.99215,44.90776],[46.98889,44.89198],[46.99311,44.87066],[47.0004,44.84994],[47.00249,44.83112],[46.9937,44.81111],[46.97702,44.79029],[46.95943,44.77645],[46.94117,44.77141],[46.91839,44.76582],[46.89291,44.75429],[46.87101,44.73998],[46.85515,44.72542],[46.84099,44.71236],[46.8215,44.70346],[46.79532,44.69492],[46.76851,44.68047],[46.74568,44.6639],[46.72796,44.64748],[46.7165,44.62227],[46.71173,44.59076],[46.71278,44.56843],[46.71673,44.55779],[46.71859,44.5515],[46.71491,44.54739],[46.70615,44.545],[46.6955,44.54195],[46.68685,44.53561],[46.68351,44.52254],[46.68673,44.50025],[46.69402,44.47308],[46.70302,44.4493],[46.71598,44.43106],[46.7346,44.41587],[46.75676,44.40413],[46.78239,44.39787],[46.8106,44.39652],[46.84347,44.39543],[46.89545,44.38801],[46.9631,44.37378],[47.0152,44.35849],[47.04074,44.34216],[47.05491,44.31932],[47.06695,44.29181],[47.07815,44.2681],[47.0904,44.25078],[47.10496,44.2368],[47.12047,44.2257],[47.13504,44.21809],[47.14945,44.21215],[47.16451,44.20741],[47.17902,44.20705],[47.19308,44.21316],[47.2082,44.22097],[47.22521,44.21969],[47.24463,44.19909],[47.26638,44.15731],[47.28962,44.10705],[47.31222,44.06715],[47.33129,44.044],[47.34701,44.02747],[47.36406,44.00233],[47.38518,43.96632],[47.40554,43.93218],[47.41924,43.90736],[47.42793,43.88966],[47.43774,43.87753],[47.44924,43.86891],[47.45614,43.8598],[47.45449,43.84762],[47.44875,43.8342],[47.44741,43.82539],[47.45468,43.82363],[47.46724,43.82413],[47.47971,43.81996],[47.48999,43.80697],[47.49717,43.78881],[47.49766,43.77421],[47.48864,43.76591],[47.47371,43.76012],[47.46009,43.7538],[47.45043,43.74553],[47.44415,43.73285],[47.44323,43.71473],[47.44665,43.69645],[47.44732,43.6844],[47.44218,43.67811],[47.43381,43.67186],[47.42274,43.65883],[47.40845,43.63842],[47.39338,43.62141],[47.38096,43.61641],[47.37262,43.61741],[47.36823,43.61331],[47.36815,43.59991],[47.37253,43.58115],[47.38049,43.56404],[47.39035,43.5515],[47.39869,43.54034],[47.40398,43.52748],[47.41142,43.51608],[47.42615,43.51408],[47.44495,43.52766],[47.4608,43.556],[47.47035,43.59069],[47.47493,43.62077],[47.47804,43.64059],[47.48261,43.65269],[47.48964,43.66251],[47.49735,43.67431],[47.50238,43.69065],[47.50515,43.71011],[47.51064,43.72999],[47.52059,43.75163],[47.53099,43.77694],[47.53802,43.80414],[47.54123,43.8296],[47.54295,43.85012],[47.54834,43.86588],[47.5617,43.88001],[47.58093,43.89228],[47.60219,43.89896],[47.62592,43.89924],[47.65176,43.89474],[47.67186,43.88423],[47.67135,43.86155],[47.64288,43.81622],[47.59811,43.73885],[47.55443,43.63769],[47.52055,43.54193],[47.498,43.47205],[47.48712,43.42299],[47.4864,43.38394],[47.48905,43.35299],[47.48941,43.33012],[47.49025,43.31285],[47.49745,43.30238],[47.51258,43.30359],[47.53237,43.31429],[47.55156,43.32491],[47.56617,43.3293],[47.5754,43.32717],[47.58069,43.3203],[47.58323,43.31105],[47.58278,43.30169],[47.57908,43.29307],[47.5722,43.28322],[47.56082,43.27072],[47.54342,43.25755],[47.52283,43.24498],[47.50428,43.23142],[47.49113,43.21594],[47.48523,43.19972],[47.48435,43.18457],[47.48301,43.17158],[47.48034,43.16008],[47.47942,43.14894],[47.48009,43.13814],[47.47851,43.12771],[47.47205,43.11733],[47.46298,43.10691],[47.45668,43.09258],[47.46018,43.06458],[47.4836,43.02095],[47.52693,42.97707],[47.5697,42.94771],[47.59493,42.93077],[47.61219,42.91599],[47.63979,42.89725],[47.67415,42.87624],[47.69729,42.85776],[47.70605,42.84317],[47.70922,42.82929],[47.71149,42.80947],[47.71381,42.78427],[47.7161,42.76473],[47.71728,42.75444],[47.71666,42.74447],[47.7161,42.7258],[47.72003,42.6974],[47.736,42.66547],[47.77161,42.6354],[47.82262,42.60328],[47.87791,42.55644],[47.9328,42.49356],[47.98395,42.43478],[48.02842,42.39452],[48.07237,42.35851],[48.12776,42.29902],[48.19197,42.21966],[48.24513,42.1569],[48.27848,42.12337],[48.29812,42.10189],[48.30927,42.0813],[48.31998,42.05514],[48.34228,42.01352],[48.3784,41.96215],[48.42018,41.92297],[48.46342,41.90276],[48.50697,41.88877],[48.54419,41.87189],[48.56821,41.85523],[48.58199,41.84389],[48.59752,41.83436],[48.62601,41.8157],[48.67174,41.77833],[48.72497,41.72969],[48.76588,41.69018],[48.79087,41.66246],[48.81813,41.62953],[48.8569,41.58497],[48.8948,41.54352],[48.92124,41.51803],[48.93869,41.50313],[48.95242,41.48886],[48.96581,41.47252],[48.97872,41.45692],[48.98942,41.44604],[49.00057,41.43972],[49.0144,41.43427],[49.02994,41.42356],[49.05,41.39887],[49.07624,41.3602],[49.10196,41.32185],[49.12072,41.29431],[49.13318,41.26947],[49.14294,41.23281],[49.15216,41.18858],[49.16122,41.15595],[49.17048,41.1357],[49.18341,41.10667],[49.21162,41.05499],[49.26483,40.98732],[49.32585,40.92531],[49.36611,40.88661],[49.38763,40.8664],[49.4113,40.85129],[49.44106,40.83907],[49.46796,40.83031],[49.48911,40.82062],[49.50757,40.80872],[49.52315,40.79683],[49.53113,40.78238],[49.52869,40.76083],[49.52013,40.73531],[49.51297,40.71398],[49.51042,40.69962],[49.51205,40.68914],[49.51739,40.67975],[49.52432,40.67132],[49.52964,40.66506],[49.53433,40.65964],[49.54301,40.65184],[49.55726,40.64162],[49.57563,40.63229],[49.59884,40.6261],[49.62561,40.62201],[49.65076,40.61647],[49.67437,40.60627],[49.70099,40.59307],[49.73355,40.58191],[49.77173,40.57396],[49.80865,40.56815],[49.8395,40.56648],[49.87044,40.57112],[49.91044,40.57896],[49.96333,40.58356],[50.01767,40.58228],[50.05187,40.57719],[50.06369,40.57063],[50.06873,40.56306],[50.07717,40.55322],[50.09127,40.54092],[50.11397,40.52825],[50.15123,40.51648],[50.19645,40.50516],[50.23028,40.493],[50.24831,40.47754],[50.26174,40.45871],[50.27754,40.44115],[50.29615,40.42831],[50.31571,40.41732],[50.33353,40.40329],[50.34806,40.38132],[50.35958,40.34648],[50.36907,40.30587],[50.37725,40.27487],[50.38381,40.2546],[50.38626,40.23994],[50.38079,40.237],[50.36638,40.25048],[50.34431,40.27347],[50.31499,40.29795],[50.28235,40.31917],[50.25218,40.33349],[50.22189,40.34184],[50.18755,40.34826],[50.1552,40.35382],[50.13195,40.35672],[50.11652,40.35619],[50.10267,40.35388],[50.08437,40.35159],[50.06032,40.34806],[50.03389,40.34043],[50.00887,40.33121],[49.98896,40.32766],[49.97521,40.33253],[49.96465,40.34154],[49.95386,40.34927],[49.93918,40.35462],[49.91874,40.35929],[49.89495,40.36093],[49.8717,40.35361],[49.85276,40.33644],[49.83622,40.31483],[49.81087,40.29435],[49.76865,40.27669],[49.71245,40.25908],[49.65125,40.23942],[49.59703,40.21957],[49.55692,40.20009],[49.52822,40.18109],[49.50788,40.16489],[49.49646,40.14948],[49.49305,40.13063],[49.49086,40.11056],[49.47852,40.0933],[49.45645,40.0778],[49.44045,40.0611],[49.43928,40.04313],[49.44751,40.02701],[49.45852,40.0152],[49.46915,40.00637],[49.47689,39.99806],[49.47948,39.98991],[49.47565,39.98239],[49.4661,39.97489],[49.45427,39.96752],[49.44395,39.96133],[49.4358,39.95508],[49.42922,39.94663],[49.42518,39.93586],[49.42531,39.92242],[49.42988,39.90574],[49.43606,39.88849],[49.43909,39.87416],[49.43663,39.86332],[49.4303,39.85524],[49.42323,39.84885],[49.41797,39.84242],[49.41581,39.83542],[49.4166,39.82882],[49.41878,39.82288],[49.42027,39.81696],[49.41895,39.8108],[49.41315,39.80374],[49.40443,39.79481],[49.39796,39.785],[49.39645,39.77602],[49.39744,39.76684],[49.40003,39.75483],[49.40709,39.73928],[49.41586,39.72317],[49.41674,39.7102],[49.40487,39.69915],[49.38407,39.6852],[49.36067,39.6665],[49.3397,39.64514],[49.32476,39.62405],[49.31539,39.6046],[49.3071,39.58555],[49.29802,39.56504],[49.29052,39.54309],[49.28707,39.52038],[49.29417,39.49489],[49.32193,39.46263],[49.36292,39.4279],[49.39333,39.4025],[49.40485,39.3894],[49.4059,39.38091],[49.40288,39.36881],[49.40008,39.35193],[49.40024,39.33698],[49.39988,39.32962],[49.39465,39.32997],[49.38638,39.33526],[49.37884,39.34213],[49.3731,39.34675],[49.37036,39.3447],[49.37273,39.33468],[49.38054,39.32064],[49.39151,39.30757],[49.39971,39.2981],[49.39797,39.29406],[49.38611,39.29718],[49.3687,39.30756],[49.34416,39.32217],[49.31116,39.33228],[49.27818,39.32765],[49.25439,39.30247],[49.24165,39.25543],[49.23633,39.20052],[49.23246,39.15986],[49.22609,39.13406],[49.21806,39.11058],[49.21142,39.08536],[49.20657,39.05971],[49.19701,39.03479],[49.17122,39.00941],[49.1289,38.98623],[49.08777,38.97553],[49.06328,38.98017],[49.05498,38.99081],[49.05506,39.00003],[49.06119,39.0075],[49.07739,39.01449],[49.10139,39.02185],[49.12281,39.03149],[49.13632,39.04557],[49.14279,39.06354],[49.14169,39.08217],[49.13026,39.09744],[49.10816,39.10715],[49.08413,39.11559],[49.0691,39.1308],[49.06179,39.1521],[49.05334,39.17026],[49.03811,39.18082],[49.01509,39.18532],[48.99001,39.18529],[48.97192,39.18155],[48.96235,39.17445],[48.95635,39.16466],[48.95163,39.15427],[48.949,39.14485],[48.94781,39.1364],[48.94586,39.12975],[48.94224,39.12615],[48.93814,39.12201],[48.93517,39.10844],[48.93527,39.08326],[48.9397,39.05539],[48.94383,39.02772],[48.93972,38.99338],[48.92783,38.95515],[48.91492,38.92401],[48.90291,38.90207],[48.88755,38.88545],[48.86598,38.87212],[48.84526,38.85817],[48.83523,38.84004],[48.83636,38.81867],[48.8449,38.78511],[48.85684,38.71355],[48.86659,38.60099],[48.87183,38.4909],[48.87365,38.41535],[48.87272,38.3632],[48.87108,38.32159],[48.87272,38.28522],[48.88008,38.24133],[48.89417,38.17506],[48.91412,38.08633],[48.93228,38.00353],[48.94057,37.95253],[48.94237,37.92555],[48.94738,37.90382],[48.96014,37.87916],[48.97545,37.85377],[48.98398,37.83494],[48.98537,37.82194],[48.98798,37.80416],[48.99974,37.77387],[49.02699,37.7309],[49.0733,37.67991],[49.14092,37.62703],[49.23338,37.57579],[49.35916,37.52925],[49.53088,37.4924],[49.71636,37.46966],[49.84322,37.46302],[49.90063,37.46611],[49.93207,37.46722],[49.95252,37.46343],[49.95681,37.46023],[49.95065,37.45959],[49.94838,37.45677],[49.97222,37.44613],[50.03657,37.4276],[50.11936,37.40659],[50.18223,37.3854],[50.21339,37.36149],[50.22569,37.33538],[50.23378,37.30971],[50.2438,37.28567],[50.25612,37.26246],[50.27241,37.23386],[50.29513,37.19662],[50.32648,37.1577],[50.36976,37.12049],[50.42079,37.08254],[50.46459,37.04987],[50.49892,37.02754],[50.54203,37.00581],[50.59538,36.98046],[50.63735,36.96086],[50.66295,36.94719],[50.69234,36.92921],[50.75461,36.89628],[50.86056,36.84389],[50.99334,36.78485],[51.15163,36.73485],[51.34246,36.69333],[51.54173,36.65543],[51.7292,36.62309],[51.90994,36.60621],[52.08735,36.61581],[52.26059,36.64657],[52.43296,36.6813],[52.60639,36.71267],[52.77879,36.74492],[52.95883,36.78294],[53.16001,36.82556],[53.37224,36.86333],[53.58519,36.88838],[53.78572,36.90584],[53.92591,36.92175],[53.98266,36.92822],[53.9799,36.91868],[53.9405,36.9028],[53.88728,36.89064],[53.84476,36.88245],[53.81887,36.87812],[53.79982,36.87837],[53.77994,36.88],[53.7589,36.87877],[53.73559,36.87524],[53.70406,36.87358],[53.66415,36.87405],[53.63211,36.87243],[53.62406,36.86778],[53.63502,36.86355],[53.64587,36.86098],[53.64699,36.85724],[53.64961,36.84834],[53.67537,36.83376],[53.73615,36.81852],[53.8112,36.80701],[53.87061,36.80118],[53.92276,36.80429],[53.97848,36.81605],[54.01718,36.83636],[54.03036,36.87334],[54.03055,36.92146],[54.02391,36.95676],[54.01235,36.97245],[54.00347,36.98331],[54.0033,37.00113],[54.00447,37.02763],[53.99601,37.06266],[53.97815,37.11123],[53.95661,37.1712],[53.93702,37.22794],[53.92399,37.27605],[53.91654,37.32335],[53.90985,37.37936],[53.9007,37.44425],[53.88894,37.50178],[53.87716,37.54211],[53.86639,37.58112],[53.852,37.65625],[53.83286,37.79127],[53.81862,37.94108],[53.81719,38.0385],[53.82611,38.08983],[53.8395,38.13819],[53.85192,38.18985],[53.86026,38.23274],[53.86525,38.27146],[53.86713,38.31608],[53.86537,38.35936],[53.86106,38.38764],[53.85573,38.40243],[53.85101,38.4135],[53.84693,38.42913],[53.84134,38.45633],[53.83522,38.4953],[53.8338,38.54252],[53.83972,38.59394],[53.85291,38.64225],[53.87487,38.68644],[53.90069,38.73001],[53.9183,38.76836],[53.92602,38.79569],[53.93251,38.81462],[53.94058,38.83165],[53.94859,38.84931],[53.95737,38.86639],[53.96742,38.88297],[53.97594,38.8987],[53.97902,38.911],[53.97597,38.92087],[53.96707,38.9317],[53.95153,38.94253],[53.93474,38.95102],[53.92458,38.95759],[53.91994,38.96278],[53.9154,38.96627],[53.909,38.9687],[53.90191,38.97138],[53.89637,38.97546],[53.89268,38.98165],[53.88944,38.98972],[53.88567,38.99958],[53.87961,39.01147],[53.8685,39.02321],[53.84972,39.03134],[53.82514,39.03583],[53.80296,39.03852],[53.78858,39.03909],[53.77975,39.03686],[53.7726,39.0339],[53.76497,39.03459],[53.75602,39.04398],[53.74525,39.06444],[53.73326,39.08833],[53.72319,39.10169],[53.71839,39.09964],[53.71983,39.08841],[53.7253,39.07537],[53.72916,39.06526],[53.72597,39.06164],[53.71623,39.06698],[53.7065,39.08072],[53.70222,39.10002],[53.70186,39.12094],[53.70157,39.13844],[53.70359,39.15055],[53.71039,39.16002],[53.71453,39.16943],[53.71189,39.18239],[53.71086,39.20263],[53.71088,39.22176],[53.70078,39.22574],[53.6835,39.2158],[53.67355,39.19694],[53.67468,39.16305],[53.67551,39.1243],[53.66642,39.10908],[53.65167,39.12043],[53.64035,39.13936],[53.63422,39.15744],[53.62831,39.17387],[53.61906,39.18635],[53.61063,39.19602],[53.60848,39.20729],[53.60932,39.22072],[53.60677,39.23168],[53.60005,39.23435],[53.5907,39.22548],[53.57984,39.21131],[53.57119,39.20704],[53.56941,39.22248],[53.57328,39.25192],[53.57526,39.27907],[53.57408,39.29668],[53.57559,39.31112],[53.57697,39.3226],[53.57207,39.32751],[53.56548,39.33212],[53.56231,39.34048],[53.55822,39.34582],[53.54898,39.34306],[53.53696,39.33705],[53.52352,39.33352],[53.50436,39.33094],[53.47981,39.32637],[53.4594,39.32271],[53.44873,39.3251],[53.44349,39.3311],[53.43787,39.33237],[53.42962,39.32657],[53.41845,39.31846],[53.40594,39.313],[53.39764,39.31351],[53.39702,39.32087],[53.39817,39.33027],[53.39361,39.33541],[53.38493,39.3362],[53.37769,39.33562],[53.37256,39.33405],[53.36729,39.33178],[53.36166,39.33123],[53.35636,39.33409],[53.35109,39.33836],[53.34358,39.33991],[53.33037,39.33707],[53.31326,39.33309],[53.30062,39.33289],[53.29695,39.33736],[53.29704,39.34302],[53.294,39.34687],[53.28628,39.3488],[53.27544,39.35052],[53.26293,39.35386],[53.24969,39.35837],[53.23345,39.36083],[53.20944,39.35853],[53.18318,39.35144],[53.17199,39.34118],[53.1792,39.32967],[53.18684,39.31724],[53.18392,39.30289],[53.1773,39.28736],[53.17476,39.27013],[53.1772,39.24722],[53.18067,39.21944],[53.17959,39.19565],[53.17184,39.19178],[53.15873,39.22452],[53.14136,39.28368],[53.12042,39.33706],[53.10132,39.373],[53.09317,39.39811],[53.09812,39.41636],[53.11135,39.43154],[53.12649,39.44626],[53.1373,39.45973],[53.14395,39.47181],[53.15251,39.48406],[53.16681,39.50203],[53.18775,39.53526],[53.21471,39.58246],[53.24527,39.62572],[53.27451,39.64973],[53.29234,39.65431],[53.29089,39.64664],[53.27548,39.63182],[53.25827,39.61322],[53.2462,39.59437],[53.23788,39.57761],[53.22912,39.56266],[53.22304,39.54691],[53.23512,39.5328],[53.28021,39.52779],[53.34795,39.53061],[53.40698,39.53182],[53.44094,39.52675],[53.45786,39.51643],[53.46886,39.50323],[53.47954,39.4906],[53.49437,39.48148],[53.51644,39.47588],[53.5422,39.47184],[53.56316,39.46933],[53.57538,39.47109],[53.58042,39.47793],[53.58,39.48647],[53.57577,39.49333],[53.57089,39.49938],[53.56996,39.50791],[53.57558,39.51633],[53.58615,39.51655],[53.59974,39.50793],[53.61693,39.50023],[53.63826,39.50187],[53.6608,39.51043],[53.6801,39.51644],[53.6962,39.51542],[53.71147,39.51171],[53.72457,39.51199],[53.73165,39.51828],[53.73016,39.52721],[53.72103,39.53534],[53.70533,39.54236],[53.68207,39.54978],[53.65716,39.55852],[53.6439,39.56734],[53.64572,39.57507],[53.65181,39.58339],[53.65174,39.59402],[53.64396,39.60524],[53.62998,39.61339],[53.60922,39.61696],[53.58687,39.61975],[53.57318,39.62742],[53.56808,39.63987],[53.56313,39.65256],[53.55481,39.66331],[53.54597,39.66988],[53.54082,39.66611],[53.53962,39.65195],[53.5359,39.64101],[53.52197,39.64735],[53.49793,39.66812],[53.47254,39.6874],[53.45619,39.6944],[53.45213,39.68983],[53.45242,39.68166],[53.44776,39.6785],[53.43946,39.68003],[53.43505,39.67771],[53.43813,39.66651],[53.44301,39.65173],[53.43935,39.64607],[53.42852,39.66129],[53.4225,39.69703],[53.42189,39.7341],[53.41696,39.75277],[53.40584,39.75612],[53.39396,39.75776],[53.38804,39.7626],[53.39681,39.7733],[53.42437,39.79597],[53.4602,39.82805],[53.48566,39.85547],[53.49331,39.87102],[53.49156,39.87919],[53.4911,39.88427],[53.49623,39.8875],[53.50711,39.88984],[53.5211,39.89258],[53.53193,39.89709],[53.53472,39.90305],[53.53255,39.90894],[53.53333,39.91543],[53.54119,39.92446],[53.55372,39.93636],[53.56525,39.94954],[53.57095,39.95983],[53.57054,39.96386],[53.56757,39.96352],[53.56332,39.96294],[53.5554,39.96507],[53.54166,39.96973],[53.52148,39.9735],[53.49716,39.9763],[53.47365,39.98219],[53.45356,39.99133],[53.43597,39.99929],[53.41926,40.00329],[53.40266,40.0034],[53.38466,39.9982],[53.362,39.98501],[53.33669,39.96771],[53.31674,39.95499],[53.30381,39.94813],[53.29314,39.94332],[53.28247,39.94112],[53.27111,39.94329],[53.25892,39.94801],[53.24389,39.95481],[53.21925,39.96711],[53.18684,39.98123],[53.15957,39.98629],[53.13777,39.98121],[53.10965,39.97451],[53.07986,39.97247],[53.0654,39.97609],[53.06714,39.9824],[53.06946,39.98703],[53.05508,39.98623],[53.02011,39.98094],[52.97986,39.97934],[52.94893,39.98831],[52.92823,40.00291],[52.91355,40.01092],[52.90371,40.00743],[52.90113,39.99666],[52.90682,39.98257],[52.91672,39.96459],[52.92526,39.93954],[52.93232,39.90982],[52.94286,39.88361],[52.95947,39.86171],[52.98198,39.83635],[53.00893,39.80642],[53.03325,39.78205],[53.04431,39.77044],[53.03787,39.76965],[53.02591,39.77175],[53.02591,39.76681],[53.03324,39.75624],[53.0294,39.7535],[53.01248,39.76628],[52.99183,39.79168],[52.97023,39.82055],[52.94682,39.84316],[52.92494,39.8596],[52.90965,39.87763],[52.90051,39.90088],[52.88716,39.92772],[52.85464,39.95876],[52.80582,39.99416],[52.7656,40.02841],[52.74901,40.05984],[52.74927,40.09028],[52.75576,40.11624],[52.76195,40.13616],[52.76194,40.15458],[52.75376,40.17468],[52.74447,40.19389],[52.73906,40.20869],[52.73145,40.22256],[52.71868,40.24373],[52.7101,40.28344],[52.71561,40.35367],[52.73316,40.44043],[52.75635,40.51031],[52.78709,40.56027],[52.82398,40.60775],[52.85249,40.65166],[52.86133,40.68175],[52.85346,40.69702],[52.8405,40.70482],[52.83322,40.71268],[52.8336,40.72312],[52.83645,40.73392],[52.83787,40.74151],[52.8404,40.74605],[52.84811,40.74995],[52.85887,40.75376],[52.86706,40.75843],[52.87033,40.76588],[52.86974,40.77525],[52.8688,40.78803],[52.87484,40.81622],[52.89257,40.86713],[52.91354,40.92763],[52.92388,40.98422],[52.92326,41.03321],[52.92345,41.06521],[52.93214,41.0739],[52.94652,41.06859],[52.95875,41.05961],[52.96424,41.04922],[52.96414,41.03788],[52.96267,41.02633],[52.96642,41.01184],[52.98115,40.99005],[53.00273,40.9622],[53.02056,40.93349],[53.03301,40.90734],[53.04661,40.88646],[53.0631,40.87286],[53.0799,40.86626],[53.09618,40.86502],[53.10928,40.86606],[53.11268,40.86469],[53.10305,40.85868],[53.08678,40.8502],[53.0753,40.84086],[53.07399,40.83068],[53.08072,40.82087],[53.09105,40.81212],[53.10012,40.80358],[53.10479,40.79422],[53.10678,40.78421],[53.11275,40.77541],[53.12982,40.76966],[53.15606,40.76764],[53.18396,40.77149],[53.21264,40.78415],[53.23973,40.79959],[53.25434,40.80359],[53.25459,40.79295],[53.25682,40.77954],[53.27754,40.77339],[53.31039,40.77532],[53.33401,40.78242],[53.34214,40.79235],[53.34492,40.80349],[53.35038,40.81484],[53.35959,40.82468],[53.36984,40.82979],[53.3777,40.82831],[53.38074,40.82073],[53.38016,40.80898],[53.3812,40.79492],[53.38791,40.77944],[53.40084,40.76474],[53.4179,40.75414],[53.43449,40.74788],[53.44785,40.74299],[53.45965,40.73825],[53.47147,40.7357],[53.48295,40.73684],[53.49583,40.74148],[53.51392,40.74955],[53.53542,40.76104],[53.55203,40.77741],[53.5598,40.80093],[53.5639,40.82936],[53.57153,40.85694],[53.58325,40.87821],[53.59466,40.88907],[53.60454,40.89102],[53.61415,40.88911],[53.62355,40.8858],[53.63137,40.88152],[53.63688,40.87652],[53.64242,40.87159],[53.64972,40.8676],[53.65581,40.86378],[53.65765,40.85875],[53.65609,40.85306],[53.65403,40.84723],[53.65414,40.83912],[53.65754,40.82832],[53.66279,40.81782],[53.66586,40.80819],[53.66377,40.79846],[53.65919,40.78931],[53.65851,40.77792],[53.66546,40.75865],[53.67774,40.73412],[53.69028,40.7145],[53.70095,40.70447],[53.71055,40.70009],[53.7187,40.69562],[53.72245,40.68776],[53.71976,40.67601],[53.71422,40.66159],[53.71518,40.64617],[53.73128,40.63342],[53.76422,40.62765],[53.80751,40.62771],[53.84842,40.63101],[53.87891,40.63931],[53.904,40.6523],[53.92783,40.66409],[53.94694,40.66926],[53.96391,40.66728],[53.98498,40.66232],[54.00852,40.66],[54.031,40.66264],[54.05302,40.66836],[54.07316,40.67493],[54.08687,40.68201],[54.093,40.68926],[54.0919,40.69541],[54.08247,40.70065],[54.07221,40.70617],[54.07843,40.71077],[54.10579,40.71399],[54.14208,40.71836],[54.17963,40.72348],[54.21251,40.72562],[54.22958,40.72242],[54.23023,40.71326],[54.22503,40.70113],[54.22345,40.69121],[54.23994,40.68399],[54.28848,40.67839],[54.34689,40.67709],[54.37502,40.68161],[54.37771,40.68963],[54.38692,40.69886],[54.40092,40.70807],[54.39131,40.71522],[54.35647,40.71948],[54.32608,40.72458],[54.31379,40.73539],[54.30859,40.75243],[54.30095,40.77373],[54.29043,40.79743],[54.28045,40.81978],[54.27353,40.83653],[54.27049,40.84705],[54.27105,40.85388],[54.27331,40.85958],[54.27448,40.8653],[54.27218,40.86995],[54.26602,40.87222],[54.25828,40.87391],[54.25232,40.87791],[54.25036,40.88355],[54.25278,40.88777],[54.25863,40.88962],[54.26744,40.89201],[54.28039,40.89911],[54.29701,40.91031],[54.31505,40.91908],[54.33745,40.91873],[54.36953,40.90701],[54.40658,40.89005],[54.43764,40.87621],[54.45707,40.86459],[54.46263,40.85065],[54.45819,40.83499],[54.46444,40.82221],[54.5035,40.81825],[54.56425,40.8238],[54.61337,40.83322],[54.6422,40.84458],[54.66604,40.85916],[54.69197,40.87604],[54.71728,40.89705],[54.73917,40.92269],[54.75358,40.94636],[54.7583,40.9649],[54.75606,40.98016],[54.75018,40.99243]]]}}]}