{"type":"FeatureCollection","meta":{"year":2015,"level_m":-27.85,"reference_year":2015,"reference_level_m":-27.85,"status":"semi","model":"cross-shore translation: retreat = Δlevel / tan(β)","source_id":"model","projected":false},"features":[{"type":"Feature","properties":{"year":2015,"level_m":-27.85},"geometry":{"type":"Polygon","coordinates":[[[54.73764,41.00486],[54.71902,41.02499],[54.69783,41.04751],[54.68518,41.06226],[54.68728,41.06721],[54.70363,41.0645],[54.72856,41.05579],[54.7492,41.04788],[54.7535,41.04846],[54.74445,41.05618],[54.73351,41.06527],[54.72585,41.07329],[54.7214,41.07997],[54.71992,41.08584],[54.72123,41.09161],[54.7246,41.09645],[54.72746,41.09985],[54.72439,41.10454],[54.71065,41.11212],[54.6877,41.11982],[54.663,41.12761],[54.64282,41.14127],[54.61356,41.16944],[54.54326,41.2195],[54.43631,41.28041],[54.34438,41.32651],[54.29126,41.35294],[54.25475,41.37342],[54.22155,41.39175],[54.19797,41.40515],[54.18396,41.41699],[54.1713,41.43192],[54.15567,41.44754],[54.1362,41.45889],[54.11349,41.46711],[54.09206,41.47659],[54.07473,41.48993],[54.05921,41.50951],[54.0446,41.53713],[54.0336,41.57429],[54.0275,41.62361],[54.02343,41.67917],[54.01707,41.72718],[54.00433,41.76604],[53.98266,41.80517],[53.9578,41.84326],[53.94018,41.86951],[53.93019,41.88174],[53.92127,41.88677],[53.91193,41.89052],[53.90478,41.89626],[53.90172,41.90476],[53.90284,41.9144],[53.90605,41.9239],[53.90826,41.93358],[53.9077,41.9449],[53.90615,41.95898],[53.90743,41.97528],[53.91178,41.9921],[53.91516,42.00833],[53.91504,42.02504],[53.91164,42.04323],[53.90395,42.06197],[53.88763,42.08121],[53.85812,42.10141],[53.81672,42.11892],[53.7705,42.12899],[53.70877,42.13162],[53.59841,42.12549],[53.45413,42.10891],[53.34304,42.09102],[53.27903,42.08355],[53.22492,42.08692],[53.17065,42.0907],[53.12529,42.08364],[53.08501,42.06322],[53.03753,42.0316],[52.97859,41.98336],[52.91335,41.90741],[52.85268,41.81945],[52.81172,41.75969],[52.79234,41.73535],[52.78247,41.72024],[52.77563,41.70056],[52.77295,41.68059],[52.77751,41.66955],[52.79131,41.6733],[52.81308,41.68623],[52.84113,41.69554],[52.8721,41.69503],[52.89731,41.68684],[52.90976,41.67411],[52.90986,41.65888],[52.90366,41.64355],[52.89883,41.6298],[52.89856,41.61643],[52.90037,41.60164],[52.89686,41.5782],[52.87905,41.53231],[52.85129,41.47094],[52.82947,41.42208],[52.81917,41.39533],[52.81629,41.3794],[52.81936,41.36276],[52.82709,41.33604],[52.83602,41.29686],[52.84685,41.252],[52.86542,41.20555],[52.88852,41.16053],[52.90161,41.12507],[52.89896,41.09896],[52.88939,41.07611],[52.88141,41.05975],[52.87496,41.05544],[52.86679,41.06074],[52.85746,41.06956],[52.85107,41.08015],[52.85001,41.09582],[52.852,41.1176],[52.85259,41.14105],[52.84938,41.16255],[52.84301,41.18142],[52.83526,41.19655],[52.82722,41.20746],[52.81976,41.21591],[52.81467,41.22472],[52.81281,41.23626],[52.81157,41.25277],[52.80635,41.27727],[52.79693,41.3059],[52.78661,41.32934],[52.7751,41.34868],[52.76107,41.36798],[52.74649,41.38215],[52.73414,41.38956],[52.72547,41.39612],[52.72044,41.40527],[52.71751,41.41571],[52.71375,41.42531],[52.70623,41.43406],[52.69401,41.44233],[52.67806,41.44899],[52.65972,41.45571],[52.63903,41.46783],[52.61639,41.48498],[52.59501,41.49986],[52.57804,41.51105],[52.56706,41.52349],[52.56398,41.53806],[52.56928,41.55331],[52.57868,41.56882],[52.58553,41.58336],[52.58788,41.59741],[52.58871,41.61145],[52.59063,41.62331],[52.59313,41.63231],[52.59382,41.6394],[52.59164,41.6449],[52.58778,41.64888],[52.58353,41.6528],[52.57881,41.65979],[52.57309,41.67026],[52.56669,41.67999],[52.55939,41.68585],[52.55008,41.68833],[52.53936,41.69003],[52.52944,41.69398],[52.5207,41.70032],[52.51094,41.70723],[52.49873,41.71481],[52.48499,41.72285],[52.46996,41.73011],[52.45437,41.73853],[52.44303,41.75165],[52.44201,41.77304],[52.45382,41.80789],[52.47188,41.85411],[52.48308,41.89925],[52.4819,41.93443],[52.47313,41.95912],[52.46229,41.97519],[52.45185,41.98538],[52.44275,41.99336],[52.43629,42.00381],[52.43412,42.02033],[52.43485,42.04002],[52.43286,42.05704],[52.4244,42.0724],[52.41541,42.08958],[52.41466,42.10775],[52.42073,42.12606],[52.42691,42.14477],[52.43216,42.16238],[52.43991,42.17655],[52.45228,42.18653],[52.46998,42.19803],[52.49702,42.22406],[52.53449,42.26714],[52.56997,42.30854],[52.59038,42.3329],[52.59772,42.3462],[52.59995,42.35945],[52.60086,42.3742],[52.60387,42.38775],[52.61338,42.40094],[52.62778,42.41479],[52.63945,42.42753],[52.64509,42.43919],[52.64856,42.45283],[52.65473,42.473],[52.66411,42.50253],[52.67137,42.53818],[52.6701,42.57557],[52.65826,42.61332],[52.63793,42.64816],[52.61206,42.67628],[52.58667,42.69916],[52.57101,42.71982],[52.56843,42.73589],[52.57387,42.74149],[52.58176,42.7342],[52.591,42.71844],[52.60276,42.70236],[52.61749,42.69068],[52.63538,42.68118],[52.65339,42.67092],[52.66515,42.66129],[52.66998,42.65413],[52.67354,42.64742],[52.68016,42.63531],[52.68993,42.61634],[52.70058,42.59911],[52.71098,42.59275],[52.72143,42.59931],[52.73132,42.6157],[52.73836,42.63794],[52.73895,42.66539],[52.72909,42.69661],[52.7064,42.724],[52.67429,42.74238],[52.64176,42.75708],[52.60694,42.77589],[52.55186,42.79855],[52.47449,42.81795],[52.40396,42.82836],[52.36351,42.83055],[52.34534,42.82845],[52.33341,42.82429],[52.32288,42.81816],[52.31391,42.80947],[52.30485,42.8004],[52.28923,42.80009],[52.25844,42.81894],[52.21573,42.85119],[52.17211,42.87611],[52.12384,42.88242],[52.06397,42.87446],[52.00515,42.85987],[51.96246,42.84643],[51.93202,42.84343],[51.90102,42.85745],[51.86771,42.88412],[51.8401,42.91232],[51.82025,42.93668],[51.80502,42.95839],[51.79288,42.98111],[51.78002,43.0074],[51.76024,43.03617],[51.7351,43.06352],[51.71355,43.08323],[51.6984,43.09276],[51.68661,43.09731],[51.67797,43.10313],[51.67417,43.11162],[51.6752,43.12095],[51.67849,43.13097],[51.67978,43.14385],[51.67565,43.1601],[51.66398,43.17507],[51.64183,43.18218],[51.60865,43.18124],[51.57316,43.17778],[51.54732,43.17401],[51.53343,43.16893],[51.52528,43.16314],[51.5173,43.1585],[51.50677,43.15694],[51.4925,43.15944],[51.47113,43.16319],[51.43099,43.16303],[51.36789,43.15946],[51.30642,43.15999],[51.2759,43.17372],[51.27792,43.20786],[51.29457,43.26352],[51.30911,43.33521],[51.31333,43.40795],[51.30568,43.46297],[51.29179,43.49628],[51.28133,43.51627],[51.27702,43.53124],[51.27422,43.54575],[51.26658,43.56003],[51.24976,43.57508],[51.22875,43.59203],[51.21359,43.60814],[51.2051,43.61925],[51.19713,43.6235],[51.18703,43.62311],[51.17587,43.62225],[51.16488,43.6234],[51.15302,43.6285],[51.13262,43.64802],[51.09506,43.69668],[51.05074,43.76205],[51.02199,43.81034],[51.01179,43.83297],[51.00724,43.84465],[51.00182,43.85354],[50.99634,43.86104],[50.99268,43.86931],[50.99151,43.88086],[50.99107,43.89486],[50.98714,43.90842],[50.97602,43.92171],[50.9606,43.93571],[50.94722,43.95021],[50.93615,43.96604],[50.92438,43.98308],[50.91244,43.99827],[50.90083,44.00882],[50.88765,44.01536],[50.8735,44.02093],[50.86227,44.02824],[50.85636,44.03758],[50.85549,44.04752],[50.85733,44.0623],[50.85831,44.09209],[50.85644,44.13334],[50.85105,44.16832],[50.83871,44.19238],[50.81205,44.21429],[50.74695,44.2396],[50.61263,44.26979],[50.44426,44.30021],[50.32721,44.32281],[50.2791,44.33808],[50.25758,44.35291],[50.24257,44.37225],[50.2357,44.39846],[50.23498,44.42852],[50.23509,44.45448],[50.23415,44.47281],[50.23229,44.48827],[50.22872,44.50831],[50.22608,44.53493],[50.22928,44.55944],[50.23944,44.57032],[50.25321,44.57119],[50.26622,44.57793],[50.27611,44.59401],[50.28366,44.60963],[50.28988,44.62109],[50.29406,44.63202],[50.29712,44.64359],[50.30228,44.65326],[50.31054,44.65831],[50.32004,44.65781],[50.33895,44.65244],[50.38828,44.64319],[50.4656,44.63431],[50.53686,44.63213],[50.58304,44.63478],[50.61059,44.63382],[50.63294,44.62789],[50.66571,44.62201],[50.70755,44.61704],[50.73962,44.61179],[50.75639,44.60932],[50.76646,44.61259],[50.77394,44.61968],[50.77983,44.62665],[50.78928,44.6312],[50.80974,44.6328],[50.84011,44.63143],[50.87092,44.62614],[50.89941,44.61433],[50.9279,44.59605],[50.95337,44.57851],[50.97348,44.56921],[50.98987,44.56644],[51.00185,44.56363],[51.00723,44.55833],[51.00594,44.55253],[51.00134,44.5473],[51.00129,44.54022],[51.01609,44.52834],[51.05143,44.51215],[51.09842,44.49674],[51.14031,44.48824],[51.1725,44.48779],[51.2019,44.49437],[51.23319,44.50893],[51.2614,44.52692],[51.27764,44.5393],[51.28336,44.5449],[51.28712,44.54841],[51.29369,44.55125],[51.30515,44.5527],[51.32191,44.55357],[51.34194,44.55547],[51.36093,44.55603],[51.37438,44.54912],[51.3885,44.53645],[51.4196,44.52724],[51.47011,44.52208],[51.52056,44.51714],[51.55305,44.51693],[51.56573,44.52498],[51.56409,44.53719],[51.55087,44.55],[51.52388,44.56508],[51.48513,44.58384],[51.4451,44.60015],[51.40744,44.60598],[51.3673,44.60396],[51.32673,44.60878],[51.29138,44.63425],[51.26081,44.67532],[51.22842,44.71416],[51.1872,44.74434],[51.14435,44.76791],[51.1162,44.78328],[51.10189,44.79129],[51.08701,44.79622],[51.06829,44.80028],[51.05309,44.80469],[51.03983,44.81191],[51.01755,44.82511],[50.98849,44.8441],[50.96856,44.8651],[50.96395,44.8852],[50.96927,44.9019],[50.97874,44.91303],[50.98729,44.92044],[50.99187,44.92772],[50.99207,44.93554],[50.98758,44.94232],[50.97844,44.94698],[50.96707,44.95044],[50.95799,44.95585],[50.95629,44.96536],[50.96538,44.97712],[50.98392,44.98732],[51.00666,44.99368],[51.02913,44.99621],[51.04898,44.99706],[51.06486,44.99952],[51.07711,45.00522],[51.08744,45.01367],[51.0994,45.02406],[51.11851,45.03641],[51.14517,45.04938],[51.1722,45.05874],[51.1946,45.06044],[51.21373,45.05369],[51.23239,45.04182],[51.25131,45.03205],[51.26726,45.03122],[51.27461,45.04083],[51.27126,45.05702],[51.2613,45.07421],[51.25164,45.08897],[51.24735,45.10137],[51.24895,45.11288],[51.25307,45.12378],[51.25548,45.13379],[51.25394,45.1437],[51.25017,45.15391],[51.249,45.1646],[51.25497,45.1783],[51.2689,45.19765],[51.28583,45.22001],[51.30435,45.2439],[51.33392,45.27577],[51.37212,45.31445],[51.39928,45.34708],[51.41071,45.36837],[51.41966,45.37773],[51.43578,45.3713],[51.46218,45.35448],[51.49924,45.34143],[51.54338,45.33972],[51.58727,45.34826],[51.62408,45.36319],[51.65111,45.37799],[51.67061,45.38665],[51.68661,45.39084],[51.70091,45.3978],[51.71404,45.41122],[51.72714,45.42824],[51.74132,45.44282],[51.75607,45.44909],[51.76938,45.4449],[51.77988,45.4335],[51.79251,45.41984],[51.81884,45.40725],[51.85801,45.39673],[51.89355,45.38659],[51.91881,45.37682],[51.94006,45.3724],[51.96235,45.37682],[51.98615,45.38581],[52.01053,45.39138],[52.03723,45.39035],[52.08411,45.38776],[52.18388,45.39091],[52.3231,45.39858],[52.43908,45.40369],[52.519,45.40099],[52.60619,45.38552],[52.71392,45.36022],[52.81049,45.33737],[52.87666,45.32345],[52.92941,45.31769],[52.9834,45.31609],[53.03318,45.3124],[53.07362,45.30622],[53.10616,45.30393],[53.13558,45.30912],[53.16425,45.31801],[53.18704,45.32531],[53.20114,45.33069],[53.21159,45.33536],[53.22346,45.33746],[53.23599,45.33656],[53.24577,45.33599],[53.25313,45.33842],[53.25979,45.34396],[53.26325,45.35173],[53.2537,45.36099],[53.22017,45.3712],[53.17378,45.38117],[53.14143,45.38943],[53.1283,45.39594],[53.11942,45.40131],[53.10321,45.406],[53.06956,45.41368],[53.01106,45.42973],[52.94367,45.45035],[52.89657,45.46566],[52.87398,45.47557],[52.8608,45.48489],[52.84828,45.49258],[52.82962,45.49813],[52.79984,45.50514],[52.76788,45.51517],[52.74798,45.52637],[52.74085,45.53692],[52.73765,45.54621],[52.7355,45.55469],[52.73669,45.5634],[52.73992,45.57229],[52.74142,45.5806],[52.74062,45.58956],[52.74003,45.60234],[52.74211,45.6193],[52.74853,45.63591],[52.76006,45.64799],[52.77514,45.65672],[52.79062,45.66812],[52.80675,45.6891],[52.82749,45.72051],[52.8516,45.75238],[52.87274,45.77342],[52.89009,45.78377],[52.90748,45.79196],[52.92714,45.80571],[52.94834,45.82713],[52.96819,45.85341],[52.98651,45.88062],[53.00578,45.90469],[53.02428,45.92288],[53.03758,45.93639],[53.04606,45.94942],[53.05417,45.96483],[53.06481,45.98268],[53.07591,46.00192],[53.08224,46.01934],[53.08264,46.03116],[53.08087,46.03899],[53.08158,46.04894],[53.08867,46.06384],[53.10071,46.08122],[53.1117,46.10148],[53.12112,46.1354],[53.13353,46.19286],[53.14526,46.26512],[53.14317,46.33333],[53.11984,46.38834],[53.08443,46.42998],[53.05947,46.45526],[53.06046,46.46092],[53.07844,46.45446],[53.0932,46.44964],[53.09478,46.45289],[53.08702,46.46282],[53.07956,46.47717],[53.07661,46.49272],[53.07245,46.50252],[53.06012,46.50113],[53.04055,46.49226],[53.02021,46.48638],[53.00615,46.49147],[53.00435,46.50916],[53.01529,46.53406],[53.03106,46.55264],[53.04434,46.55542],[53.05673,46.55008],[53.07104,46.54924],[53.08448,46.55769],[53.09414,46.57564],[53.10136,46.59659],[53.10886,46.60822],[53.11722,46.60938],[53.12563,46.61209],[53.13399,46.62144],[53.1436,46.63094],[53.15621,46.63534],[53.17079,46.63607],[53.18377,46.637],[53.1933,46.64025],[53.19978,46.64828],[53.2028,46.66536],[53.19846,46.68984],[53.1824,46.71194],[53.15692,46.72526],[53.13079,46.73272],[53.11216,46.74166],[53.10236,46.76082],[53.0947,46.79581],[53.08303,46.83835],[53.0699,46.87131],[53.05761,46.88835],[53.04038,46.89461],[53.01656,46.89657],[52.99207,46.90207],[52.96779,46.91752],[52.94105,46.93808],[52.90741,46.95125],[52.85771,46.95281],[52.79003,46.94985],[52.71373,46.94915],[52.64462,46.95148],[52.59696,46.95713],[52.56702,46.96814],[52.53948,46.98212],[52.50602,46.99291],[52.47028,46.99746],[52.44352,46.99584],[52.4302,46.98806],[52.42484,46.97461],[52.41939,46.95682],[52.40529,46.93539],[52.37721,46.91224],[52.33389,46.89184],[52.28236,46.87873],[52.23825,46.8758],[52.20931,46.87931],[52.19254,46.87985],[52.18514,46.87378],[52.18643,46.86525],[52.19606,46.85813],[52.21025,46.85259],[52.22243,46.84718],[52.23056,46.84041],[52.23665,46.83153],[52.24091,46.82157],[52.23411,46.81356],[52.19963,46.81086],[52.14411,46.81395],[52.10006,46.8198],[52.08052,46.82556],[52.07325,46.83158],[52.0692,46.83911],[52.06544,46.84656],[52.05782,46.85321],[52.04305,46.86254],[52.0245,46.87455],[52.00992,46.88473],[52.00253,46.89287],[52.00146,46.90128],[52.00586,46.90968],[52.01301,46.9179],[52.01695,46.92654],[52.0122,46.93321],[51.9986,46.9312],[51.9804,46.9165],[51.96021,46.89688],[51.93675,46.88486],[51.90908,46.88347],[51.88384,46.88952],[51.87356,46.90191],[51.87879,46.91717],[51.88213,46.92806],[51.86974,46.9302],[51.84363,46.92424],[51.81323,46.91594],[51.78635,46.91305],[51.76444,46.91796],[51.74394,46.92849],[51.72113,46.94311],[51.69933,46.96206],[51.6886,46.98653],[51.68907,47.01418],[51.68752,47.03759],[51.67564,47.05115],[51.65729,47.05335],[51.64028,47.04462],[51.62842,47.02808],[51.61912,47.00955],[51.6074,46.9966],[51.59081,46.9966],[51.57024,47.01124],[51.54802,47.03249],[51.52299,47.04982],[51.48772,47.06127],[51.43407,47.07195],[51.36073,47.08582],[51.28275,47.10141],[51.22261,47.11146],[51.18102,47.10921],[51.13709,47.09616],[51.07534,47.07941],[51.00671,47.06312],[50.95587,47.04701],[50.92676,47.03229],[50.90672,47.02448],[50.88875,47.02635],[50.87216,47.03285],[50.85844,47.03664],[50.84868,47.03487],[50.84305,47.02952],[50.8412,47.02338],[50.83572,47.0117],[50.81345,46.98284],[50.77725,46.94372],[50.74805,46.92108],[50.737,46.92345],[50.73978,46.93736],[50.74803,46.95254],[50.75258,46.96446],[50.74742,46.96842],[50.73103,46.96159],[50.70606,46.94793],[50.67878,46.93646],[50.65409,46.93216],[50.63407,46.93169],[50.62006,46.92542],[50.61151,46.9058],[50.60494,46.87826],[50.59629,46.85499],[50.58389,46.84072],[50.57071,46.83537],[50.56447,46.83987],[50.56847,46.85191],[50.57397,46.86536],[50.56903,46.87484],[50.55157,46.87788],[50.53049,46.87543],[50.51449,46.87076],[50.50355,46.86742],[50.49288,46.8688],[50.47821,46.87634],[50.46035,46.88647],[50.44543,46.89353],[50.43622,46.89592],[50.42995,46.89478],[50.42206,46.8867],[50.40795,46.86498],[50.38947,46.83593],[50.37608,46.8203],[50.37149,46.82651],[50.36861,46.83944],[50.36209,46.84239],[50.35404,46.83466],[50.34685,46.82425],[50.33926,46.81628],[50.32922,46.81166],[50.31743,46.80885],[50.30711,46.80583],[50.29739,46.79882],[50.28143,46.78108],[50.2576,46.75501],[50.23448,46.73588],[50.2204,46.73229],[50.21655,46.73918],[50.21817,46.74939],[50.21779,46.75819],[50.21011,46.76189],[50.18954,46.75517],[50.14974,46.73109],[50.09933,46.69349],[50.05884,46.65949],[50.0325,46.64012],[50.00882,46.63268],[49.98462,46.6303],[49.96532,46.6272],[49.95135,46.62023],[49.9378,46.61046],[49.92055,46.60014],[49.90057,46.58982],[49.88183,46.58144],[49.86361,46.57767],[49.84497,46.57515],[49.83064,46.56759],[49.8214,46.55597],[49.81061,46.54863],[49.79583,46.55081],[49.78177,46.55826],[49.77141,46.56202],[49.76446,46.55682],[49.75985,46.54587],[49.75409,46.53876],[49.74347,46.54163],[49.72903,46.55064],[49.71546,46.55728],[49.70655,46.55617],[49.7031,46.54658],[49.69879,46.53674],[49.68171,46.54182],[49.65319,46.5602],[49.63088,46.56873],[49.62256,46.55597],[49.61825,46.53643],[49.60977,46.52479],[49.59902,46.51809],[49.58907,46.51148],[49.57946,46.5108],[49.56618,46.52039],[49.54261,46.53529],[49.51148,46.54952],[49.48644,46.56237],[49.47407,46.57356],[49.4702,46.57615],[49.47104,46.56549],[49.47632,46.54826],[49.48538,46.53075],[49.49412,46.51464],[49.4965,46.50418],[49.48987,46.50176],[49.47803,46.50388],[49.46713,46.50707],[49.46068,46.51145],[49.45918,46.51789],[49.46026,46.52527],[49.45932,46.53232],[49.45271,46.53969],[49.44163,46.54704],[49.43142,46.55083],[49.42528,46.54917],[49.42053,46.54504],[49.4094,46.54326],[49.38643,46.54677],[49.35626,46.55605],[49.32983,46.56745],[49.31927,46.56938],[49.33318,46.55064],[49.36126,46.51841],[49.37676,46.4934],[49.36788,46.48461],[49.34814,46.48514],[49.33194,46.48965],[49.32014,46.49878],[49.30858,46.51049],[49.29597,46.51937],[49.28606,46.52158],[49.28471,46.51628],[49.29079,46.50405],[49.29915,46.48724],[49.31195,46.46958],[49.33293,46.45229],[49.35493,46.43555],[49.36779,46.42145],[49.3712,46.41015],[49.36771,46.40157],[49.3543,46.40044],[49.33189,46.40939],[49.30953,46.42356],[49.29245,46.4381],[49.27849,46.45138],[49.26409,46.46161],[49.24832,46.46718],[49.23685,46.46778],[49.23582,46.46405],[49.24168,46.45699],[49.2474,46.44708],[49.2535,46.4344],[49.26495,46.41931],[49.27831,46.40477],[49.28289,46.39563],[49.27201,46.39421],[49.24352,46.39975],[49.20658,46.40748],[49.18051,46.41056],[49.17178,46.40709],[49.17321,46.40041],[49.17971,46.3944],[49.18941,46.3903],[49.20094,46.3855],[49.21208,46.37593],[49.21985,46.36131],[49.22379,46.34638],[49.22573,46.33576],[49.22902,46.32809],[49.24053,46.31631],[49.26299,46.29761],[49.28626,46.27837],[49.29746,46.26425],[49.29402,46.25594],[49.28142,46.25418],[49.26556,46.25862],[49.24809,46.26568],[49.22577,46.27275],[49.19685,46.28134],[49.16995,46.29392],[49.15701,46.30945],[49.15476,46.32311],[49.14929,46.32871],[49.13534,46.32289],[49.11565,46.30956],[49.09564,46.29604],[49.08239,46.2849],[49.07631,46.27564],[49.07163,46.26829],[49.06793,46.2617],[49.07174,46.25502],[49.08513,46.24764],[49.10046,46.234],[49.11072,46.20794],[49.11379,46.17784],[49.10832,46.16159],[49.09629,46.1636],[49.08284,46.1748],[49.07005,46.18666],[49.05721,46.19354],[49.04488,46.19338],[49.03486,46.18841],[49.02607,46.18213],[49.01246,46.17553],[48.98951,46.16617],[48.96283,46.15404],[48.94486,46.14229],[48.94184,46.13059],[48.94755,46.11811],[48.9511,46.10721],[48.948,46.0985],[48.94088,46.09181],[48.93372,46.09017],[48.92797,46.09716],[48.92166,46.11217],[48.91181,46.12992],[48.89873,46.1436],[48.88788,46.1473],[48.88408,46.13923],[48.88447,46.12565],[48.88133,46.11815],[48.87071,46.12328],[48.85571,46.13523],[48.84377,46.14193],[48.84201,46.13694],[48.85109,46.12164],[48.86246,46.10177],[48.86558,46.08597],[48.8579,46.08195],[48.84488,46.09074],[48.83069,46.106],[48.81681,46.11766],[48.8101,46.11733],[48.81492,46.10475],[48.82225,46.08698],[48.8227,46.07103],[48.81698,46.06145],[48.80932,46.06045],[48.80185,46.06725],[48.792,46.08022],[48.77403,46.09738],[48.74788,46.11314],[48.72243,46.12034],[48.70527,46.11948],[48.69487,46.11822],[48.68631,46.11871],[48.6779,46.11626],[48.6709,46.10972],[48.6669,46.10238],[48.6648,46.09609],[48.66,46.09125],[48.65002,46.08803],[48.64287,46.08492],[48.64983,46.07995],[48.6694,46.07161],[48.69202,46.05767],[48.7112,46.0405],[48.72263,46.02696],[48.72475,46.01769],[48.71954,46.00849],[48.70994,45.99953],[48.69832,45.99308],[48.6849,45.98803],[48.6696,45.98128],[48.65667,45.9727],[48.65118,45.96532],[48.65321,45.96147],[48.6622,45.96223],[48.6797,45.96648],[48.70465,45.9698],[48.72996,45.96873],[48.74653,45.96294],[48.75167,45.95298],[48.74934,45.93988],[48.74545,45.92637],[48.74519,45.9155],[48.74931,45.90737],[48.7556,45.89784],[48.76489,45.88237],[48.77609,45.86366],[48.78096,45.85135],[48.77478,45.84846],[48.76099,45.8474],[48.74365,45.84311],[48.72774,45.83662],[48.71737,45.82914],[48.7091,45.82542],[48.69933,45.83231],[48.69331,45.84838],[48.69521,45.8652],[48.69768,45.87644],[48.69126,45.88276],[48.67663,45.88944],[48.66127,45.89773],[48.65031,45.90401],[48.64309,45.90711],[48.63694,45.90881],[48.63133,45.91104],[48.6267,45.91574],[48.62155,45.92412],[48.61156,45.93712],[48.59463,45.95278],[48.5736,45.96329],[48.55142,45.96308],[48.53151,45.95578],[48.51731,45.948],[48.50584,45.94295],[48.49233,45.94086],[48.47816,45.94],[48.46564,45.93689],[48.45128,45.92731],[48.43128,45.90921],[48.40977,45.88864],[48.3927,45.87642],[48.37928,45.87401],[48.36818,45.87288],[48.36286,45.86766],[48.36711,45.86061],[48.38105,45.85493],[48.39744,45.8499],[48.39939,45.84425],[48.37302,45.84005],[48.33004,45.83802],[48.29847,45.83439],[48.28708,45.82616],[48.28449,45.81409],[48.28169,45.80074],[48.27577,45.78886],[48.26524,45.77986],[48.25085,45.77356],[48.2368,45.76968],[48.22729,45.76669],[48.22347,45.76132],[48.2245,45.75261],[48.22901,45.74296],[48.23496,45.73351],[48.23812,45.72457],[48.23153,45.72075],[48.21104,45.72596],[48.18194,45.73407],[48.15303,45.73686],[48.12613,45.73787],[48.1007,45.74289],[48.07958,45.74633],[48.06217,45.7416],[48.04532,45.73203],[48.03049,45.72378],[48.02019,45.71757],[48.01319,45.71128],[48.00668,45.70688],[47.99933,45.70838],[47.99212,45.71422],[47.9864,45.7198],[47.98143,45.72407],[47.97565,45.72777],[47.96892,45.73017],[47.96216,45.73036],[47.95516,45.72849],[47.94563,45.7252],[47.9323,45.71976],[47.9169,45.71098],[47.90279,45.70277],[47.89238,45.70235],[47.88386,45.70993],[47.87345,45.71798],[47.86152,45.72009],[47.85197,45.71435],[47.84638,45.7008],[47.84228,45.68202],[47.8393,45.66413],[47.84073,45.65111],[47.84462,45.64126],[47.84415,45.63187],[47.83775,45.6228],[47.82658,45.61805],[47.80894,45.62512],[47.78819,45.64411],[47.77252,45.66449],[47.76102,45.67932],[47.74643,45.68916],[47.72991,45.69577],[47.71783,45.70105],[47.71064,45.7057],[47.70526,45.70822],[47.70059,45.70791],[47.6964,45.70612],[47.69183,45.70465],[47.68595,45.70441],[47.67891,45.70512],[47.67175,45.70649],[47.66488,45.70928],[47.6585,45.71457],[47.65302,45.7226],[47.64789,45.73213],[47.6412,45.7415],[47.63134,45.75016],[47.61787,45.75803],[47.60081,45.7645],[47.5817,45.76832],[47.56538,45.76686],[47.55719,45.75905],[47.55852,45.74943],[47.56685,45.74424],[47.57793,45.74357],[47.58761,45.74195],[47.59498,45.73512],[47.60149,45.72532],[47.60755,45.71816],[47.61353,45.7147],[47.61938,45.71166],[47.62298,45.70614],[47.62373,45.69778],[47.62391,45.68843],[47.6242,45.68001],[47.62205,45.67363],[47.61651,45.6696],[47.61079,45.66674],[47.60836,45.66351],[47.60904,45.65879],[47.61095,45.65123],[47.6167,45.64113],[47.62997,45.62963],[47.64353,45.61501],[47.64825,45.59666],[47.64699,45.57878],[47.64202,45.56683],[47.63043,45.56615],[47.6149,45.57966],[47.59794,45.60359],[47.57617,45.63069],[47.54911,45.65357],[47.52037,45.66634],[47.49373,45.67151],[47.47213,45.67713],[47.45488,45.6857],[47.44275,45.69473],[47.44024,45.70309],[47.4462,45.71043],[47.4568,45.71535],[47.47128,45.71815],[47.4798,45.72194],[47.4673,45.72863],[47.44021,45.737],[47.41863,45.7448],[47.40659,45.74984],[47.39673,45.7508],[47.38782,45.74761],[47.38471,45.74054],[47.39106,45.73002],[47.40255,45.71788],[47.41051,45.70684],[47.41336,45.69782],[47.41591,45.69024],[47.42068,45.68365],[47.42694,45.67873],[47.43403,45.67648],[47.44145,45.67596],[47.44834,45.67425],[47.455,45.66916],[47.46451,45.66188],[47.48215,45.65514],[47.50747,45.64881],[47.53071,45.64059],[47.54422,45.63041],[47.54998,45.62003],[47.55434,45.6088],[47.56063,45.59468],[47.56706,45.5796],[47.5705,45.56783],[47.56965,45.55977],[47.5646,45.55311],[47.5572,45.54709],[47.54908,45.54297],[47.53857,45.54413],[47.52551,45.55409],[47.51394,45.57012],[47.50544,45.58185],[47.49889,45.58191],[47.49574,45.57408],[47.49827,45.56378],[47.50755,45.54915],[47.52113,45.53014],[47.53195,45.5147],[47.53382,45.50622],[47.52493,45.4977],[47.51053,45.48494],[47.50033,45.47113],[47.49741,45.45726],[47.49621,45.44302],[47.48756,45.4319],[47.46377,45.42637],[47.4298,45.42383],[47.40227,45.41961],[47.39427,45.41279],[47.40812,45.40642],[47.43304,45.40176],[47.45153,45.39688],[47.45674,45.39022],[47.4532,45.38257],[47.4453,45.37577],[47.43614,45.37074],[47.42923,45.36692],[47.42383,45.36087],[47.41448,45.34686],[47.40028,45.32473],[47.38781,45.29791],[47.38096,45.263],[47.37593,45.22329],[47.3676,45.19625],[47.35411,45.18886],[47.33624,45.19084],[47.31692,45.19057],[47.30002,45.18049],[47.28659,45.1569],[47.2745,45.12384],[47.26162,45.09086],[47.24667,45.06103],[47.22991,45.02986],[47.21361,44.99984],[47.19815,44.98053],[47.18243,44.97169],[47.1678,44.96264],[47.1561,44.94943],[47.14671,44.93994],[47.13722,44.94087],[47.12561,44.94839],[47.11305,44.95391],[47.10437,44.94864],[47.1017,44.92244],[47.09868,44.87688],[47.09042,44.83222],[47.08181,44.80411],[47.07599,44.79199],[47.06758,44.79411],[47.05185,44.81081],[47.03289,44.83682],[47.01878,44.86585],[47.00997,44.89316],[47.00131,44.90949],[46.99283,44.9078],[46.98964,44.89201],[46.99388,44.87075],[47.00115,44.85003],[47.00324,44.83108],[46.99439,44.8109],[46.97756,44.78994],[46.95974,44.776],[46.94135,44.7709],[46.91867,44.76533],[46.89337,44.75386],[46.87159,44.73962],[46.85575,44.72509],[46.84149,44.71199],[46.82184,44.70301],[46.79567,44.69446],[46.76898,44.68005],[46.74621,44.66351],[46.72854,44.64716],[46.71718,44.62211],[46.71246,44.59079],[46.71349,44.5686],[46.71742,44.55792],[46.71917,44.55141],[46.71531,44.54702],[46.70644,44.5445],[46.69588,44.5415],[46.68742,44.53533],[46.68423,44.52246],[46.68749,44.5003],[46.69479,44.47321],[46.70374,44.4495],[46.71661,44.43137],[46.73511,44.41621],[46.75708,44.40426],[46.78251,44.39762],[46.81063,44.39602],[46.84344,44.39487],[46.89536,44.38752],[46.96312,44.37354],[47.01551,44.35858],[47.04131,44.34241],[47.05562,44.31954],[47.06769,44.292],[47.07887,44.26833],[47.09105,44.25108],[47.1055,44.23711],[47.12079,44.22588],[47.13515,44.21811],[47.14947,44.21206],[47.16456,44.20714],[47.17923,44.20663],[47.1935,44.21278],[47.20871,44.22083],[47.22576,44.21983],[47.24526,44.19934],[47.26709,44.15753],[47.29033,44.10727],[47.31289,44.06743],[47.33192,44.04434],[47.34764,44.02779],[47.36474,44.0026],[47.38588,43.96656],[47.40626,43.9324],[47.41996,43.90756],[47.42859,43.88991],[47.4383,43.87786],[47.44981,43.86921],[47.45679,43.8599],[47.4552,43.84756],[47.44942,43.83412],[47.44794,43.82529],[47.45502,43.82339],[47.46753,43.82394],[47.48014,43.82001],[47.49062,43.80713],[47.49787,43.78886],[47.49827,43.77402],[47.48909,43.76552],[47.47412,43.75966],[47.46059,43.75339],[47.45106,43.74524],[47.44485,43.73271],[47.44395,43.71472],[47.44734,43.69642],[47.44792,43.68418],[47.44271,43.67773],[47.43436,43.67148],[47.42336,43.65852],[47.40909,43.63817],[47.39395,43.62132],[47.38147,43.61657],[47.37316,43.61765],[47.36887,43.61342],[47.36888,43.59996],[47.37326,43.58128],[47.38115,43.56428],[47.39099,43.55178],[47.39936,43.54057],[47.40465,43.5276],[47.41199,43.51604],[47.42663,43.51386],[47.44551,43.52739],[47.46149,43.55582],[47.4711,43.5906],[47.47569,43.62069],[47.47878,43.64046],[47.48331,43.65248],[47.49032,43.66225],[47.49806,43.67411],[47.50313,43.69055],[47.5059,43.71003],[47.51137,43.72985],[47.52132,43.75147],[47.53173,43.77681],[47.53879,43.80407],[47.54199,43.82956],[47.5437,43.85004],[47.54903,43.86568],[47.56226,43.87967],[47.58131,43.89183],[47.60233,43.89844],[47.6259,43.89876],[47.6518,43.89447],[47.67217,43.88417],[47.67191,43.86146],[47.64356,43.81602],[47.59882,43.73864],[47.55517,43.63753],[47.5213,43.5418],[47.49875,43.47195],[47.48788,43.42295],[47.48717,43.38396],[47.48981,43.35299],[47.49016,43.33014],[47.49095,43.31292],[47.49806,43.3024],[47.51311,43.30339],[47.53283,43.3139],[47.55194,43.32447],[47.56656,43.32903],[47.57593,43.32716],[47.58138,43.32042],[47.58397,43.3111],[47.58351,43.30159],[47.57977,43.29286],[47.57286,43.28294],[47.56141,43.27039],[47.54395,43.25716],[47.52334,43.24456],[47.50487,43.23108],[47.49181,43.21574],[47.48596,43.19965],[47.4851,43.18453],[47.48376,43.1715],[47.48109,43.16002],[47.48018,43.14894],[47.48084,43.13812],[47.47922,43.12758],[47.47272,43.11708],[47.46364,43.10665],[47.45738,43.09244],[47.4609,43.06463],[47.48425,43.02119],[47.52748,42.97744],[47.57023,42.9481],[47.59552,42.93111],[47.61277,42.91634],[47.64032,42.89763],[47.67469,42.87659],[47.69794,42.85799],[47.70678,42.84331],[47.70998,42.82936],[47.71225,42.80952],[47.71457,42.78434],[47.71685,42.7648],[47.71803,42.75448],[47.71742,42.74445],[47.71686,42.7258],[47.72075,42.6975],[47.73664,42.66572],[47.77213,42.63577],[47.82312,42.60368],[47.87848,42.55679],[47.93342,42.49388],[47.98454,42.43513],[48.02897,42.39491],[48.07292,42.35889],[48.12836,42.29935],[48.19259,42.21998],[48.24574,42.15724],[48.27909,42.1237],[48.29878,42.10215],[48.30998,42.08147],[48.32069,42.05531],[48.34295,42.01374],[48.37899,41.96247],[48.42061,41.92339],[48.46372,41.90322],[48.50726,41.88919],[48.54457,41.87223],[48.56864,41.85553],[48.5824,41.84421],[48.5979,41.8347],[48.6264,41.81604],[48.67218,41.77864],[48.72543,41.72998],[48.76636,41.69043],[48.79138,41.66269],[48.81865,41.62976],[48.8574,41.58522],[48.89526,41.54381],[48.92168,41.51833],[48.93915,41.50342],[48.95292,41.4891],[48.96631,41.47275],[48.9792,41.45718],[48.98984,41.44634],[49.0009,41.44008],[49.01472,41.43463],[49.03034,41.42387],[49.05049,41.39912],[49.07676,41.36042],[49.10249,41.32206],[49.12126,41.29451],[49.13374,41.26962],[49.14352,41.23291],[49.15273,41.18869],[49.16176,41.15612],[49.17101,41.13588],[49.18395,41.10685],[49.21216,41.05518],[49.26533,40.98756],[49.32634,40.92557],[49.36659,40.88687],[49.38807,40.8667],[49.41164,40.85166],[49.44131,40.83947],[49.46821,40.83071],[49.48944,40.82098],[49.50796,40.80904],[49.52359,40.79708],[49.53164,40.78248],[49.52925,40.76078],[49.5207,40.73521],[49.51355,40.71392],[49.511,40.69963],[49.51261,40.68926],[49.51791,40.67994],[49.52483,40.67155],[49.53015,40.66528],[49.53482,40.65988],[49.54346,40.65213],[49.55763,40.64195],[49.5759,40.63267],[49.59901,40.62653],[49.62576,40.62244],[49.65098,40.61688],[49.67466,40.60665],[49.70126,40.59346],[49.73375,40.58232],[49.77186,40.57439],[49.80872,40.56859],[49.83947,40.56692],[49.87032,40.57155],[49.91032,40.57939],[49.96332,40.58399],[50.01784,40.58267],[50.05224,40.57749],[50.06418,40.57086],[50.06924,40.56327],[50.07765,40.55348],[50.09168,40.54124],[50.11429,40.52862],[50.15147,40.51689],[50.19671,40.50555],[50.23065,40.49331],[50.24879,40.47778],[50.26223,40.45895],[50.27795,40.44145],[50.2965,40.42865],[50.31608,40.41766],[50.33398,40.40355],[50.34859,40.3815],[50.36014,40.3466],[50.36964,40.30597],[50.37781,40.27499],[50.38437,40.25472],[50.38679,40.24008],[50.38128,40.23721],[50.36685,40.25074],[50.34476,40.27375],[50.31539,40.29827],[50.28268,40.31953],[50.25242,40.33389],[50.22206,40.34226],[50.18768,40.3487],[50.15529,40.35426],[50.13195,40.35716],[50.11642,40.35663],[50.10254,40.3543],[50.08426,40.35202],[50.06017,40.34849],[50.03368,40.34083],[50.00874,40.33161],[49.98907,40.32804],[49.97555,40.33286],[49.96505,40.34186],[49.95419,40.34963],[49.93941,40.35503],[49.91886,40.35972],[49.89491,40.36133],[49.87141,40.35395],[49.85231,40.33669],[49.83577,40.31507],[49.81052,40.29467],[49.7684,40.27708],[49.71223,40.2595],[49.65101,40.23983],[49.59674,40.21995],[49.55657,40.20045],[49.52788,40.1814],[49.50778,40.16508],[49.49673,40.14954],[49.49351,40.13066],[49.49116,40.1107],[49.47854,40.09355],[49.45646,40.07803],[49.44073,40.06124],[49.43975,40.04326],[49.44799,40.02723],[49.45896,40.01549],[49.4696,40.00664],[49.47734,39.99826],[49.47973,39.99009],[49.47556,39.98263],[49.46579,39.97521],[49.45392,39.96787],[49.44365,39.96164],[49.4357,39.95526],[49.42948,39.94664],[49.42569,39.93582],[49.42589,39.92244],[49.43045,39.90583],[49.43656,39.88859],[49.43933,39.87427],[49.43649,39.8635],[49.42999,39.85548],[49.42312,39.84903],[49.41822,39.84247],[49.41631,39.83544],[49.41716,39.82891],[49.41934,39.82299],[49.42078,39.81702],[49.41921,39.81087],[49.4131,39.8039],[49.40438,39.79498],[49.39821,39.78509],[49.39695,39.77607],[49.39801,39.7669],[49.40059,39.75492],[49.40756,39.73944],[49.41608,39.72339],[49.41663,39.71048],[49.40454,39.69947],[49.38367,39.68553],[49.3603,39.66678],[49.33956,39.6453],[49.32493,39.62406],[49.31562,39.60457],[49.30725,39.58554],[49.29831,39.565],[49.29103,39.54303],[49.28764,39.52037],[49.2947,39.495],[49.3224,39.46286],[49.36337,39.42817],[49.39375,39.40274],[49.40511,39.38958],[49.40605,39.38101],[49.40317,39.36883],[49.40051,39.35196],[49.40051,39.33709],[49.39996,39.32985],[49.39481,39.33026],[49.38674,39.33556],[49.37929,39.3424],[49.37357,39.34694],[49.37087,39.34482],[49.37326,39.33481],[49.38104,39.32084],[49.39193,39.30784],[49.40001,39.29843],[49.39818,39.29443],[49.38636,39.29755],[49.36904,39.30791],[49.34444,39.32253],[49.31121,39.33265],[49.27801,39.32797],[49.2543,39.30266],[49.2419,39.25549],[49.23684,39.2005],[49.23304,39.15978],[49.22666,39.13395],[49.21862,39.11047],[49.21199,39.08527],[49.20708,39.05966],[49.19729,39.03485],[49.17119,39.00963],[49.12877,38.98658],[49.08785,38.97587],[49.06364,38.98038],[49.05544,38.99089],[49.05532,39.00011],[49.06113,39.00771],[49.07717,39.01484],[49.10112,39.02223],[49.12251,39.0318],[49.1362,39.04574],[49.14302,39.06363],[49.14213,39.08231],[49.13064,39.09772],[49.10842,39.10752],[49.08443,39.1159],[49.06953,39.13098],[49.06229,39.15226],[49.05376,39.17051],[49.03837,39.18118],[49.01516,39.18574],[48.98995,39.18568],[48.97193,39.18177],[48.96261,39.17445],[48.95683,39.16454],[48.95218,39.15416],[48.9495,39.1448],[48.94807,39.13645],[48.9458,39.12996],[48.94211,39.12648],[48.93821,39.1223],[48.93553,39.10858],[48.93579,39.08332],[48.94026,39.05546],[48.9444,39.02775],[48.94022,38.99335],[48.92804,38.95513],[48.91473,38.9241],[48.90249,38.90227],[48.88714,38.88574],[48.86568,38.87244],[48.84521,38.85842],[48.83551,38.84018],[48.83687,38.81875],[48.84546,38.78519],[48.8574,38.71361],[48.86713,38.60101],[48.87233,38.49091],[48.87413,38.41535],[48.8732,38.36319],[48.87156,38.32159],[48.8732,38.28525],[48.88055,38.24139],[48.89464,38.17513],[48.91459,38.08639],[48.93276,38.00357],[48.94104,37.95255],[48.94283,37.92558],[48.94783,37.90391],[48.96057,37.87929],[48.97589,37.85388],[48.98444,37.83496],[48.98584,37.82193],[48.98844,37.8042],[49.00018,37.77398],[49.02739,37.73109],[49.07366,37.68015],[49.14122,37.62731],[49.23363,37.5761],[49.35933,37.52959],[49.53097,37.49276],[49.71638,37.47002],[49.84317,37.46338],[49.9006,37.46647],[49.93214,37.46757],[49.95266,37.46378],[49.95691,37.46059],[49.95067,37.45994],[49.94838,37.45711],[49.97229,37.44647],[50.03671,37.42795],[50.11954,37.40692],[50.1825,37.38567],[50.21376,37.36166],[50.22613,37.33548],[50.23423,37.30981],[50.24424,37.2858],[50.25654,37.26261],[50.27282,37.23403],[50.29554,37.19681],[50.32685,37.15794],[50.37009,37.12075],[50.4211,37.08281],[50.46487,37.05016],[50.49917,37.02786],[50.54226,37.00614],[50.5956,36.98078],[50.63758,36.96117],[50.66321,36.9475],[50.69262,36.9295],[50.75487,36.89659],[50.8608,36.84421],[50.99354,36.78519],[51.15178,36.73521],[51.34258,36.69369],[51.54184,36.65579],[51.72927,36.62345],[51.90995,36.60658],[52.08728,36.61617],[52.26048,36.64693],[52.43285,36.68167],[52.60628,36.71304],[52.77867,36.74529],[52.9587,36.7833],[53.15989,36.82593],[53.37214,36.86371],[53.58511,36.88876],[53.78564,36.90621],[53.92581,36.92211],[53.98253,36.92855],[53.97975,36.919],[53.94035,36.90315],[53.88717,36.891],[53.84465,36.88282],[53.81882,36.87849],[53.79984,36.87873],[53.77995,36.88036],[53.75884,36.87913],[53.73551,36.87561],[53.70402,36.87396],[53.66414,36.87442],[53.63214,36.87278],[53.62416,36.86812],[53.63513,36.86389],[53.64596,36.86132],[53.64711,36.85755],[53.64983,36.84861],[53.6756,36.83406],[53.73631,36.81887],[53.8113,36.80736],[53.87067,36.80153],[53.92272,36.80464],[53.97829,36.81635],[54.01685,36.83655],[54.02999,36.87343],[54.03034,36.92155],[54.02398,36.95694],[54.01257,36.97269],[54.00356,36.98352],[54.00316,37.00126],[54.00429,37.02772],[53.99589,37.0627],[53.97792,37.1112],[53.95622,37.17112],[53.93656,37.22786],[53.92353,37.276],[53.91607,37.32331],[53.9093,37.37931],[53.89981,37.44409],[53.88756,37.50148],[53.87543,37.54176],[53.86454,37.58083],[53.85013,37.65603],[53.83098,37.79115],[53.81675,37.94113],[53.81533,38.03872],[53.82425,38.09014],[53.83763,38.13849],[53.85005,38.1901],[53.85837,38.23293],[53.86336,38.27158],[53.86524,38.31607],[53.8635,38.35915],[53.85924,38.38723],[53.85393,38.40194],[53.84918,38.41309],[53.84506,38.42885],[53.83945,38.45612],[53.83332,38.49518],[53.8319,38.54255],[53.83785,38.59417],[53.8511,38.64269],[53.87311,38.68701],[53.89892,38.73052],[53.91647,38.76872],[53.9242,38.79606],[53.93073,38.8151],[53.9388,38.83217],[53.9468,38.84985],[53.95561,38.86698],[53.96567,38.88354],[53.97417,38.89897],[53.97724,38.91081],[53.97437,38.92049],[53.96613,38.93173],[53.95139,38.94318],[53.93456,38.95168],[53.92377,38.95777],[53.91924,38.9629],[53.91556,38.96695],[53.90976,38.96988],[53.90269,38.97252],[53.89661,38.97604],[53.89189,38.98157],[53.88784,38.98933],[53.88405,38.99924],[53.87877,39.01149],[53.86863,39.02385],[53.85024,39.03254],[53.82552,39.03727],[53.80306,39.03998],[53.78821,39.04048],[53.77896,39.03811],[53.77208,39.03506],[53.76516,39.0356],[53.75618,39.04453],[53.7446,39.0645],[53.73222,39.08846],[53.7222,39.10214],[53.71711,39.09996],[53.71815,39.08822],[53.72363,39.07498],[53.72804,39.06529],[53.72566,39.06225],[53.71607,39.06757],[53.70557,39.08087],[53.70054,39.09995],[53.69995,39.1209],[53.69972,39.13854],[53.70189,39.15095],[53.70897,39.1606],[53.71362,39.17001],[53.71126,39.18293],[53.70983,39.20312],[53.70941,39.22232],[53.69932,39.22652],[53.682,39.21653],[53.67183,39.19728],[53.67301,39.16311],[53.67468,39.12452],[53.66669,39.10957],[53.65196,39.12082],[53.63957,39.13937],[53.63274,39.1573],[53.62738,39.17406],[53.61914,39.18701],[53.61075,39.19678],[53.60761,39.20773],[53.60778,39.22082],[53.60538,39.23189],[53.59891,39.23494],[53.58956,39.22626],[53.57901,39.21203],[53.57062,39.2076],[53.56838,39.22283],[53.57182,39.25209],[53.57425,39.27929],[53.57353,39.29704],[53.57468,39.31151],[53.57564,39.32299],[53.5707,39.32788],[53.56411,39.3324],[53.56115,39.34096],[53.55742,39.34675],[53.54824,39.34426],[53.53633,39.33836],[53.52319,39.33494],[53.50405,39.3324],[53.47919,39.32768],[53.45832,39.32353],[53.44722,39.32532],[53.44185,39.33126],[53.43632,39.33297],[53.42824,39.32754],[53.41742,39.31962],[53.40546,39.31422],[53.39725,39.31455],[53.39609,39.32159],[53.39703,39.33099],[53.39297,39.33651],[53.38466,39.3376],[53.37726,39.33703],[53.37183,39.33536],[53.36678,39.33306],[53.36196,39.33244],[53.35736,39.33517],[53.35199,39.33946],[53.34374,39.34118],[53.33003,39.33845],[53.31296,39.33443],[53.30022,39.33397],[53.29606,39.33813],[53.29621,39.34377],[53.29387,39.34794],[53.28663,39.35017],[53.27594,39.35195],[53.26359,39.35525],[53.2503,39.35975],[53.23365,39.36225],[53.2091,39.35984],[53.18246,39.35235],[53.17126,39.34173],[53.1785,39.33021],[53.18571,39.31784],[53.18227,39.3034],[53.17544,39.28768],[53.17286,39.27019],[53.17529,39.24713],[53.17883,39.21948],[53.17791,39.19604],[53.17027,39.19226],[53.15726,39.22475],[53.14063,39.28384],[53.12076,39.33747],[53.10167,39.37353],[53.09246,39.39864],[53.09666,39.41702],[53.10979,39.43239],[53.1249,39.44705],[53.13557,39.46035],[53.14221,39.47241],[53.15086,39.4848],[53.16518,39.50281],[53.18604,39.53596],[53.21303,39.58316],[53.24401,39.62662],[53.27402,39.65082],[53.29223,39.65544],[53.29031,39.64773],[53.27421,39.63278],[53.25663,39.61397],[53.24443,39.59496],[53.23614,39.57819],[53.22761,39.56334],[53.22217,39.54772],[53.23497,39.53386],[53.28029,39.52914],[53.34802,39.53207],[53.40718,39.53311],[53.44089,39.52745],[53.45719,39.51645],[53.46827,39.5032],[53.47978,39.49118],[53.49505,39.48265],[53.51698,39.47728],[53.54253,39.47328],[53.56304,39.47062],[53.57444,39.47198],[53.57902,39.47835],[53.57919,39.48677],[53.57588,39.49392],[53.57093,39.50016],[53.56927,39.50865],[53.57504,39.51713],[53.5866,39.51753],[53.6007,39.50904],[53.61738,39.50144],[53.63789,39.50316],[53.66019,39.51176],[53.67996,39.51781],[53.69655,39.51681],[53.71163,39.51302],[53.72391,39.51299],[53.73043,39.51876],[53.72939,39.5275],[53.72123,39.53603],[53.70607,39.54354],[53.68265,39.55107],[53.65709,39.55953],[53.64304,39.56809],[53.64435,39.57574],[53.6504,39.5839],[53.65098,39.59441],[53.64422,39.60592],[53.63063,39.61454],[53.60944,39.61827],[53.58634,39.62071],[53.57188,39.62775],[53.56653,39.63979],[53.56233,39.65259],[53.55505,39.66377],[53.54615,39.67052],[53.53993,39.66653],[53.53814,39.6522],[53.5351,39.64145],[53.52243,39.64811],[53.49903,39.66913],[53.47326,39.68851],[53.45592,39.69519],[53.45107,39.69011],[53.45155,39.68194],[53.44767,39.67924],[53.43938,39.68089],[53.4341,39.67809],[53.4366,39.66643],[53.44169,39.65172],[53.43829,39.64628],[53.42719,39.66139],[53.42083,39.69711],[53.4204,39.73457],[53.41615,39.75379],[53.40582,39.75746],[53.39449,39.75905],[53.38841,39.76375],[53.39636,39.77438],[53.42316,39.797],[53.45868,39.82889],[53.48403,39.85585],[53.49161,39.87089],[53.48988,39.87908],[53.48969,39.88477],[53.49529,39.88862],[53.50652,39.89122],[53.52039,39.89382],[53.53093,39.8979],[53.5339,39.90352],[53.53197,39.90946],[53.53242,39.91616],[53.53981,39.92533],[53.55215,39.93722],[53.56361,39.95025],[53.56943,39.96055],[53.56934,39.96486],[53.56668,39.96474],[53.56292,39.96418],[53.5557,39.96632],[53.54225,39.97105],[53.5219,39.97491],[53.49761,39.97771],[53.47444,39.98351],[53.45452,39.99262],[53.4367,40.00064],[53.41953,40.00473],[53.4024,40.00483],[53.38388,39.99952],[53.36089,39.98621],[53.33553,39.9689],[53.31567,39.95624],[53.30283,39.94941],[53.29246,39.94465],[53.28244,39.94249],[53.2717,39.94465],[53.25978,39.94934],[53.24482,39.95613],[53.2201,39.96841],[53.18718,39.98251],[53.15914,39.98756],[53.13703,39.98251],[53.10905,39.97586],[53.07919,39.97373],[53.0643,39.97714],[53.0658,39.9834],[53.06834,39.98819],[53.05436,39.98758],[53.01984,39.98236],[52.98021,39.98067],[52.94987,39.98946],[52.92907,40.00398],[52.91345,40.01191],[52.90276,40.0081],[52.90029,39.99695],[52.90631,39.98263],[52.91576,39.96445],[52.92382,39.93936],[52.9315,39.90993],[52.94333,39.88415],[52.96083,39.86252],[52.98357,39.83722],[53.01047,39.80733],[53.03469,39.78303],[53.04557,39.77152],[53.03891,39.77086],[53.02674,39.77288],[53.02633,39.76755],[53.03334,39.75673],[53.02968,39.75409],[53.01261,39.76673],[52.99123,39.79168],[52.96957,39.82058],[52.94686,39.84369],[52.92497,39.86017],[52.90872,39.87772],[52.899,39.90071],[52.88625,39.92785],[52.85495,39.95943],[52.80677,39.99507],[52.76597,40.02909],[52.74815,40.06019],[52.74757,40.09054],[52.75388,40.11657],[52.76029,40.1365],[52.76094,40.15487],[52.75321,40.1749],[52.7437,40.19409],[52.7385,40.20909],[52.73176,40.22317],[52.71899,40.24422],[52.70929,40.28366],[52.71391,40.35384],[52.73127,40.44076],[52.75455,40.51087],[52.78537,40.56098],[52.82225,40.60841],[52.85082,40.65216],[52.86026,40.68232],[52.85322,40.69788],[52.84027,40.70564],[52.83215,40.71314],[52.83187,40.72334],[52.83461,40.73401],[52.83617,40.74163],[52.83899,40.74662],[52.84707,40.75104],[52.85788,40.75493],[52.8657,40.75922],[52.86857,40.76611],[52.86784,40.7751],[52.86689,40.78787],[52.87293,40.81633],[52.89067,40.86745],[52.91163,40.9279],[52.92194,40.98432],[52.92149,41.03333],[52.92243,41.06569],[52.9321,41.07473],[52.94653,41.06921],[52.95782,41.05973],[52.96252,41.04918],[52.9622,41.03798],[52.96074,41.02636],[52.96457,41.01153],[52.97939,40.98943],[53.00098,40.96153],[53.01894,40.93304],[53.03214,40.90736],[53.04686,40.88712],[53.06387,40.87401],[53.08035,40.86763],[53.09599,40.8664],[53.10846,40.86727],[53.11147,40.86576],[53.10181,40.85976],[53.0855,40.85115],[53.07395,40.84138],[53.07322,40.831],[53.08088,40.82139],[53.09122,40.8126],[53.09926,40.80366],[53.1033,40.79411],[53.10585,40.78441],[53.1128,40.77618],[53.13017,40.77091],[53.15604,40.76908],[53.18338,40.77287],[53.21157,40.78531],[53.23828,40.80043],[53.25261,40.80407],[53.25284,40.79324],[53.25548,40.78002],[53.27673,40.77432],[53.30955,40.77641],[53.33264,40.78317],[53.34033,40.79273],[53.34304,40.80387],[53.34874,40.81551],[53.35853,40.82569],[53.36952,40.83094],[53.37747,40.82925],[53.37974,40.82126],[53.37844,40.80911],[53.37951,40.7948],[53.38704,40.77948],[53.40103,40.76538],[53.41864,40.75532],[53.43534,40.74922],[53.44873,40.7443],[53.46033,40.73959],[53.47156,40.7371],[53.48241,40.73822],[53.49493,40.74281],[53.51286,40.7508],[53.53413,40.76208],[53.5504,40.77805],[53.55793,40.80124],[53.56198,40.82962],[53.56978,40.85744],[53.58196,40.87909],[53.59413,40.8903],[53.60472,40.89241],[53.61469,40.89033],[53.62371,40.88641],[53.63075,40.88145],[53.63622,40.8765],[53.64239,40.87214],[53.64961,40.86825],[53.65479,40.86408],[53.65594,40.85897],[53.65424,40.85346],[53.65217,40.84757],[53.65228,40.83908],[53.65574,40.8279],[53.66105,40.81734],[53.6641,40.8081],[53.66201,40.79883],[53.65742,40.78973],[53.65668,40.77794],[53.66362,40.75827],[53.67612,40.73363],[53.68936,40.71441],[53.70079,40.70502],[53.71036,40.70068],[53.71771,40.69573],[53.7208,40.68775],[53.71792,40.67627],[53.71255,40.66193],[53.71414,40.64661],[53.731,40.63432],[53.76425,40.62898],[53.80737,40.62917],[53.8479,40.63237],[53.87797,40.64055],[53.90295,40.65353],[53.92715,40.66543],[53.94687,40.67067],[53.9643,40.66871],[53.98535,40.66375],[54.00847,40.66144],[54.03052,40.66407],[54.0523,40.66973],[54.07215,40.67614],[54.08546,40.68286],[54.09144,40.68972],[54.09089,40.69585],[54.08242,40.7015],[54.07261,40.70744],[54.07859,40.7122],[54.10558,40.71546],[54.14172,40.71984],[54.17925,40.72488],[54.21184,40.72673],[54.22829,40.72313],[54.22847,40.71372],[54.2233,40.7015],[54.22236,40.69174],[54.23971,40.68496],[54.28868,40.67974],[54.34704,40.67842],[54.37479,40.68255],[54.37693,40.69029],[54.38597,40.69975],[54.40034,40.70934],[54.39124,40.71666],[54.35666,40.72079],[54.3259,40.72541],[54.31274,40.73558],[54.30686,40.75217],[54.29906,40.77331],[54.28855,40.79695],[54.27857,40.81933],[54.27163,40.83621],[54.26859,40.84705],[54.26918,40.85421],[54.27145,40.85994],[54.27277,40.86544],[54.27099,40.87019],[54.26544,40.87292],[54.25771,40.8746],[54.25118,40.87817],[54.24895,40.88389],[54.25175,40.88869],[54.25803,40.89095],[54.2668,40.89335],[54.27939,40.90033],[54.29594,40.9115],[54.31447,40.92037],[54.33765,40.92009],[54.37031,40.90834],[54.40737,40.89122],[54.43776,40.87691],[54.45617,40.8648],[54.46105,40.85079],[54.45656,40.83524],[54.46319,40.82264],[54.50275,40.81914],[54.56369,40.8251],[54.61258,40.83456],[54.64111,40.84579],[54.66481,40.86032],[54.69066,40.87713],[54.71578,40.89798],[54.73745,40.92337],[54.75173,40.94674],[54.75639,40.9649],[54.7542,40.97978],[54.74843,40.99178]]]}}]}