{"type":"FeatureCollection","meta":{"year":2019,"level_m":-28.05,"reference_year":2015,"reference_level_m":-27.85,"status":"semi","model":"cross-shore translation: retreat = Δlevel / tan(β)","source_id":"model","projected":false},"features":[{"type":"Feature","properties":{"year":2019,"level_m":-28.05},"geometry":{"type":"Polygon","coordinates":[[[54.73698,41.00454],[54.71838,41.02464],[54.69723,41.04721],[54.68472,41.0622],[54.68706,41.06744],[54.70356,41.06474],[54.72851,41.05589],[54.74906,41.04786],[54.75317,41.04827],[54.74394,41.05583],[54.73289,41.06491],[54.72517,41.073],[54.72066,41.0798],[54.71916,41.08584],[54.72055,41.09181],[54.72409,41.09677],[54.72706,41.10006],[54.724,41.10449],[54.71038,41.11206],[54.68762,41.12002],[54.66287,41.12786],[54.6424,41.14126],[54.61297,41.16916],[54.54275,41.21915],[54.43603,41.2802],[54.34421,41.32641],[54.29097,41.35272],[54.25432,41.37302],[54.22111,41.39131],[54.19752,41.4048],[54.18348,41.41672],[54.17084,41.43172],[54.15539,41.4475],[54.13614,41.45905],[54.11345,41.46726],[54.09183,41.47652],[54.0743,41.48971],[54.05868,41.50929],[54.04403,41.53698],[54.03302,41.57421],[54.02691,41.62356],[54.02284,41.67912],[54.01648,41.7271],[54.00377,41.76591],[53.98211,41.80499],[53.95727,41.84306],[53.9397,41.86933],[53.92992,41.8817],[53.92122,41.88693],[53.91186,41.8907],[53.90447,41.89632],[53.9012,41.90477],[53.90226,41.91447],[53.90547,41.924],[53.90767,41.93362],[53.90712,41.94488],[53.90556,41.95897],[53.90684,41.97533],[53.91119,41.99218],[53.91456,42.00837],[53.91445,42.02502],[53.91106,42.04314],[53.90341,42.0618],[53.88717,42.08095],[53.85777,42.10112],[53.81651,42.1188],[53.77043,42.12918],[53.70876,42.13201],[53.59836,42.12593],[53.45401,42.10935],[53.34293,42.09145],[53.279,42.08398],[53.22496,42.08736],[53.17061,42.09112],[53.12507,42.08403],[53.08465,42.06357],[53.03712,42.03193],[52.97813,41.98365],[52.91285,41.90765],[52.85218,41.81969],[52.81123,41.75994],[52.79183,41.73559],[52.78192,41.72041],[52.77506,41.70063],[52.77241,41.68057],[52.77702,41.66954],[52.79089,41.67345],[52.81277,41.68653],[52.84098,41.69589],[52.87197,41.69524],[52.89701,41.68683],[52.90928,41.67406],[52.90931,41.65894],[52.9031,41.64366],[52.89825,41.62986],[52.89796,41.61643],[52.89977,41.60162],[52.89628,41.57824],[52.87848,41.53242],[52.85071,41.47107],[52.82884,41.42221],[52.81845,41.39542],[52.81552,41.3794],[52.81858,41.36267],[52.82632,41.33592],[52.83524,41.29675],[52.84608,41.25186],[52.86467,41.20537],[52.88777,41.16039],[52.90085,41.12506],[52.8982,41.09909],[52.88871,41.0763],[52.88098,41.05995],[52.87481,41.05557],[52.86674,41.06079],[52.85732,41.0696],[52.85064,41.08018],[52.84931,41.09585],[52.85121,41.11762],[52.8518,41.14101],[52.84861,41.16242],[52.84227,41.18121],[52.83456,41.19627],[52.82654,41.20714],[52.81908,41.21562],[52.81394,41.22454],[52.81203,41.2362],[52.81078,41.25274],[52.80558,41.27717],[52.79619,41.30572],[52.78588,41.32909],[52.77445,41.34846],[52.76069,41.36796],[52.74645,41.38239],[52.73411,41.3898],[52.72514,41.39614],[52.71989,41.40517],[52.71693,41.41559],[52.71327,41.42517],[52.70599,41.43401],[52.69406,41.4425],[52.67821,41.44931],[52.65971,41.45591],[52.63882,41.46781],[52.61622,41.48494],[52.59504,41.49999],[52.57804,41.51123],[52.56677,41.52357],[52.56347,41.53812],[52.56873,41.55345],[52.57812,41.56898],[52.58495,41.58346],[52.58729,41.59746],[52.58812,41.6115],[52.59004,41.6234],[52.59256,41.63236],[52.59332,41.63937],[52.5914,41.6449],[52.58782,41.64903],[52.58357,41.65295],[52.57854,41.6598],[52.57266,41.67015],[52.56642,41.67997],[52.55938,41.68606],[52.55013,41.68867],[52.53926,41.69024],[52.52918,41.69397],[52.52051,41.70028],[52.51103,41.70739],[52.49904,41.71512],[52.48533,41.72321],[52.4702,41.73045],[52.45438,41.73876],[52.44272,41.75173],[52.44148,41.77309],[52.45324,41.80798],[52.4713,41.8542],[52.4825,41.89926],[52.48133,41.93435],[52.47259,41.95894],[52.4618,41.97494],[52.4514,41.98509],[52.44227,41.9931],[52.43576,42.00365],[52.43354,42.02028],[52.43426,42.03999],[52.43229,42.05694],[52.42386,42.07225],[52.41487,42.08951],[52.4141,42.1078],[52.42016,42.12617],[52.42633,42.14488],[52.4316,42.16252],[52.43944,42.17679],[52.45189,42.18686],[52.4696,42.19837],[52.49657,42.22435],[52.53399,42.26739],[52.56945,42.30876],[52.58983,42.33308],[52.59714,42.34631],[52.59935,42.3595],[52.60026,42.37425],[52.60331,42.38788],[52.61287,42.40115],[52.62728,42.41503],[52.63891,42.42771],[52.64451,42.4393],[52.64796,42.45291],[52.65414,42.4731],[52.66352,42.50262],[52.67079,42.53821],[52.66957,42.57553],[52.65782,42.61322],[52.63757,42.648],[52.61174,42.67609],[52.58634,42.69901],[52.57067,42.71974],[52.56812,42.73583],[52.57359,42.74137],[52.58145,42.73406],[52.59065,42.71829],[52.60245,42.70218],[52.61723,42.69045],[52.63514,42.68094],[52.6531,42.67073],[52.66481,42.66116],[52.66961,42.65402],[52.67318,42.6473],[52.67979,42.63518],[52.68953,42.61624],[52.70022,42.59912],[52.71066,42.59292],[52.72107,42.59952],[52.73091,42.61584],[52.73795,42.638],[52.73855,42.66537],[52.72874,42.6965],[52.70612,42.72381],[52.67407,42.74214],[52.64154,42.75684],[52.6067,42.77565],[52.55168,42.79829],[52.47438,42.81771],[52.40389,42.82826],[52.36342,42.83066],[52.3452,42.82869],[52.3332,42.82455],[52.3226,42.81837],[52.3136,42.80962],[52.30457,42.80042],[52.28901,42.79997],[52.2582,42.81873],[52.21549,42.851],[52.17193,42.87604],[52.12372,42.88255],[52.06386,42.87472],[52.00501,42.86012],[51.96232,42.84652],[51.93186,42.84334],[51.90078,42.85725],[51.8674,42.88393],[51.83975,42.91215],[51.81989,42.93654],[51.80464,42.95826],[51.7925,42.981],[51.77965,43.00729],[51.75988,43.03602],[51.73477,43.06334],[51.71329,43.08301],[51.69821,43.09251],[51.6864,43.09707],[51.67767,43.10298],[51.6738,43.11158],[51.67481,43.121],[51.6781,43.13102],[51.67939,43.14385],[51.6753,43.16001],[51.66374,43.1749],[51.64175,43.18193],[51.60869,43.18095],[51.57321,43.17751],[51.54729,43.17387],[51.53329,43.16894],[51.52515,43.16316],[51.51727,43.15837],[51.50675,43.15669],[51.49241,43.15915],[51.47104,43.1629],[51.43097,43.16274],[51.36787,43.15918],[51.30629,43.15977],[51.27562,43.17363],[51.27754,43.20787],[51.29416,43.26357],[51.3087,43.33523],[51.31292,43.40793],[51.30529,43.46288],[51.29141,43.49618],[51.28094,43.51619],[51.27662,43.53119],[51.27383,43.54567],[51.26622,43.5599],[51.24944,43.5749],[51.22843,43.59186],[51.21326,43.608],[51.20486,43.61907],[51.19707,43.62326],[51.18707,43.62283],[51.17586,43.62196],[51.16476,43.62313],[51.1528,43.62825],[51.13232,43.64783],[51.0947,43.69653],[51.05035,43.76194],[51.02159,43.81025],[51.0114,43.83289],[51.00686,43.84454],[51.00145,43.85341],[50.99602,43.86092],[50.99255,43.86924],[50.99162,43.88083],[50.99119,43.89481],[50.98703,43.90832],[50.97574,43.92155],[50.96027,43.93554],[50.94687,43.95006],[50.93578,43.9659],[50.92401,43.98294],[50.91211,43.99809],[50.90057,44.00861],[50.88744,44.01512],[50.87327,44.0207],[50.86201,44.02807],[50.85623,44.03748],[50.85564,44.04745],[50.85769,44.06226],[50.85867,44.09207],[50.8566,44.13333],[50.85092,44.16826],[50.83841,44.19224],[50.81176,44.21408],[50.74675,44.23935],[50.61249,44.26951],[50.44412,44.29994],[50.32702,44.32255],[50.27884,44.33784],[50.25732,44.35272],[50.24246,44.37213],[50.23588,44.39841],[50.23535,44.42851],[50.23551,44.45448],[50.23457,44.47283],[50.23271,44.48829],[50.22914,44.50835],[50.22645,44.53493],[50.2295,44.55935],[50.23945,44.57014],[50.25321,44.571],[50.26657,44.57773],[50.27723,44.59362],[50.28573,44.60895],[50.29263,44.62036],[50.29706,44.63148],[50.29997,44.64293],[50.30437,44.65206],[50.31116,44.6566],[50.3192,44.65593],[50.33758,44.65051],[50.38732,44.64112],[50.46533,44.63212],[50.53703,44.62993],[50.58289,44.63268],[50.60961,44.63188],[50.63165,44.62598],[50.66474,44.61998],[50.7067,44.61496],[50.73893,44.60979],[50.75672,44.60748],[50.76818,44.61108],[50.77643,44.61845],[50.78211,44.6253],[50.79069,44.62942],[50.81013,44.63069],[50.83969,44.62926],[50.86994,44.62418],[50.8983,44.61293],[50.92715,44.59533],[50.95305,44.57819],[50.97335,44.56894],[50.98975,44.56618],[51.00168,44.56342],[51.0071,44.55817],[51.00597,44.55236],[51.00135,44.54712],[51.00112,44.54004],[51.01584,44.52814],[51.05123,44.5119],[51.09829,44.49646],[51.14027,44.48795],[51.17255,44.4875],[51.20205,44.4941],[51.23343,44.5087],[51.2617,44.52673],[51.27799,44.53913],[51.28371,44.54473],[51.28741,44.5482],[51.29386,44.551],[51.30522,44.55242],[51.32195,44.55327],[51.34198,44.55519],[51.36086,44.5558],[51.37416,44.54896],[51.38826,44.53628],[51.41947,44.52701],[51.47005,44.5218],[51.52053,44.51688],[51.55296,44.51675],[51.56551,44.52487],[51.56377,44.53706],[51.55056,44.54981],[51.52353,44.56475],[51.48458,44.58305],[51.44458,44.59866],[51.40739,44.6041],[51.3674,44.60233],[51.32601,44.6077],[51.28945,44.63339],[51.25825,44.67428],[51.22599,44.71279],[51.1851,44.74269],[51.14232,44.7662],[51.11412,44.78161],[51.10008,44.78954],[51.0857,44.79426],[51.06703,44.79829],[51.05136,44.8029],[51.03774,44.81027],[51.01538,44.82352],[50.9865,44.84281],[50.96772,44.86431],[50.96504,44.88457],[50.97154,44.90091],[50.98114,44.9117],[50.98944,44.91927],[50.99284,44.92695],[50.99115,44.93475],[50.98577,44.94102],[50.97695,44.94516],[50.96602,44.94861],[50.95779,44.95445],[50.95749,44.96425],[50.96729,44.97575],[50.98542,44.98548],[51.00743,44.99156],[51.02946,44.99399],[51.04947,44.99491],[51.0661,44.99757],[51.07913,45.00357],[51.08985,45.01223],[51.10176,45.02259],[51.12053,45.03471],[51.14669,45.04746],[51.17288,45.05669],[51.19407,45.05846],[51.21214,45.05191],[51.2306,45.04012],[51.25016,45.03036],[51.2663,45.02986],[51.27278,45.03997],[51.26858,45.05627],[51.25841,45.07334],[51.24909,45.08821],[51.24622,45.10082],[51.25006,45.11236],[51.25536,45.12324],[51.25666,45.13327],[51.25324,45.14312],[51.24947,45.15329],[51.25017,45.16394],[51.25753,45.17748],[51.27174,45.19666],[51.28866,45.21899],[51.30715,45.24285],[51.33664,45.27463],[51.37488,45.31341],[51.40215,45.34626],[51.41312,45.36747],[51.42052,45.37649],[51.43482,45.3698],[51.46064,45.35276],[51.49845,45.33944],[51.54369,45.3376],[51.5885,45.34627],[51.62581,45.36136],[51.6527,45.37615],[51.67172,45.38466],[51.68779,45.38891],[51.70284,45.39625],[51.71664,45.41002],[51.72973,45.42704],[51.74303,45.44133],[51.7561,45.44744],[51.76767,45.44347],[51.7773,45.43239],[51.79014,45.41863],[51.81718,45.40559],[51.85668,45.39477],[51.89211,45.38464],[51.91768,45.37487],[51.94002,45.37039],[51.96334,45.37483],[51.98726,45.38378],[52.01092,45.38925],[52.03693,45.38815],[52.08374,45.38555],[52.18383,45.38868],[52.32322,45.39633],[52.43908,45.40144],[52.51865,45.39878],[52.60544,45.38336],[52.71294,45.35808],[52.80951,45.33523],[52.87591,45.3213],[52.92903,45.31549],[52.98309,45.31388],[53.03265,45.31021],[53.07321,45.30405],[53.10644,45.30179],[53.13653,45.30701],[53.16549,45.31595],[53.18847,45.32333],[53.20277,45.32885],[53.21286,45.33351],[53.22378,45.33544],[53.23594,45.33445],[53.24642,45.33397],[53.25444,45.33676],[53.26034,45.34288],[53.26214,45.35095],[53.25185,45.35981],[53.21867,45.36943],[53.17234,45.37928],[53.13948,45.38778],[53.12609,45.39438],[53.11762,45.39955],[53.10199,45.40398],[53.06856,45.41155],[53.00995,45.42762],[52.94241,45.44829],[52.89505,45.46373],[52.87202,45.47386],[52.85869,45.48325],[52.84656,45.49077],[52.8284,45.4961],[52.79862,45.50311],[52.76608,45.51354],[52.74544,45.52535],[52.73789,45.5363],[52.73461,45.54573],[52.73246,45.55456],[52.73364,45.56373],[52.73684,45.57265],[52.73829,45.58062],[52.73745,45.5894],[52.73685,45.60234],[52.73928,45.61948],[52.74698,45.63572],[52.76034,45.64695],[52.7764,45.65526],[52.79146,45.66711],[52.80724,45.6886],[52.82882,45.71986],[52.8538,45.7512],[52.87488,45.77182],[52.89187,45.78194],[52.90934,45.79017],[52.92906,45.8043],[52.94916,45.82646],[52.96733,45.85347],[52.9856,45.88064],[53.00659,45.904],[53.02616,45.92181],[53.03845,45.93575],[53.04518,45.94943],[53.05296,45.96499],[53.06399,45.98273],[53.07432,46.002],[53.07949,46.01929],[53.07951,46.03079],[53.07812,46.03849],[53.08029,46.04838],[53.08924,46.06315],[53.10129,46.0807],[53.11041,46.10146],[53.11787,46.13574],[53.12811,46.19326],[53.13725,46.26507],[53.13376,46.33199],[53.11068,46.38538],[53.07599,46.42593],[53.05187,46.45054],[53.05424,46.45545],[53.07388,46.44841],[53.08897,46.44373],[53.08871,46.44792],[53.07863,46.45938],[53.06998,46.47527],[53.0679,46.49104],[53.06805,46.49932],[53.06158,46.49619],[53.0441,46.48652],[53.02013,46.48117],[53.00168,46.48813],[53.0012,46.50724],[53.01702,46.53167],[53.0329,46.54914],[53.04215,46.55108],[53.0543,46.54479],[53.07196,46.54395],[53.08499,46.55438],[53.08985,46.57446],[53.09419,46.59505],[53.10306,46.60464],[53.1157,46.60501],[53.12981,46.60831],[53.14142,46.61769],[53.14949,46.62604],[53.15868,46.62906],[53.17203,46.62918],[53.18561,46.63086],[53.19322,46.63655],[53.19458,46.64743],[53.19379,46.66524],[53.18936,46.68795],[53.17549,46.70754],[53.15218,46.71922],[53.12606,46.72678],[53.10521,46.73748],[53.09312,46.75868],[53.08454,46.79447],[53.07294,46.83655],[53.06063,46.86855],[53.05083,46.88414],[53.03697,46.88877],[53.01422,46.89003],[52.98761,46.89611],[52.96114,46.91236],[52.93506,46.93276],[52.90447,46.94499],[52.8574,46.94581],[52.79038,46.94264],[52.71342,46.94196],[52.64288,46.94451],[52.59306,46.9507],[52.56139,46.96225],[52.53418,46.97615],[52.50305,46.98638],[52.47082,46.99089],[52.44682,46.99051],[52.43174,46.98507],[52.42154,46.97355],[52.41612,46.95567],[52.40756,46.93247],[52.38298,46.90742],[52.33854,46.88576],[52.28384,46.87206],[52.23714,46.86909],[52.20773,46.8733],[52.1902,46.87571],[52.17971,46.87135],[52.17915,46.86223],[52.18981,46.85314],[52.20459,46.84677],[52.21549,46.84209],[52.22197,46.83659],[52.22704,46.82898],[52.23146,46.81992],[52.2269,46.81121],[52.19561,46.80618],[52.14117,46.8076],[52.09556,46.81355],[52.07376,46.82045],[52.06465,46.82802],[52.05987,46.83646],[52.05702,46.8432],[52.05077,46.84846],[52.03633,46.85717],[52.01735,46.86936],[52.00198,46.88047],[51.99458,46.8902],[51.99722,46.89928],[52.00713,46.90702],[52.01447,46.91509],[52.01416,46.92382],[52.00927,46.92941],[52.00095,46.92651],[51.98705,46.91198],[51.96647,46.89201],[51.93945,46.8788],[51.90911,46.87699],[51.88525,46.88417],[51.87794,46.89794],[51.88213,46.91326],[51.88214,46.92309],[51.86998,46.92418],[51.84614,46.91772],[51.81521,46.90928],[51.78498,46.90649],[51.75972,46.91186],[51.73735,46.92296],[51.71366,46.93826],[51.69221,46.95861],[51.68426,46.9847],[51.68695,47.01259],[51.68434,47.03456],[51.67277,47.04631],[51.65905,47.04802],[51.64712,47.04049],[51.63766,47.02524],[51.62759,47.00652],[51.61149,46.99234],[51.58849,46.99171],[51.56337,47.00662],[51.54039,47.0278],[51.51706,47.04423],[51.48376,47.05475],[51.4311,47.06504],[51.35784,47.07887],[51.28023,47.09451],[51.22208,47.10473],[51.18353,47.1027],[51.14119,47.08968],[51.07937,47.07282],[51.01125,47.05683],[50.96161,47.04127],[50.93165,47.02657],[50.90766,47.01838],[50.88565,47.02014],[50.86874,47.02664],[50.85885,47.03064],[50.85279,47.03003],[50.84665,47.02647],[50.84347,47.02156],[50.84055,47.00984],[50.82081,46.97987],[50.78184,46.93957],[50.7473,46.91688],[50.73559,46.92011],[50.74218,46.93464],[50.75059,46.94994],[50.7518,46.96122],[50.74726,46.96381],[50.73484,46.95604],[50.71137,46.94199],[50.68215,46.93001],[50.65512,46.92541],[50.63583,46.92572],[50.62568,46.92136],[50.62053,46.90359],[50.61485,46.87639],[50.60516,46.85192],[50.59083,46.83629],[50.57691,46.83102],[50.57208,46.83669],[50.57668,46.84929],[50.57908,46.862],[50.57009,46.86993],[50.55225,46.87167],[50.53369,46.86897],[50.51885,46.86468],[50.50578,46.86202],[50.49149,46.86438],[50.47464,46.87263],[50.45679,46.88275],[50.44321,46.8895],[50.43624,46.89185],[50.43263,46.89122],[50.42682,46.88399],[50.41325,46.86276],[50.39371,46.83354],[50.37875,46.81789],[50.37276,46.82464],[50.3695,46.83781],[50.3648,46.84051],[50.35909,46.83266],[50.35233,46.822],[50.34352,46.81327],[50.33203,46.80785],[50.31992,46.8048],[50.31056,46.80216],[50.30202,46.79578],[50.28662,46.77843],[50.26193,46.7522],[50.23667,46.73278],[50.22183,46.7296],[50.2192,46.73736],[50.22023,46.74786],[50.2174,46.75595],[50.20968,46.7586],[50.19156,46.75147],[50.15378,46.72772],[50.10418,46.69052],[50.06351,46.65649],[50.03586,46.63661],[50.01056,46.62858],[49.98607,46.62608],[49.96807,46.62339],[49.9555,46.61693],[49.94226,46.60726],[49.92465,46.59671],[49.90423,46.58621],[49.88446,46.57765],[49.86514,46.5737],[49.84721,46.57166],[49.83478,46.56507],[49.82556,46.55365],[49.81188,46.54565],[49.79375,46.54742],[49.77905,46.55493],[49.7715,46.55914],[49.76811,46.55474],[49.76432,46.54399],[49.75583,46.53617],[49.74157,46.53843],[49.72602,46.5472],[49.71476,46.55392],[49.70952,46.55376],[49.70791,46.54543],[49.70166,46.5357],[49.68102,46.53979],[49.65215,46.55757],[49.63318,46.56664],[49.62746,46.55457],[49.62275,46.53464],[49.61323,46.52208],[49.60241,46.51516],[49.59099,46.50876],[49.5778,46.50816],[49.56205,46.51748],[49.53819,46.5316],[49.50776,46.54548],[49.48555,46.55957],[49.47814,46.57269],[49.47687,46.5761],[49.47451,46.5649],[49.47353,46.54671],[49.47928,46.52869],[49.48996,46.51247],[49.49547,46.50128],[49.48904,46.49739],[49.47547,46.49863],[49.46375,46.50238],[49.45954,46.50825],[49.46293,46.51616],[49.46683,46.52441],[49.46322,46.53112],[49.45153,46.5369],[49.43888,46.54274],[49.43206,46.54652],[49.43001,46.54586],[49.42553,46.54185],[49.4111,46.53885],[49.38459,46.54144],[49.35292,46.55088],[49.32732,46.56282],[49.31734,46.56525],[49.33022,46.54711],[49.35916,46.5155],[49.37735,46.49024],[49.36861,46.48023],[49.34628,46.48006],[49.32723,46.48517],[49.31366,46.49509],[49.30254,46.5067],[49.29212,46.51487],[49.28313,46.51698],[49.28089,46.51275],[49.28784,46.50199],[49.29781,46.48561],[49.30916,46.46692],[49.32847,46.44885],[49.35322,46.43307],[49.37163,46.42063],[49.37811,46.40963],[49.37256,46.39955],[49.35412,46.39663],[49.32754,46.40496],[49.30324,46.41953],[49.28559,46.43445],[49.27205,46.44752],[49.25949,46.457],[49.24625,46.46193],[49.2354,46.46262],[49.23308,46.45988],[49.24036,46.45468],[49.2501,46.44649],[49.25622,46.43377],[49.26364,46.41707],[49.27582,46.40098],[49.28236,46.39084],[49.27172,46.38877],[49.24211,46.39404],[49.20619,46.40205],[49.18254,46.40627],[49.1733,46.40407],[49.17114,46.39736],[49.17554,46.39013],[49.18536,46.38521],[49.19725,46.38103],[49.21083,46.37336],[49.22363,46.36077],[49.23139,46.34691],[49.23336,46.33622],[49.2328,46.3274],[49.23861,46.31388],[49.25836,46.29422],[49.28438,46.27538],[49.29996,46.26157],[49.29696,46.25226],[49.28092,46.24933],[49.26206,46.25344],[49.24405,46.26042],[49.22221,46.26732],[49.19393,46.27625],[49.16961,46.29009],[49.1607,46.30688],[49.15995,46.32037],[49.15376,46.32494],[49.14014,46.31863],[49.12137,46.30536],[49.102,46.29239],[49.08958,46.28221],[49.08383,46.27322],[49.07806,46.26526],[49.07124,46.25797],[49.07075,46.2507],[49.08179,46.24349],[49.09925,46.2314],[49.11392,46.20681],[49.11792,46.17615],[49.10842,46.15819],[49.09183,46.15955],[49.07651,46.17102],[49.06487,46.18256],[49.05561,46.18873],[49.04758,46.18861],[49.04031,46.1842],[49.03178,46.17791],[49.01724,46.17074],[48.99401,46.16111],[48.96802,46.14961],[48.95014,46.13952],[48.94524,46.12934],[48.94964,46.11702],[48.95516,46.1054],[48.95393,46.09563],[48.94573,46.08805],[48.93776,46.0871],[48.93273,46.09604],[48.92449,46.1117],[48.91019,46.12797],[48.89642,46.14013],[48.88986,46.14426],[48.89019,46.13773],[48.8906,46.1242],[48.88331,46.11524],[48.86785,46.11938],[48.852,46.13126],[48.843,46.13882],[48.84317,46.13527],[48.85289,46.12099],[48.86608,46.10118],[48.86902,46.08419],[48.85788,46.07907],[48.8434,46.08849],[48.83083,46.10465],[48.81811,46.11613],[48.81128,46.11561],[48.81669,46.1034],[48.82664,46.08584],[48.82864,46.06907],[48.82097,46.05836],[48.81188,46.05805],[48.80556,46.06686],[48.79474,46.08004],[48.77288,46.09503],[48.74552,46.10872],[48.72248,46.1153],[48.70627,46.11455],[48.69439,46.1133],[48.68642,46.11396],[48.68169,46.11236],[48.6779,46.10719],[48.675,46.10085],[48.67227,46.0942],[48.66556,46.08775],[48.65348,46.08316],[48.64428,46.07962],[48.64856,46.07468],[48.6654,46.06672],[48.68609,46.05357],[48.70521,46.03719],[48.72018,46.02432],[48.72788,46.0153],[48.72578,46.00552],[48.71576,45.99542],[48.70278,45.98808],[48.68904,45.98283],[48.67471,45.97688],[48.6623,45.97],[48.65468,45.96365],[48.65405,45.95884],[48.66319,45.95782],[48.68157,45.96103],[48.7051,45.96417],[48.72839,45.96386],[48.74608,45.95975],[48.75556,45.95125],[48.75672,45.93876],[48.75281,45.92563],[48.74975,45.91488],[48.75201,45.90683],[48.75911,45.89798],[48.76806,45.88246],[48.77716,45.86204],[48.78119,45.84778],[48.77542,45.84372],[48.76272,45.84211],[48.74699,45.83793],[48.73244,45.83226],[48.72176,45.82546],[48.71097,45.82193],[48.70028,45.82958],[48.69729,45.8467],[48.70185,45.86363],[48.70267,45.87386],[48.69165,45.87882],[48.67302,45.88476],[48.65623,45.89293],[48.64574,45.89898],[48.63949,45.9017],[48.63459,45.90368],[48.63177,45.90781],[48.63031,45.91499],[48.62419,45.92387],[48.60951,45.93518],[48.5903,45.94893],[48.57166,45.95836],[48.55347,45.95798],[48.53623,45.95108],[48.52237,45.94343],[48.50917,45.93784],[48.49384,45.93518],[48.47992,45.9344],[48.4695,45.93194],[48.45714,45.92312],[48.43774,45.9054],[48.41486,45.88449],[48.39497,45.87145],[48.38033,45.86883],[48.37052,45.86869],[48.365,45.86442],[48.3664,45.85687],[48.37909,45.85019],[48.39754,45.84521],[48.40165,45.83988],[48.3753,45.83518],[48.33253,45.83297],[48.30326,45.83066],[48.29438,45.82432],[48.29281,45.81314],[48.28979,45.79926],[48.28281,45.78602],[48.2706,45.77557],[48.25452,45.76828],[48.23984,45.76432],[48.2316,45.7627],[48.23002,45.75987],[48.23231,45.75353],[48.23689,45.74513],[48.24229,45.73533],[48.24331,45.72411],[48.2327,45.71737],[48.20922,45.72091],[48.18042,45.7286],[48.15272,45.7313],[48.12524,45.73232],[48.09946,45.73745],[48.08061,45.74113],[48.0661,45.73672],[48.05042,45.72728],[48.03585,45.71919],[48.02621,45.71351],[48.01892,45.70762],[48.00987,45.7036],[48.00002,45.70633],[47.99134,45.71311],[47.98323,45.71776],[47.97618,45.7204],[47.97106,45.72304],[47.96715,45.72487],[47.96363,45.72492],[47.95864,45.72317],[47.94966,45.71996],[47.93684,45.71478],[47.92242,45.70686],[47.90925,45.70059],[47.89877,45.70227],[47.88795,45.70965],[47.87503,45.71531],[47.86401,45.71609],[47.85771,45.71133],[47.85424,45.69924],[47.85058,45.68127],[47.84732,45.66437],[47.84843,45.65244],[47.85221,45.64207],[47.85158,45.63058],[47.84391,45.61966],[47.82997,45.61455],[47.81091,45.62313],[47.79233,45.64453],[47.77874,45.66597],[47.76529,45.67926],[47.74719,45.68672],[47.72974,45.69308],[47.71782,45.69926],[47.70987,45.70297],[47.70538,45.7037],[47.70346,45.70284],[47.70034,45.70104],[47.69412,45.69923],[47.68591,45.69862],[47.67732,45.69929],[47.66967,45.70145],[47.66461,45.70661],[47.66228,45.71484],[47.66003,45.72447],[47.65485,45.73403],[47.64458,45.74195],[47.62986,45.74797],[47.61395,45.75359],[47.59767,45.75912],[47.58125,45.76299],[47.56862,45.76296],[47.56311,45.7573],[47.56404,45.74799],[47.56974,45.74075],[47.5788,45.73875],[47.58926,45.73866],[47.59887,45.73443],[47.60466,45.72491],[47.60686,45.71546],[47.61091,45.71032],[47.61935,45.70807],[47.62762,45.70452],[47.63146,45.69753],[47.63234,45.68852],[47.632,45.67923],[47.62838,45.67088],[47.62165,45.66547],[47.61641,45.66352],[47.61543,45.66273],[47.617,45.65969],[47.61842,45.65205],[47.62198,45.64076],[47.63321,45.62859],[47.64622,45.61458],[47.65023,45.59685],[47.64775,45.57888],[47.64221,45.56676],[47.63105,45.5662],[47.61745,45.58037],[47.60236,45.605],[47.57917,45.63115],[47.54874,45.65118],[47.51841,45.66153],[47.49106,45.66614],[47.46796,45.6722],[47.45031,45.68124],[47.44101,45.69072],[47.44297,45.6993],[47.45101,45.70618],[47.46068,45.71035],[47.47401,45.71287],[47.48148,45.71671],[47.46753,45.72383],[47.44037,45.7337],[47.4196,45.74255],[47.40751,45.74648],[47.39865,45.74626],[47.39259,45.74428],[47.39155,45.74011],[47.39828,45.73203],[47.40993,45.72034],[47.41844,45.70838],[47.42155,45.69905],[47.42297,45.69177],[47.42441,45.68404],[47.42712,45.67619],[47.433,45.67152],[47.44073,45.67086],[47.44908,45.67146],[47.4583,45.66914],[47.46809,45.66174],[47.48274,45.6522],[47.50572,45.64435],[47.53051,45.63763],[47.54833,45.62996],[47.55685,45.62095],[47.56008,45.60982],[47.56339,45.59526],[47.56785,45.57977],[47.57081,45.56784],[47.56994,45.55971],[47.56486,45.55299],[47.55742,45.54693],[47.54923,45.54282],[47.53869,45.54404],[47.52568,45.55409],[47.5142,45.57019],[47.50572,45.5819],[47.49917,45.58192],[47.49603,45.57409],[47.49857,45.56384],[47.50785,45.54923],[47.52141,45.53022],[47.53222,45.51472],[47.53406,45.50615],[47.52518,45.49757],[47.51079,45.48483],[47.50062,45.47106],[47.49771,45.45723],[47.49649,45.44296],[47.48775,45.43176],[47.46387,45.42617],[47.42988,45.42363],[47.40241,45.41945],[47.39441,45.41267],[47.40819,45.40629],[47.43311,45.40167],[47.4517,45.39686],[47.45699,45.39019],[47.45345,45.38248],[47.44552,45.37562],[47.43634,45.37058],[47.42946,45.36679],[47.4241,45.36076],[47.41477,45.34677],[47.40058,45.32465],[47.38812,45.29785],[47.38127,45.26296],[47.3762,45.22323],[47.36776,45.19612],[47.35412,45.18867],[47.33621,45.19064],[47.317,45.1904],[47.30023,45.18036],[47.28688,45.15682],[47.27481,45.12378],[47.26193,45.0908],[47.24697,45.06095],[47.2302,45.02978],[47.21386,44.99973],[47.19834,44.98037],[47.1826,44.97152],[47.16801,44.9625],[47.15636,44.94933],[47.14696,44.9399],[47.13744,44.94089],[47.12577,44.9484],[47.11318,44.95384],[47.10456,44.94855],[47.10198,44.92239],[47.09899,44.87685],[47.09073,44.83217],[47.08212,44.80407],[47.07628,44.79199],[47.06785,44.79417],[47.05212,44.81091],[47.03317,44.83691],[47.01907,44.86593],[47.01025,44.89323],[47.00158,44.90954],[46.99311,44.90782],[46.98993,44.89202],[46.99419,44.8708],[47.00146,44.85006],[47.00354,44.83106],[46.99467,44.81083],[46.97778,44.78981],[46.95986,44.77582],[46.94142,44.7707],[46.91878,44.76513],[46.89355,44.75369],[46.87183,44.73947],[46.856,44.72496],[46.84168,44.71185],[46.82198,44.70282],[46.79582,44.69427],[46.76917,44.67987],[46.74642,44.66335],[46.72877,44.64704],[46.71745,44.62205],[46.71274,44.59081],[46.71377,44.56867],[46.71769,44.55797],[46.71941,44.55137],[46.71547,44.54688],[46.70655,44.5443],[46.69604,44.54132],[46.68766,44.53522],[46.68452,44.52242],[46.6878,44.50033],[46.69508,44.47326],[46.70402,44.44958],[46.71687,44.43149],[46.73531,44.41634],[46.75721,44.4043],[46.78256,44.39753],[46.81065,44.39583],[46.84343,44.39465],[46.89534,44.38732],[46.96314,44.37345],[47.01563,44.35862],[47.04154,44.34251],[47.0559,44.31963],[47.06797,44.29208],[47.07914,44.26842],[47.09131,44.2512],[47.10571,44.23723],[47.12091,44.22595],[47.1352,44.21813],[47.14949,44.21203],[47.16459,44.20704],[47.17931,44.20646],[47.19366,44.21263],[47.20891,44.22078],[47.22598,44.21988],[47.24552,44.19944],[47.26737,44.15762],[47.29062,44.10736],[47.31315,44.06754],[47.33216,44.04447],[47.34789,44.02792],[47.365,44.0027],[47.38617,43.96665],[47.40655,43.93248],[47.42024,43.90763],[47.42885,43.89001],[47.43853,43.878],[47.45004,43.86933],[47.45706,43.85995],[47.45549,43.84754],[47.44969,43.83409],[47.44815,43.82524],[47.45516,43.82329],[47.46765,43.82387],[47.48031,43.82004],[47.49087,43.8072],[47.49815,43.78887],[47.49851,43.77394],[47.48927,43.76536],[47.47429,43.75948],[47.46079,43.75324],[47.4513,43.74512],[47.44513,43.73265],[47.44424,43.71472],[47.44762,43.6964],[47.44816,43.68409],[47.44293,43.67759],[47.43458,43.67132],[47.4236,43.65838],[47.40935,43.63806],[47.39419,43.62128],[47.38168,43.61662],[47.37337,43.61774],[47.36913,43.61348],[47.36917,43.59999],[47.37355,43.58134],[47.38143,43.56438],[47.39124,43.5519],[47.39963,43.54066],[47.40492,43.52765],[47.41221,43.51603],[47.42682,43.51377],[47.44573,43.52729],[47.46177,43.55575],[47.47141,43.59057],[47.476,43.62066],[47.47908,43.64041],[47.48359,43.65239],[47.49059,43.66215],[47.49833,43.67403],[47.50342,43.6905],[47.5062,43.70999],[47.51167,43.72979],[47.52162,43.7514],[47.53204,43.77675],[47.53909,43.80404],[47.5423,43.82954],[47.544,43.85],[47.5493,43.86559],[47.56248,43.87953],[47.58146,43.89165],[47.60239,43.89823],[47.62589,43.89856],[47.65182,43.89436],[47.67229,43.88414],[47.67214,43.86142],[47.64383,43.81594],[47.59911,43.73856],[47.55546,43.63747],[47.5216,43.54174],[47.49905,43.47191],[47.48819,43.42293],[47.48748,43.38396],[47.49012,43.353],[47.49046,43.33014],[47.49123,43.31294],[47.49831,43.30239],[47.51333,43.3033],[47.53302,43.31374],[47.55209,43.3243],[47.56672,43.32893],[47.57614,43.32717],[47.58165,43.32048],[47.58426,43.31112],[47.58379,43.30155],[47.58004,43.29277],[47.57312,43.28283],[47.56165,43.27025],[47.54416,43.257],[47.52355,43.2444],[47.5051,43.23094],[47.49209,43.21565],[47.48626,43.19962],[47.4854,43.18451],[47.48405,43.17146],[47.48138,43.15999],[47.48048,43.14894],[47.48114,43.13812],[47.47951,43.12753],[47.47298,43.11698],[47.4639,43.10655],[47.45766,43.09239],[47.46119,43.06465],[47.48451,43.02128],[47.5277,42.97758],[47.57044,42.94825],[47.59575,42.93125],[47.61301,42.91648],[47.64054,42.89778],[47.67492,42.87672],[47.69821,42.85809],[47.70707,42.84336],[47.71028,42.82939],[47.71256,42.80953],[47.71487,42.78435],[47.71715,42.76483],[47.71833,42.75449],[47.71772,42.74445],[47.71716,42.72581],[47.72104,42.69755],[47.73689,42.66582],[47.77234,42.63592],[47.82333,42.60384],[47.87871,42.55693],[47.93367,42.49401],[47.98478,42.43526],[48.02919,42.39506],[48.07314,42.35904],[48.1286,42.29949],[48.19284,42.22011],[48.24598,42.15736],[48.27933,42.12382],[48.29905,42.10224],[48.31027,42.08154],[48.32098,42.05537],[48.34322,42.01382],[48.37922,41.9626],[48.42078,41.92356],[48.46385,41.90341],[48.50738,41.88936],[48.54471,41.87237],[48.5688,41.85565],[48.58256,41.84435],[48.59805,41.83485],[48.62656,41.81617],[48.67235,41.77876],[48.72562,41.73008],[48.76656,41.69053],[48.79158,41.66278],[48.81885,41.62985],[48.85759,41.58532],[48.89545,41.54392],[48.92185,41.51845],[48.93933,41.50353],[48.95312,41.4892],[48.96652,41.47285],[48.97939,41.45728],[48.99,41.44647],[49.00103,41.44023],[49.01484,41.43478],[49.0305,41.42399],[49.05069,41.39921],[49.07698,41.3605],[49.1027,41.32214],[49.12148,41.29458],[49.13397,41.26967],[49.14375,41.23295],[49.15296,41.18873],[49.16198,41.15618],[49.17122,41.13595],[49.18417,41.10691],[49.21237,41.05525],[49.26553,40.98765],[49.32653,40.92567],[49.36678,40.88697],[49.38824,40.86681],[49.41177,40.85179],[49.44141,40.83963],[49.46831,40.83086],[49.48957,40.82112],[49.50812,40.80917],[49.52377,40.79718],[49.53185,40.78252],[49.52948,40.76076],[49.52094,40.73517],[49.51378,40.7139],[49.51123,40.69964],[49.51283,40.6893],[49.51812,40.68002],[49.52503,40.67164],[49.53035,40.66538],[49.53502,40.65998],[49.54364,40.65225],[49.55778,40.64209],[49.57601,40.63283],[49.59907,40.62669],[49.62582,40.62261],[49.65107,40.61705],[49.67479,40.6068],[49.70138,40.59362],[49.73383,40.5825],[49.77191,40.57457],[49.80874,40.56877],[49.83946,40.5671],[49.87027,40.57173],[49.91027,40.57957],[49.96331,40.58417],[50.0179,40.58282],[50.05238,40.5776],[50.06438,40.57094],[50.06945,40.56336],[50.07784,40.55358],[50.09185,40.54136],[50.11441,40.52877],[50.15157,40.51705],[50.19681,40.50569],[50.2308,40.49344],[50.24897,40.47789],[50.26242,40.45905],[50.27812,40.44157],[50.29665,40.4288],[50.31623,40.41779],[50.33415,40.40366],[50.34879,40.38158],[50.36036,40.34665],[50.36986,40.30602],[50.37804,40.27504],[50.38459,40.25477],[50.387,40.24014],[50.38147,40.2373],[50.36703,40.25084],[50.34494,40.27386],[50.31555,40.2984],[50.28281,40.31968],[50.25252,40.33405],[50.22213,40.34244],[50.18774,40.34887],[50.15533,40.35444],[50.13195,40.35733],[50.11638,40.3568],[50.10249,40.35448],[50.08421,40.3522],[50.06011,40.34866],[50.0336,40.341],[50.00869,40.33177],[49.98911,40.32819],[49.97568,40.33299],[49.96521,40.34198],[49.95432,40.34978],[49.93949,40.35519],[49.9189,40.35989],[49.89488,40.36149],[49.8713,40.35407],[49.85213,40.33679],[49.83558,40.31517],[49.81037,40.2948],[49.76829,40.27725],[49.71213,40.25967],[49.65091,40.24],[49.59663,40.2201],[49.55643,40.20058],[49.52775,40.18151],[49.50774,40.16516],[49.49684,40.14957],[49.4937,40.13068],[49.49127,40.11076],[49.47854,40.09365],[49.45647,40.07812],[49.44084,40.0613],[49.43995,40.04332],[49.44819,40.02732],[49.45914,40.0156],[49.46978,40.00675],[49.47751,39.99833],[49.47982,39.99014],[49.47553,39.98272],[49.46566,39.97534],[49.45378,39.96802],[49.44352,39.96177],[49.43566,39.95533],[49.42958,39.94664],[49.42589,39.9358],[49.42611,39.92245],[49.43067,39.90587],[49.43676,39.88863],[49.43942,39.87431],[49.43644,39.86357],[49.42986,39.85558],[49.42307,39.84909],[49.41832,39.84249],[49.41651,39.83546],[49.41738,39.82895],[49.41956,39.82303],[49.42097,39.81704],[49.41932,39.8109],[49.41308,39.80396],[49.40435,39.79504],[49.39831,39.78512],[49.39715,39.77609],[49.39824,39.76692],[49.40081,39.75495],[49.40775,39.7395],[49.41617,39.72348],[49.41658,39.71058],[49.40442,39.6996],[49.38352,39.68567],[49.36015,39.66689],[49.33951,39.64536],[49.325,39.62407],[49.31571,39.60456],[49.30731,39.58553],[49.29842,39.56499],[49.29122,39.543],[49.28786,39.52037],[49.29491,39.49505],[49.32259,39.46295],[49.36355,39.42828],[49.39392,39.40284],[49.40522,39.38966],[49.40611,39.38105],[49.40329,39.36883],[49.40068,39.35196],[49.40063,39.33713],[49.4,39.32993],[49.39488,39.33038],[49.38688,39.33567],[49.37947,39.3425],[49.37377,39.34702],[49.37109,39.34487],[49.37347,39.33486],[49.38124,39.32092],[49.3921,39.30795],[49.40013,39.29856],[49.39826,39.29458],[49.38647,39.2977],[49.36918,39.30805],[49.34455,39.32267],[49.31123,39.3328],[49.27795,39.32809],[49.25426,39.30273],[49.242,39.25551],[49.23704,39.20049],[49.23326,39.15975],[49.22687,39.13392],[49.21884,39.11044],[49.21221,39.08525],[49.20728,39.05964],[49.1974,39.03486],[49.17117,39.00972],[49.12872,38.98672],[49.08788,38.97602],[49.06378,38.98047],[49.05561,38.99092],[49.05542,39.00014],[49.0611,39.00779],[49.07708,39.01498],[49.10101,39.02238],[49.12239,39.03191],[49.13615,39.04581],[49.14311,39.06366],[49.14231,39.08236],[49.13079,39.09782],[49.10852,39.10766],[49.08454,39.11602],[49.0697,39.13106],[49.06249,39.15232],[49.05393,39.17061],[49.03847,39.18132],[49.01519,39.18591],[48.98993,39.18583],[48.97194,39.18186],[48.96273,39.17445],[48.95703,39.16449],[48.9524,39.15411],[48.94969,39.14478],[48.94817,39.13648],[48.94578,39.13005],[48.94205,39.12661],[48.93824,39.12241],[48.93568,39.10864],[48.93601,39.08335],[48.94048,39.0555],[48.94461,39.02777],[48.94041,38.99334],[48.92813,38.95513],[48.91466,38.92414],[48.90232,38.90235],[48.88697,38.88586],[48.86557,38.87257],[48.8452,38.85853],[48.83562,38.84024],[48.83707,38.81879],[48.84569,38.78523],[48.85762,38.71363],[48.86735,38.60102],[48.87253,38.49091],[48.87433,38.41535],[48.87339,38.36318],[48.87174,38.32159],[48.87338,38.28526],[48.88074,38.24141],[48.89483,38.17515],[48.91478,38.08641],[48.93295,38.00357],[48.94123,37.95255],[48.94301,37.92559],[48.94801,37.90395],[48.96075,37.87935],[48.97606,37.85392],[48.98462,37.83497],[48.98602,37.82193],[48.98862,37.80422],[49.00036,37.77403],[49.02756,37.73116],[49.0738,37.68024],[49.14135,37.62743],[49.23372,37.57623],[49.3594,37.52973],[49.53102,37.4929],[49.71638,37.47017],[49.84315,37.46353],[49.90058,37.46661],[49.93216,37.46771],[49.95271,37.46391],[49.95694,37.46073],[49.95067,37.46008],[49.94838,37.45725],[49.97232,37.44661],[50.03676,37.42809],[50.11961,37.40706],[50.18261,37.38577],[50.21392,37.36172],[50.22631,37.33552],[50.23441,37.30985],[50.24441,37.28586],[50.25671,37.26268],[50.27299,37.2341],[50.2957,37.19688],[50.327,37.15802],[50.37023,37.12086],[50.42123,37.08293],[50.46499,37.05028],[50.49927,37.02798],[50.54235,37.00627],[50.59568,36.98092],[50.63767,36.9613],[50.66331,36.94761],[50.69274,36.92962],[50.75498,36.89672],[50.8609,36.84434],[50.99363,36.78533],[51.15184,36.73535],[51.34263,36.69384],[51.54188,36.65594],[51.7293,36.6236],[51.90995,36.60672],[52.08725,36.61632],[52.26044,36.64708],[52.43281,36.68182],[52.60624,36.71319],[52.77863,36.74544],[52.95866,36.78345],[53.15985,36.82608],[53.37211,36.86386],[53.58509,36.8889],[53.78561,36.90635],[53.92577,36.92225],[53.98248,36.9287],[53.97968,36.91914],[53.94029,36.90328],[53.88711,36.89114],[53.84462,36.88296],[53.81881,36.87863],[53.79985,36.87888],[53.77995,36.88051],[53.75882,36.87928],[53.73549,36.87576],[53.70401,36.8741],[53.66413,36.87457],[53.63215,36.87292],[53.6242,36.86826],[53.63518,36.86404],[53.64599,36.86146],[53.64716,36.85768],[53.64991,36.84872],[53.67569,36.83417],[53.73636,36.819],[53.81134,36.80751],[53.87069,36.80168],[53.9227,36.80478],[53.97821,36.81647],[54.01671,36.83663],[54.02983,36.87346],[54.03025,36.92158],[54.02401,36.95701],[54.01266,36.97278],[54.0036,36.9836],[54.0031,37.00132],[54.00422,37.02775],[53.99584,37.06271],[53.97783,37.11119],[53.95606,37.17108],[53.93638,37.22782],[53.92334,37.27597],[53.91589,37.3233],[53.90908,37.37929],[53.89945,37.44402],[53.887,37.50136],[53.87473,37.54161],[53.8638,37.58071],[53.84939,37.65593],[53.83024,37.79109],[53.816,37.94114],[53.81459,38.03882],[53.82351,38.09027],[53.83689,38.13861],[53.84929,38.19019],[53.85762,38.233],[53.86259,38.27163],[53.86447,38.31607],[53.86275,38.35907],[53.85851,38.38707],[53.85321,38.40175],[53.84845,38.41293],[53.84431,38.42873],[53.8387,38.45602],[53.83256,38.49513],[53.83114,38.54257],[53.83709,38.59427],[53.85037,38.64286],[53.87241,38.68724],[53.89821,38.73073],[53.91574,38.76886],[53.92347,38.7962],[53.93002,38.81529],[53.93809,38.83238],[53.94609,38.85006],[53.95491,38.86723],[53.96498,38.88377],[53.97346,38.89908],[53.97652,38.91074],[53.97372,38.92035],[53.96574,38.93174],[53.95133,38.94343],[53.93449,38.95195],[53.92345,38.95784],[53.91896,38.96294],[53.91562,38.96721],[53.91006,38.97035],[53.903,38.97298],[53.8967,38.97629],[53.89156,38.98154],[53.8872,38.98916],[53.88339,38.99911],[53.87843,39.0115],[53.86869,39.02411],[53.85045,39.03303],[53.82567,39.03785],[53.8031,39.04057],[53.78805,39.04102],[53.77863,39.0386],[53.77186,39.03552],[53.76523,39.036],[53.75625,39.04475],[53.74434,39.06453],[53.73179,39.08851],[53.72181,39.10232],[53.7166,39.10008],[53.71748,39.08814],[53.72297,39.07481],[53.72759,39.06529],[53.72554,39.06249],[53.71601,39.06782],[53.70521,39.08093],[53.69988,39.09993],[53.6992,39.12088],[53.69899,39.13858],[53.70121,39.15111],[53.7084,39.16083],[53.71326,39.17024],[53.71101,39.18315],[53.70941,39.20332],[53.70884,39.22254],[53.69875,39.22684],[53.68141,39.21683],[53.67114,39.19742],[53.67235,39.16314],[53.67435,39.12462],[53.66681,39.10978],[53.65208,39.12099],[53.63926,39.13938],[53.63216,39.15725],[53.62701,39.17414],[53.61918,39.18726],[53.6108,39.19707],[53.60727,39.2079],[53.60716,39.22087],[53.60482,39.23197],[53.59845,39.23518],[53.58911,39.22657],[53.57867,39.21231],[53.57039,39.20782],[53.56796,39.22296],[53.57122,39.25216],[53.57384,39.27938],[53.57331,39.29718],[53.57432,39.31166],[53.57511,39.32314],[53.57014,39.32803],[53.56356,39.33251],[53.56069,39.34115],[53.55709,39.34712],[53.54795,39.34474],[53.53609,39.33889],[53.52306,39.3355],[53.50393,39.33298],[53.47895,39.3282],[53.45788,39.32385],[53.44662,39.32541],[53.4412,39.33132],[53.43571,39.3332],[53.42768,39.32792],[53.41701,39.32008],[53.40527,39.31471],[53.39709,39.31497],[53.39572,39.32188],[53.39659,39.33128],[53.39271,39.33694],[53.38456,39.33815],[53.37708,39.33758],[53.37153,39.33588],[53.36657,39.33357],[53.36209,39.33293],[53.35777,39.3356],[53.35235,39.3399],[53.34381,39.34169],[53.3299,39.33902],[53.31284,39.33496],[53.30005,39.3344],[53.2957,39.33844],[53.29588,39.34408],[53.29382,39.34837],[53.28676,39.35071],[53.27613,39.35252],[53.26386,39.3558],[53.25055,39.3603],[53.23374,39.36282],[53.20896,39.36037],[53.18216,39.35272],[53.17096,39.34195],[53.17821,39.33043],[53.18525,39.31808],[53.18161,39.30361],[53.1747,39.28781],[53.1721,39.27022],[53.17453,39.24709],[53.17808,39.2195],[53.17724,39.19619],[53.16965,39.19245],[53.15668,39.22485],[53.14033,39.28391],[53.12089,39.33763],[53.1018,39.37374],[53.09217,39.39885],[53.09607,39.41729],[53.10916,39.43273],[53.12426,39.44738],[53.13489,39.46059],[53.14151,39.47264],[53.1502,39.48509],[53.16454,39.50313],[53.18537,39.53623],[53.21237,39.58344],[53.2435,39.62698],[53.27382,39.65125],[53.29219,39.6559],[53.29008,39.64816],[53.2737,39.63316],[53.25598,39.61427],[53.24373,39.59519],[53.23544,39.57843],[53.227,39.56361],[53.22182,39.54804],[53.23491,39.53428],[53.28032,39.52967],[53.34805,39.53265],[53.40726,39.53363],[53.44086,39.52773],[53.45692,39.51645],[53.46805,39.50318],[53.47988,39.49142],[53.49532,39.48312],[53.5172,39.47786],[53.54266,39.47385],[53.56299,39.47113],[53.57407,39.47234],[53.57846,39.47852],[53.57886,39.4869],[53.57593,39.49415],[53.57095,39.50046],[53.569,39.50894],[53.57483,39.51746],[53.58678,39.51792],[53.60109,39.50948],[53.61756,39.50192],[53.63774,39.50368],[53.65995,39.5123],[53.6799,39.51836],[53.6967,39.51736],[53.71169,39.51354],[53.72364,39.5134],[53.72995,39.51896],[53.72908,39.52762],[53.72132,39.53631],[53.70637,39.54402],[53.68288,39.55158],[53.65707,39.55994],[53.64271,39.56839],[53.64381,39.57601],[53.64984,39.58411],[53.65069,39.59457],[53.64433,39.6062],[53.63089,39.615],[53.60954,39.61879],[53.58613,39.62111],[53.57136,39.62788],[53.56592,39.63974],[53.56202,39.65259],[53.55515,39.66395],[53.54622,39.67078],[53.53957,39.66669],[53.53754,39.6523],[53.53477,39.64162],[53.52261,39.64841],[53.49946,39.66954],[53.47354,39.68895],[53.45581,39.6955],[53.45064,39.69022],[53.4512,39.68205],[53.44763,39.67953],[53.43934,39.68123],[53.43371,39.67825],[53.43599,39.66639],[53.44117,39.65171],[53.43787,39.64635],[53.42666,39.66143],[53.42016,39.69713],[53.4198,39.73476],[53.41582,39.75421],[53.40581,39.758],[53.3947,39.75957],[53.38856,39.76421],[53.39617,39.77481],[53.42267,39.79741],[53.45806,39.82923],[53.48338,39.856],[53.49093,39.87085],[53.48921,39.87904],[53.48911,39.88496],[53.49491,39.88906],[53.50628,39.89177],[53.5201,39.89433],[53.53053,39.89823],[53.53357,39.90371],[53.53175,39.90967],[53.53205,39.91645],[53.53925,39.92567],[53.55152,39.93756],[53.56296,39.95053],[53.56882,39.96084],[53.56886,39.96527],[53.56632,39.96523],[53.56276,39.96468],[53.55582,39.96683],[53.5425,39.97158],[53.52208,39.97548],[53.4978,39.97827],[53.47476,39.98403],[53.4549,39.99313],[53.43699,40.00118],[53.41964,40.0053],[53.40229,40.0054],[53.38358,40.00004],[53.36044,39.98669],[53.33508,39.96937],[53.31525,39.95674],[53.30244,39.94992],[53.29219,39.94517],[53.28242,39.94304],[53.27193,39.94519],[53.26013,39.94988],[53.24519,39.95665],[53.22044,39.96892],[53.18732,39.98301],[53.15898,39.98806],[53.13672,39.98304],[53.10881,39.9764],[53.07893,39.97422],[53.06385,39.97755],[53.06526,39.9838],[53.06789,39.98865],[53.05408,39.98812],[53.01974,39.98293],[52.98035,39.9812],[52.95024,39.98991],[52.92941,40.0044],[52.91341,40.0123],[52.90239,40.00837],[52.89997,39.99707],[52.90611,39.98266],[52.91538,39.96439],[52.92324,39.93928],[52.93117,39.90997],[52.94352,39.88437],[52.96137,39.86285],[52.9842,39.83757],[53.01108,39.80769],[53.03527,39.78341],[53.04608,39.77195],[53.03934,39.77134],[53.02708,39.77334],[53.0265,39.76784],[53.03338,39.75692],[53.02979,39.75433],[53.01266,39.76692],[52.99099,39.79168],[52.9693,39.8206],[52.94688,39.8439],[52.92498,39.8604],[52.90836,39.87775],[52.89841,39.90064],[52.88589,39.92791],[52.85507,39.9597],[52.80715,39.99544],[52.76612,40.02937],[52.7478,40.06032],[52.74689,40.09064],[52.75312,40.11671],[52.75962,40.13662],[52.76053,40.15496],[52.75298,40.17497],[52.74339,40.19416],[52.73826,40.20924],[52.73188,40.2234],[52.7191,40.24442],[52.70896,40.28375],[52.71322,40.3539],[52.73051,40.4409],[52.75382,40.51109],[52.78468,40.56127],[52.82155,40.60868],[52.85015,40.65236],[52.85982,40.68255],[52.85312,40.69822],[52.84018,40.70596],[52.83172,40.71331],[52.83118,40.72342],[52.83387,40.73404],[52.83548,40.74168],[52.83842,40.74685],[52.84664,40.75148],[52.85748,40.7554],[52.86515,40.75953],[52.86787,40.7662],[52.86707,40.77504],[52.86613,40.7878],[52.87217,40.81637],[52.8899,40.86758],[52.91085,40.92801],[52.92115,40.98436],[52.92078,41.03338],[52.92203,41.06589],[52.93209,41.07505],[52.94653,41.06945],[52.95746,41.05977],[52.96184,41.04917],[52.96142,41.03802],[52.95998,41.02638],[52.96384,41.0114],[52.9787,40.98918],[53.00028,40.96126],[53.01829,40.93286],[53.0318,40.90737],[53.04697,40.88738],[53.06418,40.87447],[53.08053,40.86819],[53.09592,40.86696],[53.10813,40.86776],[53.11098,40.86619],[53.10131,40.86019],[53.085,40.85153],[53.07342,40.84159],[53.07291,40.83113],[53.08094,40.8216],[53.09129,40.81279],[53.09891,40.80367],[53.1027,40.79406],[53.10548,40.78449],[53.11282,40.77649],[53.13032,40.77141],[53.15603,40.76965],[53.18315,40.77341],[53.21115,40.78578],[53.2377,40.80077],[53.25192,40.80426],[53.25214,40.79335],[53.25495,40.78021],[53.27641,40.77468],[53.30922,40.77683],[53.33208,40.78346],[53.3396,40.79288],[53.34229,40.80401],[53.34808,40.81578],[53.3581,40.8261],[53.3694,40.8314],[53.37739,40.82961],[53.37934,40.82147],[53.37775,40.80917],[53.37884,40.79476],[53.3867,40.7795],[53.40111,40.76564],[53.41894,40.75579],[53.43567,40.74975],[53.44908,40.74483],[53.46059,40.74013],[53.47159,40.73766],[53.4822,40.73878],[53.49457,40.74334],[53.51244,40.75129],[53.53362,40.7625],[53.54975,40.77832],[53.55719,40.80136],[53.56121,40.82972],[53.56907,40.85764],[53.58145,40.87945],[53.59392,40.89081],[53.6048,40.89297],[53.6149,40.89082],[53.62377,40.88665],[53.63051,40.88143],[53.63596,40.8765],[53.64237,40.87237],[53.64958,40.86852],[53.65439,40.8642],[53.65527,40.85906],[53.6535,40.85362],[53.65144,40.8477],[53.65154,40.83906],[53.65501,40.82773],[53.66034,40.81715],[53.66339,40.80806],[53.6613,40.79898],[53.65671,40.78989],[53.65595,40.77795],[53.66288,40.75811],[53.67548,40.73342],[53.68899,40.71437],[53.70073,40.70525],[53.71029,40.70092],[53.71731,40.69577],[53.72013,40.68775],[53.71718,40.67636],[53.71188,40.66206],[53.71373,40.64679],[53.7309,40.63467],[53.76427,40.62951],[53.80732,40.62976],[53.84768,40.63292],[53.87759,40.64104],[53.90253,40.65402],[53.92686,40.66596],[53.94683,40.67123],[53.96446,40.66927],[53.98549,40.66433],[54.00844,40.66202],[54.03033,40.66464],[54.05201,40.67028],[54.07175,40.67663],[54.08489,40.68321],[54.0908,40.68991],[54.09048,40.69602],[54.0824,40.70184],[54.07277,40.70795],[54.07865,40.71277],[54.1055,40.71605],[54.14159,40.72042],[54.1791,40.72544],[54.21157,40.72718],[54.22777,40.72341],[54.22776,40.71389],[54.22262,40.70164],[54.22193,40.69195],[54.23961,40.68534],[54.28876,40.68029],[54.3471,40.67896],[54.3747,40.68292],[54.37662,40.69055],[54.38559,40.70011],[54.40011,40.70985],[54.39121,40.71723],[54.35673,40.72131],[54.32584,40.72575],[54.31232,40.73566],[54.30618,40.75207],[54.29831,40.77313],[54.28781,40.79676],[54.27782,40.81914],[54.27087,40.83608],[54.26783,40.84705],[54.26843,40.85433],[54.27072,40.86008],[54.27208,40.86549],[54.2705,40.87029],[54.26522,40.8732],[54.25748,40.87488],[54.25072,40.87828],[54.24838,40.88403],[54.25133,40.88906],[54.2578,40.89149],[54.26653,40.89389],[54.27898,40.90082],[54.29551,40.91198],[54.31424,40.92089],[54.33773,40.92063],[54.37062,40.90887],[54.40768,40.89169],[54.4378,40.87719],[54.45581,40.86488],[54.46042,40.85085],[54.4559,40.83535],[54.46269,40.82281],[54.50245,40.8195],[54.56347,40.82562],[54.61227,40.83509],[54.64067,40.84627],[54.66432,40.86078],[54.69013,40.87757],[54.71518,40.89834],[54.73676,40.92364],[54.75098,40.94689],[54.75563,40.9649],[54.75346,40.97963],[54.74772,40.99151]]]}}]}