{"type":"FeatureCollection","meta":{"year":2020,"level_m":-28.24,"reference_year":2015,"reference_level_m":-27.85,"status":"semi","model":"cross-shore translation: retreat = Δlevel / tan(β)","source_id":"model","projected":false},"features":[{"type":"Feature","properties":{"year":2020,"level_m":-28.24},"geometry":{"type":"Polygon","coordinates":[[[54.73636,41.00423],[54.71777,41.02431],[54.69665,41.04693],[54.68428,41.06213],[54.68684,41.06764],[54.70348,41.06498],[54.72845,41.05598],[54.74894,41.04784],[54.75286,41.04809],[54.74344,41.0555],[54.7323,41.06456],[54.72453,41.07272],[54.71997,41.07963],[54.71845,41.08583],[54.7199,41.09199],[54.7236,41.09708],[54.72669,41.10027],[54.72363,41.10445],[54.71012,41.11202],[54.68755,41.12022],[54.66275,41.1281],[54.64201,41.14125],[54.61241,41.1689],[54.54228,41.21882],[54.43576,41.28],[54.34403,41.32633],[54.29069,41.35252],[54.25392,41.37264],[54.22068,41.3909],[54.1971,41.40446],[54.18302,41.41647],[54.17041,41.43153],[54.15512,41.44746],[54.13609,41.4592],[54.11342,41.46739],[54.0916,41.47645],[54.07389,41.4895],[54.05819,41.5091],[54.0435,41.53684],[54.03246,41.57413],[54.02635,41.62353],[54.02227,41.67909],[54.01593,41.72702],[54.00323,41.76578],[53.98158,41.80482],[53.95675,41.84288],[53.93925,41.86917],[53.92966,41.88166],[53.92117,41.88709],[53.9118,41.89088],[53.90416,41.89637],[53.9007,41.90478],[53.9017,41.91455],[53.90491,41.92409],[53.90711,41.93366],[53.90655,41.94486],[53.90499,41.95896],[53.90628,41.97538],[53.91062,41.99224],[53.91399,42.0084],[53.91388,42.02499],[53.91051,42.04305],[53.9029,42.06164],[53.88673,42.08071],[53.85743,42.10085],[53.81631,42.11869],[53.77037,42.12935],[53.70876,42.13239],[53.59832,42.12636],[53.4539,42.10976],[53.3428,42.09186],[53.27896,42.08441],[53.22499,42.08778],[53.17056,42.09152],[53.12485,42.08439],[53.08431,42.0639],[53.03672,42.03224],[52.9777,41.98393],[52.91238,41.90789],[52.85169,41.81991],[52.81075,41.76018],[52.79135,41.73581],[52.7814,41.72057],[52.77452,41.7007],[52.77189,41.68054],[52.77656,41.66954],[52.79049,41.67359],[52.81248,41.68684],[52.84083,41.69624],[52.87185,41.69544],[52.89673,41.68682],[52.90883,41.67401],[52.90879,41.65899],[52.90255,41.64376],[52.89769,41.62991],[52.8974,41.61641],[52.89921,41.6016],[52.89571,41.57827],[52.87793,41.53252],[52.85016,41.4712],[52.82824,41.42233],[52.81777,41.3955],[52.81479,41.37939],[52.81784,41.36257],[52.82558,41.33581],[52.8345,41.29664],[52.84535,41.25174],[52.86396,41.2052],[52.88706,41.16025],[52.90014,41.12505],[52.89748,41.09921],[52.88807,41.07648],[52.88059,41.06014],[52.87467,41.05571],[52.86671,41.06086],[52.85719,41.06965],[52.85024,41.08021],[52.84864,41.09587],[52.85046,41.11763],[52.85105,41.14098],[52.84788,41.16232],[52.84156,41.18104],[52.83389,41.19602],[52.82591,41.20683],[52.81844,41.21534],[52.81324,41.22438],[52.8113,41.23615],[52.81003,41.2527],[52.80484,41.27708],[52.79547,41.30554],[52.7852,41.32886],[52.77384,41.34826],[52.76033,41.36795],[52.7464,41.38262],[52.73408,41.39003],[52.72482,41.39616],[52.71936,41.40508],[52.71637,41.41548],[52.7128,41.42505],[52.70577,41.43397],[52.69412,41.44267],[52.67835,41.44962],[52.6597,41.4561],[52.63862,41.46778],[52.61606,41.48491],[52.59507,41.50012],[52.57805,41.51141],[52.5665,41.52365],[52.56298,41.53818],[52.5682,41.55358],[52.57759,41.56912],[52.58441,41.58355],[52.58673,41.5975],[52.58756,41.61154],[52.58949,41.62347],[52.592,41.6324],[52.59283,41.63935],[52.59116,41.64491],[52.58787,41.64916],[52.5836,41.6531],[52.57829,41.65979],[52.57225,41.67004],[52.56615,41.67995],[52.55935,41.68626],[52.55017,41.68899],[52.53916,41.69045],[52.52894,41.69396],[52.52034,41.70026],[52.51112,41.70756],[52.49934,41.71543],[52.48566,41.72356],[52.47044,41.73079],[52.4544,41.73898],[52.44243,41.75182],[52.44098,41.77314],[52.45269,41.80808],[52.47075,41.85428],[52.48194,41.89927],[52.48078,41.93426],[52.47208,41.95877],[52.46133,41.97469],[52.45096,41.98481],[52.44181,41.99286],[52.43524,42.00351],[52.43299,42.02023],[52.43371,42.03996],[52.43176,42.05683],[52.42334,42.0721],[52.41434,42.08944],[52.41356,42.10786],[52.4196,42.12627],[52.42577,42.14498],[52.43107,42.16266],[52.43899,42.17701],[52.45153,42.18716],[52.46924,42.19868],[52.49615,42.22462],[52.53351,42.26762],[52.56895,42.30898],[52.58931,42.33325],[52.59659,42.34641],[52.59878,42.35955],[52.59969,42.37429],[52.60277,42.388],[52.61238,42.40136],[52.62681,42.41527],[52.6384,42.42789],[52.64396,42.43941],[52.6474,42.453],[52.65357,42.47319],[52.66295,42.5027],[52.67023,42.53824],[52.66906,42.5755],[52.6574,42.61313],[52.63723,42.64787],[52.61144,42.67593],[52.58603,42.69887],[52.57034,42.71966],[52.56782,42.73575],[52.57332,42.74125],[52.58116,42.73392],[52.59033,42.71816],[52.60215,42.702],[52.61699,42.69024],[52.63491,42.68072],[52.65283,42.67055],[52.66448,42.66103],[52.66927,42.65391],[52.67285,42.64717],[52.67944,42.63506],[52.68916,42.61614],[52.69989,42.59913],[52.71036,42.59308],[52.72074,42.59972],[52.73054,42.61596],[52.73757,42.63804],[52.73819,42.66535],[52.72841,42.6964],[52.70586,42.72363],[52.67386,42.74192],[52.64133,42.75661],[52.60648,42.77542],[52.55151,42.79804],[52.47428,42.81747],[52.40382,42.82815],[52.36334,42.83075],[52.34506,42.82892],[52.333,42.82478],[52.32234,42.81857],[52.3133,42.80975],[52.3043,42.80043],[52.28879,42.79984],[52.25797,42.81853],[52.21526,42.85081],[52.17176,42.87597],[52.12361,42.88266],[52.06374,42.87495],[52.00487,42.86034],[51.96217,42.84662],[51.93171,42.84324],[51.90056,42.85707],[51.86711,42.88376],[51.83943,42.912],[51.81955,42.9364],[51.8043,42.95814],[51.79214,42.9809],[51.77929,43.00718],[51.75955,43.03588],[51.73447,43.06317],[51.71305,43.08281],[51.69803,43.09228],[51.6862,43.09686],[51.67739,43.10285],[51.67345,43.11155],[51.67445,43.12105],[51.67773,43.13108],[51.67901,43.14385],[51.67495,43.15993],[51.66351,43.17473],[51.64167,43.18169],[51.60871,43.18067],[51.57326,43.17726],[51.54726,43.17374],[51.53315,43.16897],[51.52501,43.16318],[51.51725,43.15825],[51.50674,43.15645],[51.49233,43.15889],[51.47095,43.16264],[51.43094,43.16247],[51.36786,43.15891],[51.30617,43.15957],[51.27535,43.17354],[51.27719,43.20789],[51.29379,43.26362],[51.30833,43.33526],[51.31255,43.4079],[51.30491,43.46281],[51.29104,43.4961],[51.28056,43.51613],[51.27624,43.53114],[51.27346,43.54561],[51.26589,43.55977],[51.24914,43.57473],[51.22812,43.5917],[51.21294,43.60785],[51.20464,43.6189],[51.19701,43.62302],[51.18709,43.62255],[51.17585,43.62168],[51.16465,43.62286],[51.15259,43.62802],[51.13204,43.64764],[51.09437,43.69638],[51.04999,43.76183],[51.02122,43.81017],[51.01102,43.83281],[51.0065,43.84444],[51.0011,43.85328],[50.99571,43.8608],[50.99243,43.86917],[50.99173,43.88079],[50.9913,43.89477],[50.98692,43.90822],[50.97546,43.9214],[50.95995,43.93538],[50.94653,43.94992],[50.93543,43.96578],[50.92368,43.9828],[50.9118,43.99793],[50.90032,44.0084],[50.88724,44.01487],[50.87305,44.02048],[50.86176,44.02791],[50.85612,44.03738],[50.8558,44.04739],[50.85802,44.06221],[50.85901,44.09205],[50.85675,44.13331],[50.85079,44.1682],[50.83812,44.19212],[50.81149,44.21389],[50.74656,44.2391],[50.61236,44.26924],[50.444,44.29966],[50.32685,44.3223],[50.2786,44.33762],[50.25707,44.35255],[50.24236,44.37203],[50.23604,44.39836],[50.2357,44.4285],[50.2359,44.45449],[50.23497,44.47285],[50.2331,44.48832],[50.22953,44.50837],[50.22681,44.53492],[50.22972,44.55925],[50.23948,44.56995],[50.25323,44.57081],[50.26691,44.57754],[50.27829,44.59325],[50.28771,44.60829],[50.29524,44.61967],[50.29991,44.63096],[50.30268,44.64231],[50.30635,44.65093],[50.31175,44.65498],[50.3184,44.65415],[50.33629,44.64867],[50.38641,44.63915],[50.46509,44.63004],[50.53719,44.62784],[50.58275,44.63068],[50.60869,44.63003],[50.63044,44.62416],[50.66382,44.61805],[50.7059,44.61299],[50.73829,44.60787],[50.75703,44.60573],[50.76982,44.60964],[50.77879,44.61728],[50.78428,44.62401],[50.79202,44.62774],[50.8105,44.62868],[50.8393,44.62718],[50.86901,44.62231],[50.89724,44.61159],[50.92644,44.59464],[50.95275,44.57787],[50.97324,44.56869],[50.98964,44.56594],[51.0015,44.56324],[51.00699,44.55803],[51.00599,44.55221],[51.00136,44.54695],[51.00096,44.53987],[51.01559,44.52795],[51.05102,44.51166],[51.09817,44.49619],[51.14023,44.48768],[51.17261,44.48722],[51.2022,44.49385],[51.23367,44.50848],[51.262,44.52654],[51.27832,44.53898],[51.28404,44.54458],[51.28768,44.54801],[51.29403,44.55076],[51.30529,44.55214],[51.322,44.55299],[51.34201,44.55492],[51.36079,44.55559],[51.37394,44.54881],[51.38803,44.53612],[51.41934,44.52679],[51.46999,44.52153],[51.52049,44.51663],[51.55288,44.51658],[51.5653,44.52477],[51.56347,44.53696],[51.55027,44.54964],[51.5232,44.56443],[51.48406,44.5823],[51.44409,44.59725],[51.40733,44.60229],[51.36749,44.60077],[51.32532,44.60665],[51.2876,44.63256],[51.25582,44.6733],[51.22369,44.71151],[51.1831,44.74113],[51.14038,44.76457],[51.11213,44.78004],[51.09835,44.78788],[51.08445,44.79241],[51.06583,44.79641],[51.04971,44.8012],[51.03575,44.8087],[51.01333,44.82201],[50.98461,44.84158],[50.96691,44.86355],[50.96608,44.88397],[50.97369,44.89996],[50.98343,44.91044],[50.99149,44.91817],[50.99376,44.92623],[50.99028,44.93402],[50.98406,44.93977],[50.97552,44.94342],[50.96501,44.94687],[50.95758,44.95313],[50.95863,44.96319],[50.9691,44.97444],[50.98685,44.98372],[51.00817,44.98953],[51.02977,44.99188],[51.04993,44.99286],[51.06725,44.99573],[51.08103,45.00202],[51.09214,45.01087],[51.104,45.02119],[51.12245,45.0331],[51.14812,45.04564],[51.17353,45.05475],[51.19357,45.05658],[51.21061,45.05022],[51.2289,45.03849],[51.24907,45.02873],[51.26539,45.02856],[51.27104,45.03915],[51.26603,45.05556],[51.25567,45.07251],[51.24667,45.08749],[51.24514,45.10029],[51.25112,45.11186],[51.25753,45.12273],[51.25779,45.13277],[51.25258,45.14256],[51.24882,45.1527],[51.25127,45.16333],[51.25996,45.17672],[51.27445,45.19572],[51.29135,45.21803],[51.3098,45.24186],[51.33921,45.27355],[51.3775,45.31241],[51.40487,45.34549],[51.41541,45.36664],[51.42133,45.37531],[51.43392,45.36837],[51.45919,45.35112],[51.49772,45.33755],[51.544,45.33559],[51.58966,45.34437],[51.62746,45.35962],[51.65422,45.37439],[51.67278,45.38276],[51.68891,45.38708],[51.70468,45.39477],[51.71909,45.40887],[51.73219,45.4259],[51.74465,45.43992],[51.75612,45.44587],[51.76605,45.44212],[51.77485,45.43133],[51.78789,45.41748],[51.8156,45.40401],[51.85542,45.39292],[51.89074,45.38278],[51.91661,45.37302],[51.93998,45.36849],[51.9643,45.37293],[51.98832,45.38186],[52.01129,45.38724],[52.03663,45.38608],[52.08337,45.38345],[52.18377,45.38656],[52.32334,45.39419],[52.43908,45.3993],[52.51833,45.39668],[52.60472,45.3813],[52.71202,45.35605],[52.80858,45.3332],[52.87521,45.31925],[52.92866,45.3134],[52.98278,45.31177],[53.03214,45.30813],[53.07283,45.30198],[53.1067,45.29975],[53.13744,45.30503],[53.16667,45.314],[53.18982,45.32146],[53.20433,45.32709],[53.21406,45.33174],[53.2241,45.33352],[53.23591,45.33242],[53.24705,45.33204],[53.25569,45.33518],[53.26087,45.34186],[53.26108,45.35022],[53.2501,45.3587],[53.21725,45.36775],[53.17097,45.37748],[53.13762,45.3862],[53.124,45.3929],[53.1159,45.39789],[53.10083,45.40207],[53.06761,45.40953],[53.00889,45.42562],[52.94121,45.44634],[52.8936,45.46191],[52.87015,45.47223],[52.85668,45.4817],[52.84494,45.48905],[52.82724,45.49417],[52.79747,45.5012],[52.76437,45.512],[52.74302,45.52439],[52.73508,45.53571],[52.73172,45.54528],[52.72957,45.55443],[52.73074,45.56403],[52.73391,45.57298],[52.73531,45.58063],[52.73444,45.58922],[52.73384,45.60232],[52.73661,45.61963],[52.74552,45.63553],[52.76061,45.64596],[52.7776,45.65388],[52.79227,45.66615],[52.8077,45.68812],[52.83007,45.71924],[52.85591,45.75009],[52.87692,45.77029],[52.89356,45.7802],[52.91109,45.78848],[52.93086,45.80298],[52.94993,45.82583],[52.9665,45.85352],[52.98475,45.88067],[53.00738,45.90336],[53.02796,45.92079],[53.03928,45.93514],[53.04435,45.94944],[53.05181,45.96516],[53.0632,45.98279],[53.0728,46.00207],[53.07688,46.01925],[53.07654,46.03045],[53.07551,46.03802],[53.07908,46.04786],[53.08978,46.0625],[53.10184,46.08021],[53.10918,46.10143],[53.11478,46.13605],[53.12297,46.19364],[53.12964,46.26502],[53.12482,46.3307],[53.10196,46.38257],[53.06796,46.42208],[53.04464,46.44603],[53.04832,46.45024],[53.06954,46.44267],[53.08495,46.43813],[53.08294,46.44321],[53.07066,46.45611],[53.06088,46.47347],[53.05964,46.48944],[53.06388,46.49628],[53.06297,46.4915],[53.04748,46.48107],[53.02006,46.47622],[52.99743,46.48496],[52.99821,46.50541],[53.01867,46.52938],[53.03464,46.54582],[53.04006,46.54697],[53.052,46.53977],[53.07285,46.53892],[53.08549,46.55123],[53.08577,46.57335],[53.08738,46.59356],[53.09755,46.60124],[53.11426,46.60087],[53.13379,46.60471],[53.14849,46.61413],[53.15509,46.62139],[53.16104,46.62309],[53.17322,46.62264],[53.18737,46.62502],[53.19315,46.63304],[53.18963,46.64663],[53.18523,46.66514],[53.18072,46.68617],[53.16895,46.70336],[53.14768,46.71348],[53.12157,46.72113],[53.09859,46.73351],[53.08434,46.75667],[53.07489,46.79321],[53.06333,46.83485],[53.05183,46.86593],[53.04439,46.88014],[53.03373,46.88322],[53.01201,46.88381],[52.98338,46.89046],[52.95481,46.90745],[52.92937,46.9277],[52.90167,46.93903],[52.85711,46.93917],[52.79071,46.93581],[52.71312,46.93514],[52.64124,46.93788],[52.58936,46.9446],[52.55604,46.95665],[52.52912,46.97048],[52.50022,46.98019],[52.47132,46.98464],[52.44994,46.98544],[52.43319,46.98223],[52.4184,46.97256],[52.413,46.9546],[52.40971,46.9297],[52.38846,46.90285],[52.34294,46.88],[52.28524,46.86574],[52.23609,46.86272],[52.20624,46.8676],[52.18798,46.87179],[52.17455,46.86903],[52.17224,46.85936],[52.18388,46.84841],[52.19921,46.84124],[52.2089,46.83726],[52.2138,46.83296],[52.21791,46.82656],[52.22248,46.81837],[52.22005,46.80897],[52.1918,46.80174],[52.13838,46.80156],[52.09128,46.80761],[52.06733,46.8156],[52.05647,46.82464],[52.051,46.83394],[52.04901,46.84001],[52.04407,46.84395],[52.02994,46.85207],[52.01054,46.86443],[51.99444,46.87644],[51.98703,46.88767],[51.99319,46.89737],[52.00834,46.9045],[52.01587,46.91243],[52.01152,46.92123],[52.00649,46.9258],[52.00318,46.92207],[51.99338,46.9077],[51.97242,46.88739],[51.94202,46.87305],[51.90913,46.87084],[51.88658,46.8791],[51.88209,46.89417],[51.8853,46.90954],[51.88215,46.91836],[51.87022,46.91846],[51.84853,46.91152],[51.81708,46.90295],[51.78367,46.90027],[51.75523,46.90608],[51.73108,46.9177],[51.70658,46.93365],[51.68545,46.95534],[51.68011,46.98295],[51.68493,47.01108],[51.68133,47.03168],[51.67005,47.04171],[51.66074,47.04297],[51.65362,47.03658],[51.64645,47.02255],[51.63564,47.00364],[51.61537,46.98829],[51.58628,46.98706],[51.55683,47.00225],[51.53314,47.02334],[51.51142,47.0389],[51.48,47.04855],[51.42827,47.05846],[51.35511,47.07225],[51.27784,47.08796],[51.22159,47.09834],[51.18591,47.09651],[51.14508,47.08351],[51.08319,47.06657],[51.01557,47.05086],[50.96708,47.03583],[50.9363,47.02114],[50.90856,47.0126],[50.88272,47.01424],[50.86551,47.02073],[50.85924,47.02495],[50.85671,47.02544],[50.85008,47.02358],[50.84563,47.01984],[50.84513,47.00807],[50.82782,46.97704],[50.78622,46.93564],[50.74661,46.91289],[50.73426,46.91693],[50.74445,46.93205],[50.75302,46.94747],[50.75104,46.95815],[50.74712,46.95943],[50.73845,46.95075],[50.71641,46.93635],[50.68534,46.92388],[50.6561,46.91902],[50.6375,46.92005],[50.63102,46.91751],[50.62911,46.90149],[50.62428,46.87462],[50.6136,46.849],[50.59744,46.8321],[50.5828,46.82689],[50.57931,46.83366],[50.58447,46.84678],[50.58393,46.8588],[50.57109,46.86525],[50.55288,46.86577],[50.53672,46.86283],[50.52298,46.8589],[50.5079,46.85688],[50.49017,46.86018],[50.47124,46.8691],[50.45341,46.87923],[50.44111,46.88567],[50.43627,46.88798],[50.43518,46.88784],[50.43134,46.88141],[50.41828,46.86066],[50.39772,46.83128],[50.38128,46.8156],[50.37396,46.82285],[50.37033,46.83625],[50.36736,46.83873],[50.36386,46.83077],[50.35753,46.81988],[50.34756,46.81042],[50.33471,46.80422],[50.32229,46.80095],[50.31382,46.79867],[50.30641,46.79288],[50.29155,46.77591],[50.26605,46.74952],[50.23876,46.72984],[50.22318,46.72704],[50.22171,46.73561],[50.22218,46.7464],[50.21702,46.75381],[50.20928,46.75548],[50.19348,46.74797],[50.15761,46.72452],[50.1088,46.6877],[50.06795,46.65364],[50.03905,46.63326],[50.01223,46.62468],[49.98744,46.62207],[49.97067,46.61977],[49.95943,46.61381],[49.9465,46.60422],[49.92857,46.59345],[49.90772,46.58278],[49.88696,46.57404],[49.8666,46.56993],[49.84935,46.56835],[49.83871,46.56268],[49.8295,46.55145],[49.81309,46.54282],[49.79176,46.5442],[49.77646,46.55176],[49.77159,46.55639],[49.77159,46.55277],[49.76858,46.5422],[49.7575,46.5337],[49.73976,46.5354],[49.72315,46.54394],[49.71409,46.55074],[49.71233,46.55147],[49.71248,46.54434],[49.70437,46.53469],[49.68037,46.53785],[49.65118,46.55508],[49.63537,46.56465],[49.63211,46.55324],[49.62704,46.53294],[49.61653,46.5195],[49.60562,46.51236],[49.5928,46.50618],[49.57622,46.50566],[49.55813,46.51472],[49.53398,46.52809],[49.50422,46.54163],[49.48472,46.5569],[49.48202,46.57185],[49.4832,46.57604],[49.47781,46.56433],[49.47088,46.54522],[49.47348,46.52673],[49.48599,46.51042],[49.49448,46.49853],[49.48824,46.49325],[49.47303,46.49366],[49.46054,46.49795],[49.45846,46.50522],[49.46649,46.51452],[49.47307,46.52358],[49.46693,46.52997],[49.4504,46.53424],[49.43626,46.53866],[49.43267,46.54241],[49.43451,46.54271],[49.4303,46.53882],[49.41273,46.53466],[49.38285,46.53638],[49.34975,46.54596],[49.32492,46.55841],[49.31549,46.56131],[49.3274,46.54377],[49.35715,46.51275],[49.37791,46.48726],[49.3693,46.47607],[49.34452,46.47524],[49.32275,46.48092],[49.3075,46.49159],[49.29678,46.5031],[49.28847,46.51059],[49.28035,46.51261],[49.27727,46.5094],[49.28505,46.50003],[49.29656,46.48404],[49.30652,46.46439],[49.32422,46.44558],[49.35159,46.43071],[49.37528,46.41986],[49.38468,46.40913],[49.37717,46.39761],[49.35395,46.393],[49.32342,46.40074],[49.29727,46.41568],[49.27907,46.43098],[49.26593,46.44385],[49.25512,46.45262],[49.2443,46.45696],[49.23403,46.45772],[49.23048,46.45592],[49.2391,46.45249],[49.25266,46.44593],[49.2588,46.43317],[49.26239,46.41494],[49.27345,46.39738],[49.28185,46.3863],[49.27144,46.3836],[49.24079,46.3886],[49.20582,46.39689],[49.18447,46.40219],[49.17476,46.40121],[49.16917,46.39446],[49.17158,46.38607],[49.18151,46.38038],[49.19376,46.37678],[49.20964,46.37091],[49.22724,46.36025],[49.23861,46.34741],[49.24062,46.33666],[49.23638,46.32675],[49.23679,46.31157],[49.25396,46.29099],[49.28259,46.27256],[49.30232,46.25904],[49.29974,46.24876],[49.28043,46.24471],[49.25873,46.24853],[49.2402,46.25544],[49.21881,46.26218],[49.19115,46.27141],[49.16929,46.28644],[49.16421,46.30442],[49.16488,46.31778],[49.15802,46.32137],[49.1447,46.31459],[49.12681,46.30137],[49.10805,46.28893],[49.09641,46.27966],[49.09099,46.27093],[49.08418,46.26239],[49.0744,46.25442],[49.06983,46.2466],[49.07862,46.23955],[49.0981,46.22892],[49.11697,46.20573],[49.12184,46.17455],[49.10852,46.15496],[49.0876,46.1557],[49.0705,46.16741],[49.05996,46.17865],[49.05409,46.18414],[49.05013,46.18407],[49.04549,46.18022],[49.03721,46.17392],[49.02178,46.16618],[48.99829,46.1563],[48.97295,46.14541],[48.95516,46.13689],[48.94847,46.12815],[48.95163,46.11599],[48.95902,46.10366],[48.95957,46.09289],[48.95036,46.08447],[48.94161,46.08417],[48.93726,46.09497],[48.92718,46.11124],[48.90866,46.12611],[48.89422,46.13683],[48.89173,46.14138],[48.89598,46.13631],[48.89642,46.12282],[48.88518,46.11248],[48.86512,46.11568],[48.84848,46.1275],[48.84228,46.13588],[48.84429,46.13369],[48.85461,46.12037],[48.86952,46.10061],[48.87228,46.08251],[48.85786,46.07635],[48.84199,46.08635],[48.83095,46.10336],[48.81935,46.11467],[48.81239,46.11397],[48.81838,46.10212],[48.83081,46.08477],[48.83428,46.0672],[48.82476,46.05543],[48.81431,46.05578],[48.80907,46.06649],[48.79733,46.07986],[48.77178,46.09279],[48.74327,46.10451],[48.72252,46.11051],[48.70722,46.10986],[48.69393,46.10863],[48.68653,46.10944],[48.68529,46.10866],[48.68455,46.10478],[48.68269,46.09941],[48.67937,46.0924],[48.67083,46.08442],[48.65677,46.07853],[48.64563,46.07458],[48.64736,46.06968],[48.6616,46.06209],[48.68047,46.04967],[48.69953,46.03405],[48.71785,46.02182],[48.73084,46.01305],[48.7317,46.0027],[48.72129,45.99152],[48.70701,45.98332],[48.69296,45.97789],[48.67956,45.9727],[48.66764,45.96742],[48.658,45.96205],[48.65485,45.95633],[48.66413,45.95362],[48.68334,45.95585],[48.70554,45.95883],[48.7269,45.95924],[48.74566,45.95672],[48.75924,45.9496],[48.76374,45.9377],[48.75982,45.92491],[48.7541,45.91427],[48.75458,45.90631],[48.76246,45.89812],[48.77108,45.88255],[48.77817,45.8605],[48.7814,45.8444],[48.77602,45.83924],[48.76438,45.8371],[48.75018,45.83301],[48.73691,45.82813],[48.72594,45.82196],[48.71275,45.81862],[48.70117,45.82698],[48.70106,45.84511],[48.70815,45.86214],[48.70742,45.87141],[48.69201,45.87507],[48.6696,45.88031],[48.65144,45.88837],[48.6414,45.8942],[48.63608,45.89657],[48.63237,45.89882],[48.63219,45.90474],[48.63374,45.91428],[48.62671,45.92364],[48.60757,45.93334],[48.5862,45.94528],[48.56983,45.95369],[48.55541,45.95313],[48.54071,45.94661],[48.52716,45.93908],[48.51235,45.93298],[48.49527,45.92979],[48.48159,45.92908],[48.47317,45.92723],[48.46269,45.91913],[48.44388,45.9018],[48.41968,45.88055],[48.39713,45.86672],[48.38133,45.86391],[48.37273,45.8647],[48.36702,45.86135],[48.36573,45.85332],[48.37722,45.84569],[48.39764,45.84076],[48.4038,45.83573],[48.37747,45.83055],[48.33489,45.82818],[48.30783,45.82712],[48.30133,45.82258],[48.3007,45.81225],[48.29748,45.79787],[48.2895,45.78333],[48.27569,45.7715],[48.25801,45.76328],[48.24271,45.75924],[48.23568,45.75892],[48.23623,45.75849],[48.23974,45.75439],[48.24436,45.74719],[48.24924,45.73707],[48.24824,45.72369],[48.23382,45.71416],[48.20749,45.71611],[48.17899,45.72341],[48.15244,45.72602],[48.1244,45.72705],[48.0983,45.73229],[48.08158,45.73619],[48.06984,45.73208],[48.05527,45.72279],[48.04093,45.71484],[48.03193,45.70965],[48.02436,45.70415],[48.0129,45.70049],[48.00068,45.70439],[47.9906,45.71205],[47.98022,45.71583],[47.97119,45.7169],[47.96669,45.71854],[47.96548,45.71982],[47.96503,45.71975],[47.96193,45.71811],[47.95348,45.71498],[47.94116,45.71006],[47.92768,45.70296],[47.91539,45.69853],[47.90484,45.70222],[47.89184,45.70939],[47.87652,45.71278],[47.86638,45.7123],[47.86316,45.70846],[47.86171,45.69775],[47.85847,45.68054],[47.85495,45.6646],[47.85573,45.6537],[47.85943,45.64285],[47.85864,45.62935],[47.84976,45.61668],[47.83319,45.61122],[47.81279,45.62122],[47.79626,45.64491],[47.78465,45.66737],[47.76934,45.6792],[47.74792,45.6844],[47.72959,45.69052],[47.71781,45.69755],[47.70914,45.70036],[47.70549,45.69942],[47.70618,45.69802],[47.70406,45.69622],[47.69629,45.69408],[47.68587,45.69312],[47.67581,45.69374],[47.6677,45.69667],[47.66435,45.70409],[47.66587,45.71511],[47.66669,45.72625],[47.66147,45.73583],[47.64779,45.74239],[47.62845,45.74589],[47.61022,45.74938],[47.59468,45.754],[47.58083,45.75793],[47.5717,45.75924],[47.56874,45.75563],[47.56929,45.74663],[47.57249,45.73744],[47.57962,45.73416],[47.59082,45.73554],[47.60256,45.73378],[47.60765,45.7245],[47.6062,45.71287],[47.60842,45.70615],[47.61933,45.70467],[47.63204,45.703],[47.63882,45.69729],[47.64035,45.6886],[47.63942,45.67849],[47.63441,45.66827],[47.62653,45.66154],[47.62176,45.66045],[47.62214,45.66199],[47.62457,45.66056],[47.62552,45.65283],[47.627,45.6404],[47.63629,45.6276],[47.64878,45.61418],[47.6521,45.59704],[47.64845,45.57898],[47.64239,45.56667],[47.63163,45.56624],[47.61986,45.58105],[47.60656,45.60634],[47.58203,45.63158],[47.54841,45.64892],[47.51653,45.65696],[47.48852,45.66104],[47.46401,45.66752],[47.44597,45.677],[47.43936,45.68691],[47.44557,45.6957],[47.45558,45.70213],[47.46437,45.7056],[47.47659,45.70785],[47.48308,45.71174],[47.46775,45.71928],[47.44053,45.73056],[47.42053,45.74041],[47.40839,45.74328],[47.40049,45.74195],[47.39713,45.74111],[47.39806,45.7397],[47.40514,45.73394],[47.41694,45.72267],[47.42597,45.70985],[47.42932,45.70022],[47.42965,45.69323],[47.42795,45.68441],[47.4273,45.67377],[47.43204,45.6668],[47.44006,45.66602],[47.44981,45.6688],[47.46144,45.66911],[47.47149,45.6616],[47.48331,45.64942],[47.50407,45.64011],[47.53032,45.63481],[47.55223,45.62954],[47.56338,45.62183],[47.56554,45.61078],[47.566,45.5958],[47.5686,45.57993],[47.5711,45.56784],[47.57021,45.55965],[47.5651,45.55287],[47.55762,45.54678],[47.54936,45.54267],[47.5388,45.54395],[47.52586,45.5541],[47.51444,45.57025],[47.50599,45.58194],[47.49945,45.58192],[47.49632,45.5741],[47.49886,45.56389],[47.50813,45.54932],[47.52169,45.5303],[47.53248,45.51474],[47.53431,45.50607],[47.52541,45.49745],[47.51104,45.48473],[47.5009,45.47101],[47.49801,45.45721],[47.49675,45.44291],[47.48793,45.43164],[47.46396,45.42599],[47.42996,45.42343],[47.40254,45.41931],[47.39454,45.41255],[47.40826,45.40615],[47.43317,45.40156],[47.45186,45.39682],[47.45723,45.39016],[47.45369,45.38238],[47.44572,45.37546],[47.43653,45.37041],[47.42968,45.36665],[47.42436,45.36066],[47.41505,45.34668],[47.40085,45.32457],[47.38841,45.29779],[47.38156,45.26292],[47.37646,45.22317],[47.36792,45.196],[47.35414,45.1885],[47.3362,45.19043],[47.31707,45.19022],[47.30042,45.18023],[47.28715,45.15674],[47.2751,45.12372],[47.26221,45.09073],[47.24725,45.06088],[47.23047,45.0297],[47.21409,44.99962],[47.1985,44.98022],[47.18274,44.97136],[47.16821,44.96237],[47.15659,44.94922],[47.1472,44.93985],[47.13766,44.94092],[47.12592,44.94841],[47.11329,44.95378],[47.10474,44.94847],[47.10224,44.92234],[47.09929,44.87682],[47.09102,44.83213],[47.08241,44.80403],[47.07655,44.79199],[47.06812,44.79424],[47.05238,44.811],[47.03344,44.83698],[47.01935,44.86598],[47.01052,44.89328],[47.00183,44.90959],[46.99337,44.90783],[46.99021,44.89203],[46.99448,44.87083],[47.00176,44.85009],[47.00382,44.83105],[46.99493,44.81074],[46.97799,44.78967],[46.95998,44.77565],[46.94149,44.77051],[46.91889,44.76495],[46.89373,44.75352],[46.87205,44.73933],[46.85623,44.72483],[46.84188,44.71171],[46.82211,44.70266],[46.79595,44.6941],[46.76935,44.67971],[46.74662,44.6632],[46.72898,44.64691],[46.7177,44.62199],[46.71302,44.59083],[46.71405,44.56873],[46.71796,44.55803],[46.71963,44.55133],[46.71562,44.54674],[46.70665,44.54411],[46.69617,44.54115],[46.68787,44.53512],[46.68479,44.52239],[46.68809,44.50035],[46.69537,44.47331],[46.70429,44.44967],[46.71711,44.43161],[46.7355,44.41647],[46.75733,44.40435],[46.78261,44.39744],[46.81066,44.39564],[46.84342,44.39444],[46.89531,44.38714],[46.96315,44.37336],[47.01575,44.35865],[47.04176,44.34261],[47.05617,44.3197],[47.06826,44.29214],[47.07941,44.2685],[47.09156,44.25131],[47.10592,44.23734],[47.12104,44.22601],[47.13524,44.21813],[47.1495,44.21199],[47.1646,44.20694],[47.17938,44.2063],[47.19382,44.21248],[47.2091,44.22072],[47.22618,44.21993],[47.24576,44.19952],[47.26764,44.15769],[47.29089,44.10744],[47.31341,44.06764],[47.3324,44.0446],[47.34813,44.02803],[47.36526,44.0028],[47.38643,43.96673],[47.40682,43.93256],[47.42051,43.9077],[47.4291,43.8901],[47.43874,43.87812],[47.45026,43.86945],[47.45731,43.85999],[47.45576,43.84752],[47.44994,43.83406],[47.44835,43.82519],[47.45529,43.82319],[47.46775,43.82379],[47.48047,43.82005],[47.49111,43.80727],[47.49842,43.78889],[47.49874,43.77387],[47.48945,43.76521],[47.47445,43.75931],[47.46099,43.75308],[47.45155,43.74501],[47.4454,43.73259],[47.44453,43.71472],[47.44789,43.69639],[47.44839,43.68401],[47.44312,43.67744],[47.43479,43.67118],[47.42384,43.65827],[47.40959,43.63797],[47.3944,43.62125],[47.38188,43.61668],[47.37357,43.61782],[47.36937,43.61351],[47.36945,43.60001],[47.37383,43.58139],[47.38168,43.56447],[47.39149,43.552],[47.39989,43.54074],[47.40517,43.5277],[47.41242,43.51602],[47.427,43.51369],[47.44595,43.52718],[47.46204,43.55568],[47.4717,43.59053],[47.47629,43.62064],[47.47936,43.64037],[47.48386,43.65232],[47.49085,43.66205],[47.4986,43.67395],[47.5037,43.69046],[47.50649,43.70996],[47.51195,43.72973],[47.5219,43.75133],[47.53232,43.7767],[47.53939,43.80401],[47.5426,43.82952],[47.54429,43.84997],[47.54956,43.86551],[47.56269,43.8794],[47.5816,43.89147],[47.60245,43.89804],[47.62589,43.89838],[47.65183,43.89426],[47.67241,43.88411],[47.67236,43.8614],[47.64409,43.81587],[47.59938,43.73849],[47.55575,43.63741],[47.52188,43.54169],[47.49934,43.47187],[47.48848,43.42292],[47.48777,43.38397],[47.49041,43.353],[47.49075,43.33015],[47.4915,43.31297],[47.49854,43.30241],[47.51353,43.30323],[47.53319,43.31359],[47.55223,43.32413],[47.56687,43.32883],[47.57635,43.32717],[47.58191,43.32052],[47.58455,43.31113],[47.58407,43.3015],[47.58031,43.29268],[47.57337,43.28272],[47.56188,43.27013],[47.54435,43.25684],[47.52374,43.24425],[47.50532,43.23082],[47.49234,43.21558],[47.48654,43.1996],[47.48569,43.1845],[47.48434,43.17144],[47.48167,43.15997],[47.48077,43.14894],[47.48142,43.13812],[47.47978,43.12748],[47.47323,43.11689],[47.46415,43.10646],[47.45793,43.09234],[47.46146,43.06467],[47.48475,43.02137],[47.5279,42.97773],[47.57064,42.9484],[47.59597,42.93138],[47.61323,42.9166],[47.64074,42.89793],[47.67513,42.87686],[47.69845,42.85817],[47.70735,42.84341],[47.71057,42.82943],[47.71285,42.80957],[47.71516,42.78438],[47.71744,42.76485],[47.71862,42.75449],[47.71801,42.74444],[47.71744,42.72581],[47.72131,42.69758],[47.73713,42.66591],[47.77254,42.63607],[47.82352,42.604],[47.87893,42.55707],[47.93391,42.49413],[47.98501,42.43539],[48.02939,42.3952],[48.07335,42.35918],[48.12883,42.29961],[48.19308,42.22023],[48.24621,42.1575],[48.27956,42.12395],[48.2993,42.10234],[48.31054,42.08161],[48.32126,42.05544],[48.34349,42.01391],[48.37944,41.96272],[48.42095,41.92372],[48.46396,41.90359],[48.50749,41.88953],[48.54486,41.8725],[48.56897,41.85577],[48.58272,41.84447],[48.5982,41.83498],[48.62671,41.8163],[48.67251,41.77888],[48.72579,41.73019],[48.76674,41.69062],[48.79177,41.66287],[48.81905,41.62994],[48.85778,41.58542],[48.89562,41.54403],[48.92201,41.51857],[48.9395,41.50364],[48.95331,41.4893],[48.96671,41.47294],[48.97958,41.45738],[48.99016,41.44658],[49.00115,41.44036],[49.01496,41.43492],[49.03066,41.42411],[49.05088,41.3993],[49.07717,41.36059],[49.1029,41.32223],[49.12167,41.29466],[49.13417,41.26973],[49.14396,41.23299],[49.15317,41.18877],[49.16219,41.15625],[49.17143,41.13603],[49.18438,41.10698],[49.21257,41.05532],[49.26572,40.98774],[49.32671,40.92577],[49.36696,40.88707],[49.3884,40.86692],[49.41189,40.85193],[49.4415,40.83978],[49.46841,40.83101],[49.4897,40.82126],[49.50827,40.8093],[49.52394,40.79728],[49.53204,40.78256],[49.52969,40.76075],[49.52115,40.73513],[49.514,40.71386],[49.51145,40.69964],[49.51303,40.68934],[49.51832,40.6801],[49.52523,40.67173],[49.53055,40.66546],[49.53521,40.66008],[49.54381,40.65236],[49.55793,40.64222],[49.57611,40.63298],[49.59914,40.62686],[49.62587,40.62277],[49.65115,40.6172],[49.6749,40.60695],[49.70149,40.59377],[49.73391,40.58265],[49.77197,40.57473],[49.80877,40.56893],[49.83945,40.56726],[49.87022,40.57189],[49.91023,40.57973],[49.96331,40.58433],[50.01797,40.58297],[50.05252,40.57772],[50.06456,40.57102],[50.06965,40.56343],[50.07802,40.55368],[50.09201,40.54148],[50.11453,40.52891],[50.15165,40.5172],[50.19691,40.50585],[50.23094,40.49356],[50.24916,40.47798],[50.26262,40.45914],[50.27829,40.44168],[50.29678,40.42893],[50.31637,40.41792],[50.33432,40.40376],[50.34899,40.38164],[50.36057,40.34669],[50.37007,40.30606],[50.37825,40.27508],[50.3848,40.25481],[50.3872,40.2402],[50.38166,40.23739],[50.36722,40.25094],[50.34511,40.27397],[50.3157,40.29853],[50.28294,40.31982],[50.25261,40.3342],[50.2222,40.34259],[50.18779,40.34903],[50.15537,40.35461],[50.13195,40.3575],[50.11634,40.35697],[50.10245,40.35464],[50.08417,40.35236],[50.06005,40.34882],[50.03352,40.34114],[50.00864,40.33191],[49.98915,40.32832],[49.97581,40.33311],[49.96536,40.3421],[49.95444,40.34991],[49.93958,40.35534],[49.91895,40.36005],[49.89486,40.36164],[49.8712,40.3542],[49.85196,40.33688],[49.8354,40.31527],[49.81023,40.29492],[49.76819,40.27739],[49.71205,40.25982],[49.65082,40.24015],[49.59651,40.22025],[49.55629,40.20072],[49.52762,40.18162],[49.50771,40.16523],[49.49694,40.14958],[49.49387,40.13069],[49.49139,40.11081],[49.47855,40.09374],[49.45647,40.0782],[49.44095,40.06134],[49.44013,40.04337],[49.44837,40.02741],[49.4593,40.01572],[49.46994,40.00685],[49.47769,39.99841],[49.47993,39.99021],[49.4755,39.98282],[49.46555,39.97547],[49.45364,39.96815],[49.4434,39.96189],[49.43562,39.95539],[49.42967,39.94665],[49.42608,39.93579],[49.42632,39.92247],[49.43089,39.90591],[49.43695,39.88867],[49.43952,39.87436],[49.43639,39.86365],[49.42974,39.85567],[49.42303,39.84916],[49.41842,39.84251],[49.4167,39.83546],[49.41759,39.82898],[49.41977,39.82307],[49.42116,39.81706],[49.41941,39.81093],[49.41306,39.80403],[49.40433,39.79511],[49.3984,39.78516],[49.39735,39.77612],[49.39846,39.76694],[49.40103,39.75499],[49.40793,39.73956],[49.41625,39.72357],[49.41654,39.7107],[49.40429,39.69972],[49.38337,39.68579],[49.36002,39.66698],[49.33945,39.64541],[49.32506,39.62408],[49.31579,39.60456],[49.30736,39.58553],[49.29853,39.56497],[49.29141,39.54298],[49.28808,39.52037],[49.29511,39.49509],[49.32277,39.46304],[49.36372,39.42839],[49.39407,39.40293],[49.40532,39.38972],[49.40617,39.38109],[49.40341,39.36885],[49.40085,39.35197],[49.40073,39.33718],[49.40003,39.33002],[49.39494,39.33049],[49.38701,39.33579],[49.37965,39.3426],[49.37395,39.3471],[49.37128,39.34491],[49.37367,39.3349],[49.38143,39.321],[49.39227,39.30805],[49.40025,39.29868],[49.39834,39.29471],[49.38656,39.29784],[49.36931,39.30818],[49.34466,39.32281],[49.31125,39.33294],[49.27788,39.32821],[49.25422,39.3028],[49.24209,39.25552],[49.23723,39.20047],[49.23347,39.15972],[49.22709,39.13387],[49.21905,39.11039],[49.21243,39.08521],[49.20748,39.05962],[49.1975,39.03488],[49.17116,39.0098],[49.12868,38.98685],[49.08792,38.97614],[49.06392,38.98054],[49.05579,38.99095],[49.05551,39.00017],[49.06107,39.00787],[49.07699,39.01511],[49.10091,39.02252],[49.12228,39.03203],[49.1361,39.04587],[49.14319,39.06369],[49.14247,39.08241],[49.13093,39.09792],[49.10862,39.1078],[49.08465,39.11614],[49.06987,39.13112],[49.06268,39.15237],[49.05409,39.1707],[49.03857,39.18145],[49.01521,39.18606],[48.98991,39.18597],[48.97194,39.18194],[48.96283,39.17445],[48.95721,39.16444],[48.95261,39.15407],[48.94988,39.14477],[48.94827,39.1365],[48.94575,39.13013],[48.94199,39.12674],[48.93827,39.12253],[48.93581,39.10869],[48.93621,39.08338],[48.94071,39.05551],[48.94483,39.02777],[48.9406,38.99332],[48.92821,38.95512],[48.91459,38.92418],[48.90216,38.90242],[48.88682,38.88597],[48.86546,38.8727],[48.84517,38.85862],[48.83572,38.84029],[48.83726,38.81883],[48.8459,38.78527],[48.85784,38.71366],[48.86756,38.60104],[48.87273,38.49092],[48.87451,38.41535],[48.87357,38.36318],[48.87192,38.32159],[48.87356,38.28527],[48.88092,38.24143],[48.895,38.17518],[48.91495,38.08644],[48.93312,38.00359],[48.9414,37.95255],[48.94319,37.92561],[48.94818,37.90398],[48.96091,37.8794],[48.97623,37.85395],[48.98479,37.83498],[48.9862,37.82192],[48.9888,37.80423],[49.00052,37.77407],[49.02771,37.73123],[49.07394,37.68033],[49.14146,37.62753],[49.23382,37.57635],[49.35947,37.52986],[49.53105,37.49304],[49.71639,37.47031],[49.84313,37.46366],[49.90056,37.46675],[49.93219,37.46784],[49.95277,37.46404],[49.95699,37.46086],[49.95067,37.46021],[49.94837,37.45737],[49.97234,37.44674],[50.03681,37.42822],[50.11968,37.40719],[50.18271,37.38587],[50.21407,37.36179],[50.22648,37.33556],[50.23459,37.30989],[50.24458,37.28591],[50.25688,37.26273],[50.27315,37.23415],[50.29585,37.19694],[50.32713,37.1581],[50.37035,37.12096],[50.42135,37.08303],[50.4651,37.05039],[50.49937,37.0281],[50.54243,37.00639],[50.59577,36.98105],[50.63775,36.96143],[50.66341,36.94773],[50.69285,36.92973],[50.75508,36.89684],[50.86098,36.84446],[50.9937,36.78545],[51.1519,36.73548],[51.34267,36.69398],[51.54192,36.65609],[51.72932,36.62375],[51.90995,36.60686],[52.08723,36.61646],[52.26039,36.64722],[52.43276,36.68196],[52.6062,36.71333],[52.77858,36.74558],[52.95861,36.78359],[53.15981,36.82622],[53.37208,36.864],[53.58507,36.88905],[53.78559,36.90649],[53.92574,36.92238],[53.98244,36.92882],[53.97962,36.91926],[53.94023,36.90341],[53.88706,36.89128],[53.84458,36.88311],[53.81879,36.87877],[53.79986,36.87902],[53.77995,36.88065],[53.75879,36.87942],[53.73546,36.8759],[53.704,36.87424],[53.66413,36.8747],[53.63217,36.87305],[53.62424,36.86838],[53.63522,36.86416],[53.64603,36.86158],[53.64721,36.85779],[53.64999,36.84882],[53.67578,36.83428],[53.73642,36.81913],[53.81138,36.80765],[53.87071,36.80182],[53.92268,36.80491],[53.97814,36.81658],[54.01658,36.8367],[54.02969,36.8735],[54.03017,36.92162],[54.02404,36.95708],[54.01274,36.97288],[54.00362,36.98369],[54.00305,37.00137],[54.00415,37.02778],[53.99579,37.06274],[53.97774,37.11119],[53.95591,37.17105],[53.93621,37.22778],[53.92317,37.27594],[53.91571,37.32328],[53.90887,37.37926],[53.89912,37.44396],[53.88647,37.50125],[53.87407,37.54149],[53.8631,37.5806],[53.84868,37.65585],[53.82952,37.79104],[53.81529,37.94116],[53.81388,38.03891],[53.8228,38.0904],[53.83617,38.13873],[53.84857,38.19029],[53.8569,38.23307],[53.86188,38.27167],[53.86375,38.31606],[53.86204,38.35899],[53.85782,38.38692],[53.85254,38.40156],[53.84776,38.41278],[53.8436,38.42862],[53.83798,38.45594],[53.83185,38.49508],[53.83042,38.54258],[53.83638,38.59436],[53.84969,38.64303],[53.87174,38.68746],[53.89754,38.73093],[53.91505,38.769],[53.92278,38.79634],[53.92934,38.81548],[53.93741,38.83258],[53.94541,38.85027],[53.95424,38.86746],[53.96431,38.88399],[53.97279,38.89918],[53.97584,38.91066],[53.9731,38.9202],[53.96538,38.93175],[53.95127,38.94368],[53.93442,38.9522],[53.92314,38.95791],[53.91869,38.96299],[53.91569,38.96748],[53.91034,38.97079],[53.90329,38.9734],[53.89679,38.9765],[53.89126,38.98151],[53.88659,38.98902],[53.88278,38.99898],[53.87811,39.0115],[53.86875,39.02435],[53.85065,39.03348],[53.82582,39.03839],[53.80314,39.04112],[53.78791,39.04155],[53.77834,39.03908],[53.77166,39.03596],[53.76531,39.03638],[53.75631,39.04496],[53.74409,39.06455],[53.7314,39.08855],[53.72143,39.10249],[53.7161,39.1002],[53.71684,39.08807],[53.72233,39.07467],[53.72716,39.06531],[53.72542,39.06273],[53.71595,39.06804],[53.70486,39.08099],[53.69924,39.09991],[53.69847,39.12087],[53.69828,39.13862],[53.70056,39.15126],[53.70786,39.16106],[53.71292,39.17046],[53.71077,39.18336],[53.70902,39.2035],[53.70828,39.22276],[53.69819,39.22714],[53.68085,39.21712],[53.67049,39.19755],[53.67171,39.16317],[53.67403,39.1247],[53.6669,39.10997],[53.65219,39.12114],[53.63896,39.13938],[53.63159,39.15719],[53.62666,39.17421],[53.61921,39.18752],[53.61084,39.19736],[53.60693,39.20806],[53.60657,39.22091],[53.6043,39.23205],[53.59801,39.23541],[53.58868,39.22686],[53.57836,39.21258],[53.57017,39.20804],[53.56756,39.22309],[53.57066,39.25222],[53.57345,39.27946],[53.57309,39.29732],[53.57397,39.3118],[53.5746,39.32329],[53.56962,39.32817],[53.56303,39.33262],[53.56025,39.34134],[53.55679,39.34748],[53.54767,39.34519],[53.53585,39.33939],[53.52293,39.33604],[53.50381,39.33353],[53.47871,39.3287],[53.45748,39.32416],[53.44605,39.3255],[53.44057,39.33139],[53.43512,39.33343],[53.42716,39.32829],[53.41662,39.32052],[53.40509,39.31517],[53.39695,39.31536],[53.39537,39.32216],[53.39616,39.33156],[53.39247,39.33736],[53.38446,39.33869],[53.37692,39.33812],[53.37125,39.33638],[53.36637,39.33405],[53.3622,39.33338],[53.35815,39.33601],[53.35269,39.34031],[53.34388,39.34217],[53.32977,39.33954],[53.31273,39.33546],[53.2999,39.33481],[53.29537,39.33873],[53.29556,39.34436],[53.29378,39.34877],[53.28689,39.35123],[53.27632,39.35307],[53.26411,39.35633],[53.25078,39.36083],[53.23382,39.36337],[53.20883,39.36088],[53.18189,39.35307],[53.17068,39.34217],[53.17793,39.33064],[53.18482,39.31831],[53.18099,39.30381],[53.174,39.28794],[53.17138,39.27025],[53.1738,39.24707],[53.17738,39.21952],[53.1766,39.19634],[53.16906,39.19264],[53.15613,39.22494],[53.14006,39.28397],[53.12102,39.33779],[53.10193,39.37395],[53.09191,39.39905],[53.09552,39.41755],[53.10858,39.43305],[53.12366,39.44768],[53.13424,39.46082],[53.14085,39.47287],[53.14957,39.48538],[53.16391,39.50343],[53.18471,39.5365],[53.21174,39.58371],[53.24302,39.62732],[53.27364,39.65167],[53.29215,39.65633],[53.28987,39.64857],[53.27321,39.63353],[53.25535,39.61456],[53.24306,39.59541],[53.23477,39.57865],[53.22643,39.56387],[53.22149,39.54835],[53.23485,39.53469],[53.28036,39.53019],[53.34808,39.53321],[53.40733,39.53412],[53.44084,39.52799],[53.45667,39.51645],[53.46782,39.50317],[53.47997,39.49164],[53.49558,39.48357],[53.51739,39.47839],[53.54277,39.4744],[53.56293,39.47161],[53.57371,39.47268],[53.57793,39.47868],[53.57855,39.48701],[53.57598,39.49438],[53.57097,39.50076],[53.56874,39.50923],[53.57462,39.51777],[53.58696,39.51829],[53.60145,39.5099],[53.61773,39.50239],[53.63761,39.50417],[53.65972,39.5128],[53.67985,39.51888],[53.69683,39.51788],[53.71175,39.51404],[53.72339,39.51377],[53.72948,39.51915],[53.72879,39.52773],[53.72139,39.53657],[53.70664,39.54447],[53.6831,39.55206],[53.65704,39.56032],[53.64237,39.56868],[53.64328,39.57626],[53.64931,39.58429],[53.6504,39.59472],[53.64443,39.60645],[53.63113,39.61543],[53.60962,39.61929],[53.58594,39.62147],[53.57087,39.62801],[53.56532,39.63971],[53.56171,39.65261],[53.55524,39.66413],[53.54629,39.67103],[53.53923,39.66685],[53.53697,39.65239],[53.53447,39.6418],[53.52278,39.6487],[53.49988,39.66993],[53.47382,39.68938],[53.45571,39.69581],[53.45024,39.69032],[53.45087,39.68215],[53.4476,39.67981],[53.43931,39.68155],[53.43335,39.67839],[53.43541,39.66636],[53.44067,39.6517],[53.43746,39.64643],[53.42616,39.66148],[53.41953,39.69716],[53.41924,39.73494],[53.41551,39.7546],[53.40581,39.7585],[53.3949,39.76007],[53.3887,39.76465],[53.396,39.77522],[53.42221,39.7978],[53.45749,39.82954],[53.48276,39.85614],[53.49028,39.87079],[53.48857,39.87899],[53.48858,39.88514],[53.49456,39.88948],[53.50606,39.8923],[53.51983,39.8948],[53.53016,39.89853],[53.53327,39.90388],[53.53153,39.90987],[53.53171,39.91673],[53.53872,39.926],[53.55092,39.93787],[53.56233,39.95079],[53.56825,39.96111],[53.56841,39.96564],[53.56599,39.96569],[53.56261,39.96515],[53.55593,39.9673],[53.54272,39.9721],[53.52224,39.97602],[53.49797,39.97881],[53.47506,39.98453],[53.45526,39.99362],[53.43727,40.00169],[53.41974,40.00585],[53.4022,40.00594],[53.38329,40.00054],[53.36002,39.98715],[53.33463,39.96983],[53.31484,39.95721],[53.30207,39.95041],[53.29194,39.94568],[53.28241,39.94355],[53.27216,39.94571],[53.26045,39.95038],[53.24554,39.95715],[53.22076,39.96941],[53.18745,39.98349],[53.15882,39.98854],[53.13644,39.98353],[53.10859,39.97692],[53.07868,39.9747],[53.06343,39.97796],[53.06474,39.98418],[53.06746,39.98909],[53.05381,39.98863],[53.01964,39.98347],[52.98049,39.98171],[52.9506,39.99035],[52.92972,40.0048],[52.91336,40.01267],[52.90202,40.00861],[52.89964,39.99718],[52.90592,39.98268],[52.91502,39.96433],[52.92269,39.93921],[52.93085,39.91002],[52.9437,39.88459],[52.96189,39.86316],[52.9848,39.83791],[53.01167,39.80804],[53.03582,39.78378],[53.04656,39.77236],[53.03974,39.77179],[53.0274,39.77376],[53.02665,39.76811],[53.03341,39.7571],[53.0299,39.75456],[53.01272,39.76709],[52.99076,39.79168],[52.96905,39.82062],[52.94689,39.8441],[52.92499,39.86061],[52.90801,39.87779],[52.89784,39.90058],[52.88554,39.92796],[52.85518,39.95996],[52.8075,39.99579],[52.76626,40.02963],[52.74747,40.06046],[52.74625,40.09074],[52.7524,40.11684],[52.75898,40.13675],[52.76015,40.15507],[52.75276,40.17506],[52.7431,40.19424],[52.73806,40.20938],[52.73201,40.22363],[52.71923,40.2446],[52.70867,40.28383],[52.71258,40.35397],[52.72979,40.44102],[52.75313,40.51129],[52.78402,40.56153],[52.82089,40.60893],[52.84952,40.65255],[52.85941,40.68276],[52.85302,40.69854],[52.84009,40.70627],[52.83131,40.71349],[52.83052,40.72351],[52.83317,40.73407],[52.83484,40.74173],[52.83789,40.74708],[52.84624,40.7519],[52.8571,40.75585],[52.86464,40.75984],[52.8672,40.76629],[52.86635,40.77498],[52.86541,40.78774],[52.87145,40.81641],[52.88918,40.86769],[52.91013,40.92811],[52.92042,40.98439],[52.9201,41.03342],[52.92164,41.06607],[52.93207,41.07536],[52.94653,41.06969],[52.9571,41.05981],[52.96119,41.04915],[52.96069,41.03805],[52.95924,41.02638],[52.96313,41.01128],[52.97802,40.98894],[52.99961,40.96101],[53.01768,40.9327],[53.03147,40.90739],[53.04707,40.88764],[53.06447,40.87491],[53.0807,40.86872],[53.09585,40.86749],[53.10782,40.86822],[53.11052,40.86659],[53.10084,40.8606],[53.08451,40.85189],[53.07291,40.84179],[53.07261,40.83126],[53.081,40.8218],[53.09134,40.81298],[53.09858,40.8037],[53.10213,40.79402],[53.10512,40.78456],[53.11284,40.77679],[53.13046,40.77189],[53.15602,40.7702],[53.18293,40.77393],[53.21074,40.78622],[53.23715,40.80108],[53.25126,40.80444],[53.25147,40.79347],[53.25444,40.78039],[53.27609,40.77504],[53.30891,40.77725],[53.33157,40.78375],[53.33893,40.79302],[53.34159,40.80415],[53.34745,40.81603],[53.3577,40.82648],[53.36928,40.83184],[53.3773,40.82997],[53.37895,40.82167],[53.3771,40.80922],[53.3782,40.79471],[53.38637,40.77951],[53.40118,40.76589],[53.41921,40.75625],[53.43599,40.75026],[53.44942,40.74533],[53.46084,40.74064],[53.47162,40.73819],[53.48199,40.7393],[53.49423,40.74384],[53.51204,40.75177],[53.53312,40.76289],[53.54913,40.77856],[53.55647,40.80147],[53.56049,40.82982],[53.56841,40.85783],[53.58096,40.87978],[53.5937,40.89128],[53.60486,40.89351],[53.61511,40.89129],[53.62383,40.88689],[53.63028,40.88142],[53.63571,40.87649],[53.64236,40.87257],[53.64954,40.86877],[53.654,40.86432],[53.65461,40.85914],[53.6528,40.85377],[53.65073,40.84783],[53.65083,40.83905],[53.65433,40.82757],[53.65968,40.81697],[53.66272,40.80803],[53.66062,40.79912],[53.65604,40.79004],[53.65526,40.77797],[53.66219,40.75797],[53.67487,40.73324],[53.68865,40.71434],[53.70067,40.70545],[53.71022,40.70114],[53.71694,40.69581],[53.71951,40.68774],[53.71648,40.67646],[53.71125,40.66219],[53.71333,40.64696],[53.7308,40.63501],[53.76428,40.63002],[53.80728,40.63032],[53.84749,40.63344],[53.87723,40.64151],[53.90213,40.65449],[53.92661,40.66646],[53.9468,40.67177],[53.9646,40.66982],[53.98562,40.66488],[54.00841,40.66257],[54.03014,40.66519],[54.05172,40.67081],[54.07136,40.67709],[54.08435,40.68354],[54.09021,40.69009],[54.09009,40.69618],[54.08238,40.70216],[54.07292,40.70842],[54.07871,40.71332],[54.10542,40.71661],[54.14146,40.72099],[54.17897,40.72597],[54.21133,40.7276],[54.22728,40.72368],[54.22709,40.71407],[54.22196,40.70179],[54.22152,40.69215],[54.23953,40.68571],[54.28883,40.6808],[54.34715,40.67946],[54.37461,40.68327],[54.37632,40.6908],[54.38524,40.70044],[54.3999,40.71034],[54.39118,40.71778],[54.3568,40.72182],[54.32578,40.72608],[54.31192,40.73573],[54.30552,40.75197],[54.29759,40.77296],[54.2871,40.79657],[54.2771,40.81897],[54.27015,40.83597],[54.26711,40.84705],[54.26771,40.85446],[54.27001,40.86021],[54.27143,40.86554],[54.27005,40.87038],[54.265,40.87346],[54.25727,40.87513],[54.25029,40.87838],[54.24785,40.88416],[54.25094,40.88942],[54.25757,40.89199],[54.26629,40.8944],[54.2786,40.90128],[54.2951,40.91243],[54.31403,40.92138],[54.33781,40.92115],[54.37091,40.90937],[54.40799,40.89213],[54.43785,40.87745],[54.45547,40.86495],[54.45983,40.8509],[54.45528,40.83544],[54.46222,40.82298],[54.50217,40.81983],[54.56326,40.82612],[54.61197,40.8356],[54.64025,40.84673],[54.66385,40.86122],[54.68963,40.87798],[54.71461,40.89869],[54.73611,40.9239],[54.75028,40.94703],[54.7549,40.9649],[54.75275,40.97949],[54.74706,40.99126]]]}}]}