{"type":"FeatureCollection","meta":{"year":2021,"level_m":-28.48,"reference_year":2015,"reference_level_m":-27.85,"status":"semi","model":"cross-shore translation: retreat = Δlevel / tan(β)","source_id":"model","projected":false},"features":[{"type":"Feature","properties":{"year":2021,"level_m":-28.48},"geometry":{"type":"Polygon","coordinates":[[[54.73555,41.00384],[54.71699,41.02389],[54.69592,41.04657],[54.68373,41.06206],[54.68658,41.0679],[54.7034,41.06527],[54.72839,41.05609],[54.74878,41.04781],[54.75248,41.04786],[54.74282,41.05508],[54.73156,41.06412],[54.7237,41.07237],[54.71909,41.07942],[54.71755,41.08582],[54.71908,41.09221],[54.72298,41.09745],[54.72621,41.10053],[54.72316,41.1044],[54.70978,41.11196],[54.68745,41.12046],[54.6626,41.1284],[54.64151,41.14124],[54.61171,41.16857],[54.54168,41.2184],[54.43542,41.27974],[54.34382,41.32622],[54.29034,41.35227],[54.25341,41.37215],[54.22015,41.39037],[54.19656,41.40403],[54.18245,41.41613],[54.16986,41.43128],[54.15479,41.44741],[54.13603,41.45941],[54.11338,41.46757],[54.09132,41.47635],[54.07338,41.48923],[54.05757,41.50885],[54.04283,41.53668],[54.03176,41.57404],[54.02563,41.62348],[54.02156,41.67903],[54.01523,41.72692],[54.00255,41.76561],[53.98093,41.80461],[53.95611,41.84264],[53.93869,41.86895],[53.92933,41.88161],[53.92111,41.88728],[53.91172,41.8911],[53.90378,41.89643],[53.90008,41.90479],[53.90101,41.91463],[53.90421,41.92421],[53.9064,41.93371],[53.90584,41.94484],[53.90428,41.95895],[53.90557,41.97543],[53.90991,41.99233],[53.91328,42.00843],[53.91316,42.02495],[53.9098,42.04294],[53.90225,42.06143],[53.88616,42.08038],[53.857,42.1005],[53.81606,42.11855],[53.77029,42.12958],[53.70875,42.13286],[53.59825,42.12689],[53.45375,42.11029],[53.34266,42.09239],[53.27892,42.08492],[53.22502,42.0883],[53.1705,42.09202],[53.12457,42.08485],[53.08387,42.06432],[53.03623,42.03263],[52.97716,41.98427],[52.91178,41.90817],[52.85107,41.82019],[52.81017,41.76049],[52.79075,41.73609],[52.78075,41.72077],[52.77383,41.70078],[52.77123,41.68051],[52.77597,41.66952],[52.78998,41.67376],[52.81211,41.68721],[52.84066,41.69666],[52.8717,41.69568],[52.89637,41.68681],[52.90825,41.67394],[52.90812,41.65906],[52.90187,41.64389],[52.897,41.62997],[52.89669,41.61639],[52.8985,41.60158],[52.89501,41.57832],[52.87724,41.53264],[52.84946,41.47136],[52.82747,41.42249],[52.81692,41.3956],[52.81388,41.37939],[52.81692,41.36247],[52.82465,41.33566],[52.83356,41.29651],[52.84443,41.25158],[52.86306,41.20499],[52.88616,41.16008],[52.89923,41.12504],[52.89657,41.09935],[52.88726,41.07671],[52.88008,41.06038],[52.8745,41.05587],[52.86666,41.06093],[52.85703,41.0697],[52.84973,41.08025],[52.84781,41.09589],[52.84952,41.11765],[52.85011,41.14094],[52.84694,41.16219],[52.84066,41.1808],[52.83305,41.1957],[52.82511,41.20645],[52.81762,41.215],[52.81237,41.22417],[52.81037,41.23607],[52.80909,41.25265],[52.80391,41.27694],[52.79458,41.30532],[52.78432,41.32857],[52.77306,41.348],[52.75986,41.36793],[52.74634,41.38289],[52.73404,41.39031],[52.72442,41.3962],[52.7187,41.40496],[52.71568,41.41533],[52.71223,41.42489],[52.70549,41.43391],[52.69419,41.44288],[52.67854,41.45],[52.65969,41.45634],[52.63837,41.46775],[52.61585,41.48486],[52.5951,41.50028],[52.57804,41.51162],[52.56614,41.52375],[52.56237,41.53826],[52.56755,41.55374],[52.57693,41.5693],[52.58372,41.58366],[52.58602,41.59755],[52.58684,41.61161],[52.58879,41.62357],[52.59131,41.63246],[52.59223,41.63932],[52.59085,41.64491],[52.58791,41.64933],[52.58363,41.65328],[52.57797,41.65978],[52.57172,41.6699],[52.56582,41.67992],[52.55932,41.6865],[52.55022,41.6894],[52.53904,41.69071],[52.52863,41.69394],[52.52011,41.70022],[52.51123,41.70775],[52.49971,41.7158],[52.48607,41.72399],[52.47074,41.7312],[52.45443,41.73926],[52.44207,41.75192],[52.44035,41.7732],[52.45199,41.80819],[52.47004,41.85439],[52.48123,41.89929],[52.48009,41.93416],[52.47143,41.95856],[52.46075,41.97439],[52.45042,41.98446],[52.44124,41.99256],[52.4346,42.00333],[52.43229,42.02018],[52.43299,42.03992],[52.43107,42.05671],[52.42268,42.07192],[52.41369,42.08935],[52.41289,42.10792],[52.41891,42.12641],[52.42507,42.14511],[52.43041,42.16282],[52.43842,42.1773],[52.45108,42.18756],[52.46879,42.19909],[52.49562,42.22496],[52.53291,42.26793],[52.56833,42.30926],[52.58866,42.33348],[52.5959,42.34655],[52.59807,42.35961],[52.59898,42.37435],[52.60211,42.38815],[52.61177,42.40162],[52.6262,42.41556],[52.63775,42.42811],[52.64327,42.43954],[52.64668,42.4531],[52.65286,42.4733],[52.66224,42.5028],[52.66953,42.53828],[52.66842,42.57545],[52.65687,42.61301],[52.6368,42.64769],[52.61105,42.67571],[52.58563,42.69869],[52.56992,42.71955],[52.56745,42.73566],[52.57299,42.7411],[52.58079,42.73376],[52.58992,42.718],[52.60179,42.7018],[52.61669,42.68997],[52.63462,42.68044],[52.65248,42.67032],[52.66407,42.66087],[52.66884,42.65376],[52.67242,42.64701],[52.67899,42.63489],[52.68869,42.61601],[52.69946,42.59915],[52.70998,42.59329],[52.72031,42.59997],[52.73005,42.61612],[52.73707,42.6381],[52.7377,42.66532],[52.72798,42.69627],[52.70553,42.7234],[52.67359,42.74163],[52.64105,42.75632],[52.6062,42.77514],[52.55129,42.79773],[52.47416,42.81716],[52.40375,42.82801],[52.36325,42.83088],[52.3449,42.82921],[52.33275,42.82509],[52.32201,42.81882],[52.31293,42.80992],[52.30398,42.80045],[52.28852,42.79968],[52.25769,42.81828],[52.21496,42.85059],[52.17154,42.87588],[52.12347,42.88281],[52.0636,42.87526],[52.00469,42.86063],[51.96198,42.84673],[51.93151,42.84313],[51.90029,42.85683],[51.86674,42.88353],[51.83902,42.91181],[51.81912,42.93623],[51.80386,42.95799],[51.79169,42.98077],[51.77884,43.00704],[51.75912,43.0357],[51.73409,43.06294],[51.71273,43.08254],[51.69779,43.09198],[51.68595,43.09658],[51.67703,43.10267],[51.67301,43.11152],[51.67398,43.12112],[51.67725,43.13115],[51.67854,43.14385],[51.67452,43.15982],[51.66322,43.17452],[51.64157,43.18139],[51.60874,43.18033],[51.57331,43.17695],[51.54722,43.17357],[51.53298,43.16898],[51.52486,43.1632],[51.51722,43.15809],[51.50672,43.15615],[51.49222,43.15855],[51.47085,43.1623],[51.43092,43.16212],[51.36784,43.15857],[51.30602,43.15931],[51.275,43.17343],[51.27673,43.20792],[51.2933,43.26369],[51.30784,43.3353],[51.31206,43.40787],[51.30445,43.46272],[51.29057,43.49598],[51.28008,43.51604],[51.27576,43.53108],[51.27299,43.54552],[51.26547,43.55961],[51.24876,43.57451],[51.22773,43.59149],[51.21254,43.60768],[51.20437,43.61869],[51.19694,43.62273],[51.18714,43.62222],[51.17585,43.62133],[51.16452,43.62253],[51.15233,43.62774],[51.13167,43.6474],[51.09395,43.6962],[51.04953,43.76169],[51.02074,43.81006],[51.01054,43.83272],[51.00604,43.84431],[51.00066,43.85312],[50.99533,43.86065],[50.99227,43.86907],[50.99186,43.88074],[50.99144,43.89471],[50.98678,43.90809],[50.97511,43.92121],[50.95954,43.93518],[50.94609,43.94975],[50.93498,43.96562],[50.92323,43.98263],[50.9114,43.99772],[50.9,44.00814],[50.88698,44.01457],[50.87277,44.0202],[50.86145,44.02772],[50.85597,44.03726],[50.85598,44.04731],[50.85845,44.06216],[50.85944,44.09202],[50.85694,44.13328],[50.85063,44.16812],[50.83776,44.19195],[50.81115,44.21364],[50.74632,44.2388],[50.61219,44.26891],[50.44384,44.29932],[50.32662,44.32198],[50.2783,44.33734],[50.25675,44.35233],[50.24223,44.37189],[50.23625,44.39831],[50.23614,44.42849],[50.2364,44.4545],[50.23547,44.47286],[50.2336,44.48835],[50.23003,44.5084],[50.22726,44.5349],[50.22998,44.55913],[50.2395,44.56974],[50.25324,44.57058],[50.26733,44.5773],[50.27962,44.59278],[50.29019,44.60747],[50.29854,44.6188],[50.3035,44.63031],[50.3061,44.64153],[50.30885,44.6495],[50.31249,44.65294],[50.31739,44.65189],[50.33465,44.64635],[50.38527,44.63667],[50.46478,44.62741],[50.53739,44.6252],[50.58257,44.62817],[50.60752,44.6277],[50.62889,44.62186],[50.66265,44.61561],[50.70487,44.61049],[50.73747,44.60547],[50.75742,44.60351],[50.77189,44.60782],[50.78177,44.6158],[50.78702,44.62239],[50.7937,44.6256],[50.81098,44.62615],[50.8388,44.62457],[50.86783,44.61996],[50.89591,44.6099],[50.92555,44.59377],[50.95237,44.57747],[50.97309,44.56837],[50.9895,44.56562],[51.00128,44.56298],[51.00683,44.55783],[51.00603,44.55201],[51.00137,44.54673],[51.00075,44.53966],[51.01528,44.52771],[51.05078,44.51136],[51.09802,44.49585],[51.14019,44.48732],[51.17268,44.48687],[51.20238,44.49353],[51.23395,44.5082],[51.26237,44.52631],[51.27874,44.53879],[51.28446,44.54439],[51.28803,44.54778],[51.29424,44.55046],[51.30538,44.5518],[51.32205,44.55263],[51.34205,44.55458],[51.36071,44.55532],[51.37367,44.54861],[51.38774,44.53592],[51.41917,44.5265],[51.46993,44.52119],[51.52046,44.51631],[51.55278,44.51635],[51.56503,44.52464],[51.56308,44.53681],[51.5499,44.54942],[51.52278,44.56402],[51.4834,44.58135],[51.44346,44.59546],[51.40727,44.60001],[51.3676,44.59881],[51.32445,44.60534],[51.28528,44.63152],[51.25275,44.67206],[51.22079,44.70987],[51.18058,44.73916],[51.13795,44.76252],[51.10963,44.77804],[51.09617,44.78578],[51.08287,44.79006],[51.06433,44.79403],[51.04763,44.79906],[51.03324,44.80673],[51.01073,44.8201],[50.98224,44.84003],[50.96591,44.86261],[50.9674,44.88321],[50.97642,44.89877],[50.98632,44.90884],[50.99408,44.91678],[50.99493,44.92531],[50.98918,44.93308],[50.98191,44.93821],[50.97373,44.94123],[50.96374,44.94467],[50.95734,44.95146],[50.96008,44.96186],[50.9714,44.97279],[50.98865,44.9815],[51.0091,44.98698],[51.03017,44.98924],[51.05053,44.99028],[51.06874,44.9934],[51.08345,45.00005],[51.09504,45.00915],[51.10684,45.01943],[51.12487,45.03107],[51.14994,45.04333],[51.17434,45.05229],[51.19293,45.05421],[51.20868,45.04809],[51.22675,45.03644],[51.24769,45.02669],[51.26424,45.02692],[51.26884,45.03812],[51.26281,45.05467],[51.25221,45.07147],[51.24361,45.08658],[51.24379,45.09963],[51.25245,45.11123],[51.26028,45.12208],[51.25922,45.13214],[51.25175,45.14187],[51.24799,45.15195],[51.25267,45.16255],[51.26304,45.17575],[51.27786,45.19453],[51.29475,45.21681],[51.31317,45.24061],[51.34248,45.2722],[51.38081,45.31116],[51.40831,45.3445],[51.4183,45.36556],[51.42236,45.37382],[51.43277,45.36657],[51.45734,45.34905],[51.49678,45.33515],[51.54438,45.33305],[51.59112,45.34196],[51.62954,45.35742],[51.65614,45.37217],[51.67413,45.38037],[51.69033,45.38478],[51.70701,45.3929],[51.72221,45.40742],[51.73529,45.42446],[51.74669,45.43814],[51.75613,45.44389],[51.76399,45.44042],[51.77177,45.43001],[51.78504,45.41603],[51.8136,45.40201],[51.85383,45.39057],[51.88902,45.38043],[51.91526,45.37067],[51.93993,45.36609],[51.9655,45.37053],[51.98964,45.37944],[52.01174,45.3847],[52.03625,45.38345],[52.08291,45.3808],[52.1837,45.38388],[52.32349,45.39149],[52.43908,45.3966],[52.51791,45.39402],[52.60382,45.3787],[52.71085,45.35348],[52.80741,45.33064],[52.87431,45.31666],[52.9282,45.31076],[52.98241,45.30911],[53.03149,45.3055],[53.07234,45.29936],[53.10704,45.29717],[53.1386,45.3025],[53.16817,45.31152],[53.19155,45.31909],[53.2063,45.32488],[53.21558,45.32951],[53.22449,45.33109],[53.23586,45.32988],[53.24782,45.32962],[53.25726,45.33319],[53.26153,45.34056],[53.25975,45.34928],[53.24789,45.35729],[53.21546,45.36562],[53.16925,45.37521],[53.13528,45.38421],[53.12136,45.39102],[53.11373,45.39577],[53.09936,45.39963],[53.06641,45.40697],[53.00755,45.42308],[52.9397,45.44387],[52.89176,45.4596],[52.8678,45.47019],[52.85415,45.47973],[52.84288,45.48686],[52.82578,45.49172],[52.79601,45.49876],[52.76222,45.51004],[52.73998,45.52318],[52.73153,45.53496],[52.72808,45.5447],[52.72592,45.55427],[52.72707,45.56442],[52.73022,45.57341],[52.73156,45.58066],[52.73064,45.58903],[52.73003,45.60232],[52.73323,45.61983],[52.74366,45.63529],[52.76095,45.64469],[52.77911,45.65212],[52.79328,45.66494],[52.80829,45.68753],[52.83166,45.71846],[52.85856,45.74869],[52.87949,45.76837],[52.8957,45.77799],[52.91331,45.78634],[52.93315,45.8013],[52.95091,45.82504],[52.96546,45.8536],[52.98367,45.88071],[53.00835,45.90254],[53.03022,45.91951],[53.04033,45.93438],[53.04329,45.94946],[53.05036,45.96535],[53.06222,45.98285],[53.0709,46.00217],[53.07359,46.01919],[53.0728,46.03001],[53.07221,46.03741],[53.07754,46.04718],[53.09047,46.06167],[53.10253,46.07958],[53.10763,46.10141],[53.11088,46.13647],[53.11646,46.19413],[53.12003,46.26496],[53.11353,46.32909],[53.09096,46.37903],[53.05783,46.41723],[53.03552,46.44036],[53.04085,46.44368],[53.06407,46.43542],[53.07988,46.43104],[53.07566,46.43726],[53.06061,46.45198],[53.04939,46.47119],[53.04919,46.48742],[53.0586,46.49244],[53.06472,46.48557],[53.05174,46.47419],[53.01996,46.46998],[52.99206,46.48095],[52.99444,46.50311],[53.02074,46.52651],[53.03685,46.54161],[53.03743,46.54175],[53.04908,46.53343],[53.07395,46.53257],[53.0861,46.54727],[53.08062,46.57194],[53.07878,46.5917],[53.09059,46.59695],[53.11243,46.59564],[53.1388,46.60018],[53.15742,46.60963],[53.16217,46.61552],[53.164,46.61556],[53.17471,46.61438],[53.18959,46.61765],[53.19306,46.62861],[53.1834,46.64561],[53.17442,46.66501],[53.1698,46.68391],[53.16067,46.69809],[53.142,46.70624],[53.11589,46.71399],[53.09024,46.72848],[53.07324,46.7541],[53.0627,46.7916],[53.05121,46.8327],[53.04071,46.86262],[53.03626,46.87509],[53.02965,46.87621],[53.00921,46.87596],[52.97803,46.88332],[52.94682,46.90127],[52.92218,46.92132],[52.89815,46.93152],[52.85675,46.93079],[52.79113,46.92717],[52.71274,46.92651],[52.63916,46.92951],[52.58469,46.93689],[52.54928,46.94958],[52.52275,46.9633],[52.49667,46.97236],[52.47196,46.97676],[52.4539,46.97904],[52.43503,46.97864],[52.41444,46.97129],[52.40907,46.95323],[52.41243,46.9262],[52.39539,46.89706],[52.34851,46.87271],[52.28701,46.85774],[52.23476,46.85466],[52.20436,46.86039],[52.18518,46.86683],[52.16804,46.86611],[52.16351,46.85573],[52.17638,46.84243],[52.19243,46.83425],[52.20057,46.83116],[52.20349,46.82838],[52.20639,46.82349],[52.21115,46.81639],[52.21141,46.80615],[52.18699,46.79612],[52.13486,46.79395],[52.08588,46.80011],[52.05922,46.80948],[52.04615,46.82036],[52.03979,46.83076],[52.0389,46.83598],[52.0356,46.83825],[52.02187,46.84562],[52.00195,46.85821],[51.98491,46.87134],[51.97749,46.88448],[51.98811,46.89497],[52.00988,46.90131],[52.01763,46.90906],[52.00817,46.91797],[52.00298,46.92124],[52.00599,46.91645],[52.00136,46.90228],[51.97993,46.88155],[51.94527,46.86577],[51.90916,46.86305],[51.88827,46.87268],[51.88735,46.88941],[51.8893,46.90486],[51.88216,46.9124],[51.8705,46.91123],[51.85155,46.90368],[51.81946,46.89495],[51.78203,46.89241],[51.74956,46.89877],[51.72317,46.91107],[51.69762,46.92783],[51.67691,46.95121],[51.67489,46.98075],[51.68238,47.00916],[51.67752,47.02803],[51.6666,47.0359],[51.66286,47.03658],[51.66184,47.03163],[51.65756,47.01914],[51.64581,47.00001],[51.62027,46.98318],[51.58348,46.98119],[51.54858,46.99672],[51.52398,47.01772],[51.50431,47.03219],[51.47525,47.04073],[51.42471,47.05017],[51.35165,47.0639],[51.27481,47.07968],[51.22096,47.09027],[51.18892,47.0887],[51.15,47.07572],[51.08801,47.05867],[51.02103,47.04332],[50.97398,47.02895],[50.94217,47.01428],[50.9097,47.00529],[50.87902,47.00679],[50.86142,47.01327],[50.85973,47.01775],[50.86165,47.01964],[50.85441,47.01993],[50.84837,47.01766],[50.85093,47.00584],[50.83666,46.97347],[50.79173,46.93066],[50.74572,46.90786],[50.73258,46.91292],[50.74732,46.92879],[50.75608,46.94436],[50.75009,46.95427],[50.74693,46.95388],[50.74301,46.94409],[50.72277,46.92923],[50.68937,46.91613],[50.65733,46.91093],[50.6396,46.9129],[50.63777,46.91264],[50.63994,46.89884],[50.63618,46.87238],[50.62425,46.8453],[50.60577,46.82679],[50.59023,46.82167],[50.58844,46.82983],[50.59432,46.84362],[50.59007,46.85477],[50.57236,46.85935],[50.55369,46.85832],[50.54055,46.85507],[50.52821,46.8516],[50.51058,46.85039],[50.48851,46.85487],[50.46696,46.86464],[50.44915,46.87477],[50.43846,46.88085],[50.4363,46.88311],[50.4384,46.88358],[50.43706,46.87815],[50.42464,46.85799],[50.4028,46.82841],[50.38448,46.8127],[50.37549,46.82061],[50.37139,46.83429],[50.3706,46.83647],[50.36991,46.82838],[50.36411,46.8172],[50.35267,46.80682],[50.33809,46.79964],[50.32529,46.79609],[50.31795,46.79427],[50.31196,46.78924],[50.29778,46.77273],[50.27125,46.74614],[50.2414,46.72612],[50.2249,46.72381],[50.22489,46.73342],[50.22465,46.74457],[50.21655,46.75113],[50.20878,46.75153],[50.1959,46.74353],[50.16245,46.72046],[50.11462,46.68412],[50.07355,46.65003],[50.04308,46.62904],[50.01432,46.61975],[49.98918,46.61699],[49.97396,46.6152],[49.96441,46.60985],[49.95186,46.60039],[49.9335,46.58933],[49.91213,46.57846],[49.89011,46.56949],[49.86844,46.56517],[49.85204,46.56417],[49.84367,46.55966],[49.83448,46.54867],[49.81461,46.53924],[49.78924,46.54013],[49.77318,46.54776],[49.77169,46.55293],[49.77597,46.55027],[49.77395,46.53993],[49.75959,46.53059],[49.73748,46.53157],[49.71954,46.5398],[49.71325,46.54671],[49.7159,46.54859],[49.71826,46.54296],[49.70781,46.53344],[49.67954,46.53541],[49.64993,46.55192],[49.63812,46.56213],[49.63799,46.55156],[49.63246,46.5308],[49.6207,46.51626],[49.60968,46.50884],[49.5951,46.50293],[49.57423,46.5025],[49.55317,46.51123],[49.52867,46.52366],[49.49974,46.53677],[49.48365,46.55353],[49.48691,46.5708],[49.4912,46.57597],[49.48197,46.56362],[49.46753,46.54335],[49.46615,46.52426],[49.481,46.50782],[49.49325,46.49506],[49.48725,46.48802],[49.46996,46.48737],[49.45649,46.49233],[49.45709,46.50139],[49.47098,46.51245],[49.48096,46.52254],[49.47161,46.52852],[49.44899,46.53088],[49.43295,46.5335],[49.43346,46.53723],[49.4402,46.53873],[49.43631,46.53499],[49.41478,46.52936],[49.38065,46.52998],[49.34575,46.53976],[49.3219,46.55286],[49.31317,46.55635],[49.32385,46.53954],[49.35462,46.50925],[49.37862,46.48347],[49.37017,46.47081],[49.34229,46.46915],[49.31709,46.47554],[49.29971,46.48716],[49.28952,46.49854],[49.28386,46.50519],[49.27685,46.50709],[49.27269,46.50517],[49.2815,46.49756],[49.29496,46.48206],[49.30318,46.46119],[49.31887,46.44145],[49.34954,46.42774],[49.3799,46.41889],[49.39299,46.40849],[49.383,46.39517],[49.35374,46.38842],[49.31821,46.39542],[49.28973,46.41084],[49.27084,46.4266],[49.25821,46.43921],[49.24961,46.4471],[49.24184,46.45067],[49.23229,46.45152],[49.2272,46.45092],[49.23751,46.44973],[49.25591,46.44523],[49.26206,46.4324],[49.26082,46.41225],[49.27047,46.39283],[49.28122,46.38055],[49.27109,46.37707],[49.2391,46.38175],[49.20536,46.39038],[49.1869,46.39703],[49.1766,46.3976],[49.16669,46.39079],[49.16657,46.38094],[49.17664,46.37427],[49.18933,46.3714],[49.20813,46.36781],[49.23177,46.3596],[49.24771,46.34805],[49.24977,46.33722],[49.24091,46.32592],[49.23448,46.30866],[49.24839,46.28691],[49.28032,46.26898],[49.30531,46.25583],[49.30326,46.24435],[49.27982,46.23887],[49.25453,46.24231],[49.23535,46.24914],[49.21454,46.25567],[49.18765,46.2653],[49.16889,46.28184],[49.16864,46.30133],[49.17111,46.3145],[49.16338,46.31686],[49.15045,46.30949],[49.13368,46.29634],[49.11569,46.28455],[49.10504,46.27644],[49.10002,46.26803],[49.0919,46.25876],[49.07838,46.24995],[49.06864,46.24142],[49.07461,46.23457],[49.09663,46.22579],[49.12081,46.20437],[49.12679,46.17253],[49.10865,46.15087],[49.08227,46.15083],[49.06291,46.16287],[49.05375,46.17372],[49.05217,46.17835],[49.05336,46.17833],[49.05204,46.17517],[49.04407,46.16886],[49.02751,46.16044],[49.0037,46.15022],[48.97917,46.1401],[48.96149,46.13356],[48.95255,46.12664],[48.95414,46.11467],[48.9639,46.10148],[48.9667,46.08943],[48.95618,46.07995],[48.94646,46.08049],[48.94298,46.09362],[48.93058,46.11068],[48.90673,46.12376],[48.89145,46.13267],[48.89411,46.13775],[48.90331,46.13452],[48.90378,46.12109],[48.88755,46.10901],[48.86168,46.111],[48.84403,46.12275],[48.84136,46.13215],[48.84569,46.13168],[48.85677,46.11959],[48.87386,46.0999],[48.8764,46.08039],[48.85783,46.0729],[48.84022,46.08364],[48.83112,46.10174],[48.82092,46.11284],[48.8138,46.11189],[48.8205,46.10049],[48.83608,46.08339],[48.8414,46.06484],[48.82955,46.05172],[48.81738,46.05291],[48.81352,46.06603],[48.80062,46.07963],[48.7704,46.08996],[48.74045,46.09919],[48.72258,46.10445],[48.70842,46.10395],[48.69336,46.10272],[48.68667,46.10373],[48.68984,46.10398],[48.69295,46.10173],[48.6924,46.09758],[48.68832,46.09013],[48.67749,46.08021],[48.66093,46.07267],[48.64734,46.0682],[48.64584,46.06335],[48.6568,46.05624],[48.67336,46.04474],[48.69235,46.03009],[48.71491,46.01866],[48.73459,46.0102],[48.73919,45.99913],[48.72827,45.98659],[48.71236,45.97732],[48.69791,45.97165],[48.68569,45.96742],[48.6744,45.96417],[48.6622,45.96004],[48.65586,45.95317],[48.66532,45.94832],[48.68559,45.94932],[48.70608,45.95208],[48.72501,45.95339],[48.74511,45.95289],[48.76391,45.94752],[48.7726,45.93636],[48.76866,45.92402],[48.75958,45.91351],[48.75783,45.90565],[48.76667,45.89828],[48.77488,45.88264],[48.77944,45.85856],[48.78168,45.84013],[48.77679,45.83356],[48.76646,45.83076],[48.7542,45.8268],[48.74255,45.8229],[48.73121,45.81753],[48.715,45.81445],[48.70231,45.82372],[48.70583,45.8431],[48.71611,45.86025],[48.71342,45.86831],[48.69248,45.87033],[48.66527,45.87468],[48.6454,45.88261],[48.63591,45.88816],[48.63177,45.89007],[48.62956,45.89267],[48.63272,45.90085],[48.63807,45.91337],[48.62987,45.92334],[48.60511,45.93102],[48.581,45.94067],[48.56753,45.94779],[48.55787,45.94701],[48.54638,45.94096],[48.53323,45.9336],[48.51635,45.92685],[48.49709,45.92299],[48.4837,45.92237],[48.4778,45.9213],[48.4697,45.9141],[48.45163,45.89724],[48.42578,45.87557],[48.39985,45.86075],[48.38259,45.85768],[48.37553,45.85967],[48.36958,45.85747],[48.36488,45.84883],[48.37486,45.84],[48.39776,45.83514],[48.40652,45.83048],[48.3802,45.8247],[48.33788,45.82213],[48.31359,45.82265],[48.31009,45.82036],[48.31067,45.8111],[48.3072,45.79609],[48.29794,45.77992],[48.28211,45.76635],[48.2624,45.75695],[48.24635,45.75282],[48.24083,45.75414],[48.24409,45.75676],[48.24912,45.75549],[48.2538,45.7498],[48.25802,45.73925],[48.25447,45.72315],[48.23522,45.71011],[48.20531,45.71005],[48.17716,45.71685],[48.15207,45.71936],[48.12334,45.72039],[48.09681,45.72577],[48.08281,45.72995],[48.07456,45.72623],[48.0614,45.71711],[48.04737,45.70935],[48.03916,45.70478],[48.03124,45.69976],[48.01673,45.69655],[48.00151,45.70192],[47.98967,45.71072],[47.97642,45.71338],[47.96489,45.71249],[47.96118,45.71286],[47.96335,45.71345],[47.9668,45.71322],[47.96609,45.71172],[47.95831,45.70869],[47.9466,45.70408],[47.9343,45.69802],[47.92314,45.69592],[47.91251,45.70214],[47.89675,45.70907],[47.87841,45.70958],[47.86937,45.70751],[47.87004,45.70484],[47.87114,45.69587],[47.86844,45.67963],[47.86457,45.66488],[47.86495,45.6553],[47.86854,45.64382],[47.86756,45.62781],[47.85716,45.61292],[47.83725,45.60701],[47.81515,45.61883],[47.80121,45.64542],[47.79211,45.66916],[47.77446,45.67912],[47.74882,45.68146],[47.72937,45.68729],[47.71781,45.6954],[47.70822,45.69709],[47.70562,45.694],[47.70961,45.69193],[47.70878,45.69012],[47.69903,45.68758],[47.68583,45.68618],[47.67389,45.68674],[47.66521,45.69063],[47.66403,45.70089],[47.67041,45.71543],[47.67511,45.72849],[47.66984,45.7381],[47.65185,45.74293],[47.62668,45.74325],[47.60551,45.74406],[47.59091,45.74754],[47.58028,45.75154],[47.57559,45.75455],[47.57585,45.75353],[47.57592,45.7449],[47.57596,45.73325],[47.58067,45.72837],[47.5928,45.73159],[47.60722,45.73296],[47.61144,45.72399],[47.60536,45.70963],[47.60527,45.7009],[47.61928,45.70037],[47.63761,45.70106],[47.6481,45.69698],[47.65046,45.68871],[47.64879,45.67755],[47.64201,45.66497],[47.63269,45.65658],[47.62851,45.65658],[47.63063,45.66105],[47.63413,45.66166],[47.6345,45.65381],[47.63334,45.63995],[47.64018,45.62635],[47.65201,45.61366],[47.65448,45.59728],[47.64937,45.5791],[47.64262,45.56658],[47.63238,45.5663],[47.62291,45.5819],[47.61187,45.60804],[47.58563,45.63214],[47.54799,45.64607],[47.51418,45.6512],[47.48531,45.6546],[47.459,45.66159],[47.44048,45.67163],[47.43728,45.6821],[47.44885,45.69115],[47.46135,45.69704],[47.46903,45.69961],[47.47986,45.70151],[47.48511,45.70547],[47.46803,45.71353],[47.44072,45.72659],[47.42169,45.73771],[47.40949,45.73924],[47.4028,45.73649],[47.40285,45.7371],[47.40626,45.73918],[47.41381,45.73636],[47.42579,45.72562],[47.43548,45.71171],[47.43914,45.70169],[47.43812,45.69507],[47.43243,45.68487],[47.42752,45.67071],[47.43081,45.66084],[47.43921,45.6599],[47.45071,45.66545],[47.46541,45.66909],[47.47579,45.66143],[47.48402,45.64589],[47.50198,45.63475],[47.53008,45.63125],[47.55716,45.62899],[47.57163,45.62295],[47.57243,45.61201],[47.56932,45.5965],[47.56956,45.58013],[47.57147,45.56784],[47.57056,45.55958],[47.56541,45.55273],[47.55787,45.5466],[47.54954,45.54249],[47.53894,45.54384],[47.52608,45.55411],[47.51476,45.57033],[47.50633,45.58199],[47.4998,45.58193],[47.49669,45.57412],[47.49923,45.56397],[47.50848,45.54943],[47.52203,45.5304],[47.5328,45.51476],[47.5346,45.50598],[47.5257,45.49729],[47.51136,45.48459],[47.50126,45.47094],[47.49838,45.45718],[47.4971,45.44285],[47.48817,45.43149],[47.46407,45.42576],[47.43005,45.4232],[47.40271,45.41912],[47.39471,45.4124],[47.40834,45.40598],[47.43325,45.40144],[47.45206,45.39679],[47.45754,45.39013],[47.454,45.38226],[47.44598,45.37528],[47.43677,45.37021],[47.42996,45.36648],[47.42468,45.36053],[47.41539,45.34657],[47.4012,45.32447],[47.38877,45.29773],[47.38192,45.26288],[47.37678,45.2231],[47.3681,45.19584],[47.35417,45.18827],[47.33617,45.19018],[47.31715,45.18999],[47.30066,45.18008],[47.28749,45.15665],[47.27546,45.12365],[47.26257,45.09064],[47.2476,45.06078],[47.23082,45.02959],[47.2144,44.99949],[47.19873,44.98003],[47.18294,44.97115],[47.16845,44.96218],[47.15689,44.94909],[47.14751,44.93979],[47.13793,44.94095],[47.12611,44.94844],[47.11343,44.9537],[47.10495,44.94835],[47.10255,44.92228],[47.09965,44.87678],[47.09139,44.83208],[47.08277,44.80397],[47.0769,44.79199],[47.06844,44.79431],[47.05271,44.81113],[47.03379,44.83709],[47.01971,44.86607],[47.01085,44.89336],[47.00214,44.90965],[46.9937,44.90785],[46.99057,44.89204],[46.99484,44.87088],[47.00212,44.85013],[47.00418,44.83103],[46.99527,44.81065],[46.97825,44.78952],[46.96013,44.77544],[46.94158,44.77028],[46.91903,44.76472],[46.89396,44.75332],[46.87233,44.73915],[46.85653,44.72468],[46.84212,44.71152],[46.82228,44.70243],[46.79612,44.69387],[46.76957,44.67951],[46.74688,44.66302],[46.72927,44.64676],[46.71803,44.62192],[46.71337,44.59085],[46.7144,44.56882],[46.71829,44.5581],[46.71992,44.55129],[46.71581,44.54657],[46.70679,44.54388],[46.69635,44.54094],[46.68815,44.53498],[46.68514,44.52235],[46.68846,44.50038],[46.69574,44.47337],[46.70464,44.44975],[46.71741,44.43175],[46.73575,44.41662],[46.75748,44.40441],[46.78267,44.39731],[46.81067,44.39539],[46.84341,44.39417],[46.89527,44.3869],[46.96316,44.37324],[47.0159,44.3587],[47.04204,44.34273],[47.05651,44.31981],[47.06861,44.29224],[47.07976,44.26862],[47.09188,44.25146],[47.10618,44.23749],[47.12119,44.2261],[47.1353,44.21815],[47.14951,44.21196],[47.16463,44.20681],[47.17949,44.2061],[47.19402,44.21231],[47.20935,44.22066],[47.22644,44.21999],[47.24606,44.19964],[47.26798,44.1578],[47.29123,44.10754],[47.31373,44.06777],[47.3327,44.04475],[47.34844,44.02819],[47.36558,44.00292],[47.38677,43.96684],[47.40717,43.93266],[47.42086,43.9078],[47.42941,43.89021],[47.43901,43.87828],[47.45053,43.8696],[47.45763,43.86005],[47.4561,43.84749],[47.45027,43.83402],[47.4486,43.82514],[47.45545,43.82308],[47.46789,43.8237],[47.48068,43.82008],[47.49141,43.80735],[47.49875,43.78892],[47.49904,43.77379],[47.48967,43.76503],[47.47464,43.75908],[47.46123,43.75289],[47.45185,43.74487],[47.44574,43.73252],[47.44488,43.71471],[47.44822,43.69638],[47.44868,43.68391],[47.44338,43.67727],[47.43505,43.67099],[47.42414,43.65812],[47.40989,43.63786],[47.39468,43.6212],[47.38212,43.61675],[47.37383,43.61794],[47.36968,43.61357],[47.3698,43.60004],[47.37418,43.58146],[47.382,43.56459],[47.39179,43.55214],[47.40021,43.54085],[47.4055,43.52775],[47.41269,43.516],[47.42724,43.51359],[47.44622,43.52705],[47.46238,43.55559],[47.47207,43.59049],[47.47666,43.6206],[47.47972,43.6403],[47.4842,43.65221],[47.49117,43.66192],[47.49894,43.67385],[47.50406,43.6904],[47.50685,43.70991],[47.51231,43.72967],[47.52225,43.75125],[47.53268,43.77664],[47.53975,43.80398],[47.54296,43.8295],[47.54464,43.84993],[47.54989,43.86541],[47.56297,43.87923],[47.58178,43.89126],[47.60251,43.89779],[47.62588,43.89814],[47.65185,43.89412],[47.67256,43.88408],[47.67262,43.86135],[47.64442,43.81577],[47.59973,43.73839],[47.5561,43.63733],[47.52225,43.54162],[47.4997,43.47182],[47.48884,43.4229],[47.48813,43.38398],[47.49078,43.35301],[47.49111,43.33015],[47.49183,43.313],[47.49883,43.30242],[47.51379,43.30315],[47.53341,43.31341],[47.55242,43.32393],[47.56705,43.3287],[47.57661,43.32717],[47.58224,43.32058],[47.5849,43.31115],[47.58442,43.30145],[47.58064,43.29258],[47.57368,43.28259],[47.56216,43.26996],[47.5446,43.25665],[47.52399,43.24405],[47.5056,43.23065],[47.49266,43.21548],[47.48688,43.19956],[47.48604,43.18448],[47.4847,43.1714],[47.48203,43.15994],[47.48113,43.14893],[47.48178,43.13811],[47.48012,43.12742],[47.47354,43.11677],[47.46446,43.10634],[47.45826,43.09228],[47.4618,43.0647],[47.48506,43.02148],[47.52817,42.9779],[47.5709,42.94858],[47.59626,42.93154],[47.61351,42.91677],[47.641,42.89811],[47.6754,42.87702],[47.69877,42.85828],[47.7077,42.84347],[47.71094,42.82946],[47.71321,42.80958],[47.71552,42.7844],[47.7178,42.76488],[47.71898,42.75451],[47.71837,42.74443],[47.71781,42.72581],[47.72167,42.69764],[47.73744,42.66603],[47.7728,42.63625],[47.82377,42.60419],[47.87921,42.55723],[47.93421,42.49428],[47.9853,42.43556],[48.02966,42.39539],[48.07362,42.35937],[48.12912,42.29977],[48.19337,42.22038],[48.24649,42.15766],[48.27986,42.1241],[48.29962,42.10245],[48.31088,42.0817],[48.3216,42.05551],[48.34381,42.01402],[48.37972,41.96287],[48.42115,41.92393],[48.46411,41.90381],[48.50763,41.88972],[48.54504,41.87267],[48.56918,41.85592],[48.58292,41.84463],[48.59838,41.83515],[48.6269,41.81646],[48.67272,41.77903],[48.72602,41.73033],[48.76698,41.69075],[48.79201,41.66298],[48.81929,41.63005],[48.85801,41.58554],[48.89584,41.54416],[48.92222,41.51871],[48.93972,41.50378],[48.95354,41.48942],[48.96695,41.47306],[48.97981,41.4575],[48.99036,41.44672],[49.00131,41.44053],[49.01511,41.43509],[49.03085,41.42425],[49.05112,41.39941],[49.07743,41.36069],[49.10316,41.32233],[49.12193,41.29475],[49.13444,41.2698],[49.14425,41.23304],[49.15345,41.18883],[49.16245,41.15633],[49.17168,41.13612],[49.18464,41.10706],[49.21282,41.05541],[49.26595,40.98785],[49.32694,40.92589],[49.36719,40.8872],[49.38861,40.86706],[49.41206,40.8521],[49.44162,40.83997],[49.46854,40.8312],[49.48986,40.82144],[49.50845,40.80945],[49.52415,40.7974],[49.53229,40.7826],[49.52996,40.76073],[49.52143,40.73508],[49.51428,40.71383],[49.51173,40.69965],[49.51331,40.6894],[49.51857,40.6802],[49.52547,40.67184],[49.53079,40.66558],[49.53544,40.6602],[49.54401,40.6525],[49.5581,40.64238],[49.57624,40.63316],[49.59922,40.62706],[49.62595,40.62298],[49.65126,40.6174],[49.67504,40.60714],[49.70162,40.59396],[49.734,40.58285],[49.77203,40.57495],[49.80881,40.56915],[49.83944,40.56748],[49.87017,40.57211],[49.91017,40.57994],[49.9633,40.58454],[50.01805,40.58315],[50.0527,40.57786],[50.06481,40.57113],[50.0699,40.56354],[50.07825,40.5538],[50.0922,40.54163],[50.11468,40.52909],[50.15177,40.51739],[50.19703,40.50603],[50.23112,40.49371],[50.24938,40.4781],[50.26284,40.45925],[50.27848,40.44182],[50.29695,40.42909],[50.31654,40.41808],[50.33454,40.40389],[50.34925,40.38173],[50.36084,40.34675],[50.37035,40.30611],[50.37852,40.27514],[50.38507,40.25487],[50.38745,40.24026],[50.38189,40.23748],[50.36744,40.25106],[50.34533,40.27411],[50.3159,40.29868],[50.2831,40.32],[50.25273,40.33441],[50.22228,40.3428],[50.18785,40.34925],[50.15541,40.35482],[50.13195,40.35771],[50.11629,40.35717],[50.10238,40.35486],[50.08411,40.35257],[50.05998,40.34902],[50.03342,40.34134],[50.00858,40.33211],[49.98921,40.32851],[49.97598,40.33326],[49.96556,40.34225],[49.9546,40.35008],[49.93968,40.35554],[49.919,40.36026],[49.89484,40.36184],[49.87106,40.35436],[49.85174,40.337],[49.83518,40.31538],[49.81005,40.29507],[49.76807,40.27758],[49.71194,40.26002],[49.65071,40.24035],[49.59637,40.22044],[49.55612,40.20089],[49.52746,40.18178],[49.50765,40.16533],[49.49707,40.14961],[49.49409,40.1307],[49.49153,40.11088],[49.47856,40.09387],[49.45649,40.07832],[49.4411,40.06142],[49.44037,40.04344],[49.44861,40.02751],[49.45952,40.01585],[49.47016,40.00697],[49.4779,39.9985],[49.48004,39.99029],[49.47545,39.98292],[49.46539,39.97562],[49.45347,39.96832],[49.44326,39.96204],[49.43558,39.95548],[49.42979,39.94666],[49.42632,39.93578],[49.4266,39.92249],[49.43116,39.90595],[49.43719,39.88872],[49.43963,39.87441],[49.43631,39.86373],[49.42959,39.85579],[49.42297,39.84924],[49.41854,39.84253],[49.41694,39.83548],[49.41786,39.82903],[49.42004,39.82312],[49.42141,39.81709],[49.41954,39.81095],[49.41304,39.8041],[49.4043,39.79518],[49.39852,39.7852],[49.39758,39.77614],[49.39873,39.76697],[49.40129,39.75503],[49.40815,39.73964],[49.41636,39.72368],[49.41648,39.71083],[49.40413,39.69988],[49.38318,39.68595],[49.35983,39.66712],[49.33939,39.64548],[49.32515,39.62408],[49.3159,39.60455],[49.30744,39.58553],[49.29867,39.56495],[49.29165,39.54295],[49.28835,39.52036],[49.29536,39.49514],[49.32299,39.46315],[49.36393,39.42852],[49.39428,39.40304],[49.40544,39.38981],[49.40624,39.38114],[49.40355,39.36886],[49.40106,39.35198],[49.40086,39.33723],[49.40008,39.33012],[49.39502,39.33062],[49.38719,39.33593],[49.37986,39.34273],[49.37418,39.34719],[49.37153,39.34497],[49.37393,39.33497],[49.38167,39.3211],[49.39247,39.30819],[49.4004,39.29885],[49.39843,39.29489],[49.38668,39.29801],[49.36947,39.30834],[49.34479,39.32298],[49.31127,39.33311],[49.2778,39.32836],[49.25418,39.30289],[49.24221,39.25556],[49.23748,39.20047],[49.23375,39.15969],[49.22736,39.13382],[49.21932,39.11034],[49.2127,39.08517],[49.20772,39.0596],[49.19763,39.0349],[49.17114,39.00991],[49.12862,38.98703],[49.08795,38.97631],[49.06409,38.98065],[49.056,38.99099],[49.05564,39.00021],[49.06105,39.00798],[49.07689,39.01528],[49.10079,39.02271],[49.12214,39.03217],[49.13604,39.04595],[49.1433,39.06373],[49.14268,39.08248],[49.1311,39.09806],[49.10874,39.10797],[49.08479,39.11629],[49.07008,39.13121],[49.06292,39.15244],[49.0543,39.17082],[49.0387,39.18163],[49.01525,39.18627],[48.98988,39.18616],[48.97195,39.18204],[48.96297,39.17444],[48.95744,39.16438],[48.95287,39.15401],[48.95012,39.14474],[48.94839,39.13653],[48.94573,39.13023],[48.94193,39.12689],[48.9383,39.12266],[48.93599,39.10876],[48.93646,39.08341],[48.94097,39.05555],[48.9451,39.0278],[48.94083,38.99331],[48.92832,38.95511],[48.9145,38.92422],[48.90196,38.90252],[48.88662,38.88611],[48.86532,38.87285],[48.84515,38.85874],[48.83586,38.84036],[48.83751,38.81887],[48.84617,38.7853],[48.8581,38.71368],[48.86781,38.60105],[48.87297,38.49092],[48.87474,38.41535],[48.8738,38.36317],[48.87216,38.32159],[48.87379,38.28528],[48.88114,38.24145],[48.89523,38.17521],[48.91518,38.08646],[48.93335,38.00361],[48.94163,37.95256],[48.94342,37.92562],[48.9484,37.90403],[48.96112,37.87946],[48.97643,37.854],[48.98501,37.83499],[48.98642,37.82191],[48.98902,37.80425],[49.00074,37.77412],[49.02791,37.73132],[49.07411,37.68044],[49.14161,37.62767],[49.23394,37.5765],[49.35955,37.53002],[49.5311,37.49321],[49.71639,37.47048],[49.8431,37.46384],[49.90055,37.46693],[49.93222,37.46802],[49.95283,37.46421],[49.95703,37.46103],[49.95068,37.46038],[49.94838,37.45754],[49.97238,37.4469],[50.03688,37.42839],[50.11977,37.40735],[50.18284,37.386],[50.21425,37.36187],[50.22669,37.33561],[50.23479,37.30995],[50.24479,37.28598],[50.25708,37.26281],[50.27336,37.23423],[50.29605,37.19704],[50.32731,37.15821],[50.37051,37.12108],[50.4215,37.08316],[50.46524,37.05053],[50.49949,37.02824],[50.54255,37.00655],[50.59587,36.9812],[50.63786,36.96158],[50.66354,36.94787],[50.69298,36.92987],[50.75521,36.89697],[50.86111,36.8446],[50.9938,36.7856],[51.15198,36.73565],[51.34273,36.69415],[51.54196,36.65626],[51.72936,36.62392],[51.90995,36.60703],[52.0872,36.61663],[52.26035,36.64739],[52.43272,36.68213],[52.60615,36.7135],[52.77854,36.74574],[52.95856,36.78376],[53.15976,36.82639],[53.37204,36.86417],[53.58503,36.88922],[53.78555,36.90666],[53.92569,36.92255],[53.98237,36.92898],[53.97954,36.91941],[53.94015,36.90357],[53.88701,36.89145],[53.84454,36.88328],[53.81878,36.87895],[53.79987,36.8792],[53.77996,36.88082],[53.75876,36.87959],[53.73542,36.87607],[53.70399,36.87442],[53.66413,36.87488],[53.63218,36.87322],[53.62429,36.86854],[53.63528,36.86433],[53.64607,36.86175],[53.64727,36.85794],[53.65009,36.84896],[53.67588,36.83443],[53.7365,36.81929],[53.81143,36.80781],[53.87075,36.80198],[53.92267,36.80508],[53.97805,36.81673],[54.01642,36.8368],[54.02952,36.87354],[54.03008,36.92166],[54.02408,36.95716],[54.01284,36.97299],[54.00367,36.98378],[54.00298,37.00144],[54.00407,37.02782],[53.99573,37.06275],[53.97762,37.11117],[53.95572,37.17101],[53.93599,37.22774],[53.92295,37.27592],[53.91549,37.32326],[53.90861,37.37924],[53.89869,37.44389],[53.8858,37.5011],[53.87324,37.54131],[53.86221,37.58045],[53.84779,37.65574],[53.82862,37.79099],[53.81439,37.94118],[53.81299,38.03901],[53.82192,38.09055],[53.83528,38.13887],[53.84768,38.19041],[53.856,38.23317],[53.86097,38.27173],[53.86285,38.31606],[53.86115,38.35889],[53.85695,38.38672],[53.85168,38.40132],[53.84688,38.41258],[53.8427,38.42848],[53.83707,38.45584],[53.83093,38.49502],[53.82951,38.5426],[53.83548,38.59447],[53.84882,38.64324],[53.8709,38.68773],[53.89669,38.73117],[53.91418,38.76917],[53.92191,38.79652],[53.92849,38.81571],[53.93655,38.83284],[53.94455,38.85053],[53.95341,38.86775],[53.96348,38.88427],[53.97194,38.89932],[53.97499,38.91058],[53.97233,38.92002],[53.96493,38.93176],[53.9512,38.94398],[53.93434,38.95252],[53.92276,38.958],[53.91836,38.96305],[53.91577,38.9678],[53.91071,38.97135],[53.90367,38.97395],[53.8969,38.97679],[53.89087,38.98147],[53.88581,38.98882],[53.88199,38.99882],[53.8777,39.01152],[53.86881,39.02466],[53.8509,39.03405],[53.826,39.03908],[53.80319,39.04182],[53.78773,39.04221],[53.77795,39.03968],[53.77141,39.03652],[53.76539,39.03686],[53.75639,39.04522],[53.74378,39.06458],[53.7309,39.08861],[53.72095,39.10271],[53.71549,39.10035],[53.71603,39.08798],[53.72153,39.07448],[53.72663,39.06533],[53.72527,39.06303],[53.71588,39.06833],[53.70441,39.08106],[53.69843,39.09987],[53.69756,39.12085],[53.6974,39.13867],[53.69975,39.15144],[53.70719,39.16134],[53.71248,39.17074],[53.71046,39.18362],[53.70853,39.20374],[53.70758,39.22302],[53.69749,39.22751],[53.68013,39.21746],[53.66967,39.1977],[53.67092,39.1632],[53.67364,39.12481],[53.66704,39.11021],[53.65234,39.12132],[53.63858,39.13938],[53.63088,39.15713],[53.62621,39.1743],[53.61925,39.18783],[53.6109,39.19773],[53.60652,39.20827],[53.60583,39.22096],[53.60363,39.23215],[53.59746,39.2357],[53.58812,39.22724],[53.57795,39.21292],[53.5699,39.20831],[53.56707,39.22325],[53.56997,39.2523],[53.57297,39.27956],[53.57283,39.29749],[53.57354,39.31199],[53.57396,39.32348],[53.56896,39.32835],[53.56237,39.33276],[53.55969,39.34158],[53.5564,39.34792],[53.54732,39.34577],[53.53556,39.34002],[53.52277,39.33672],[53.50366,39.33423],[53.47841,39.32933],[53.45696,39.32454],[53.44532,39.3256],[53.43978,39.33147],[53.43438,39.33372],[53.42649,39.32876],[53.41612,39.32108],[53.40485,39.31576],[53.39675,39.31587],[53.39492,39.32251],[53.39561,39.33191],[53.39215,39.33789],[53.38433,39.33937],[53.37671,39.3388],[53.3709,39.33702],[53.36613,39.33467],[53.36235,39.33396],[53.35864,39.33652],[53.35313,39.34084],[53.34396,39.34278],[53.32961,39.3402],[53.31259,39.33611],[53.29971,39.33532],[53.29494,39.3391],[53.29516,39.34472],[53.29371,39.34929],[53.28705,39.35189],[53.27656,39.35376],[53.26443,39.357],[53.25108,39.36149],[53.23392,39.36405],[53.20867,39.36151],[53.18154,39.35351],[53.17033,39.34243],[53.17759,39.33089],[53.18428,39.3186],[53.1802,39.30405],[53.17311,39.28809],[53.17047,39.27028],[53.17288,39.24702],[53.1765,39.21954],[53.1758,39.19653],[53.16831,39.19287],[53.15543,39.22505],[53.1397,39.28405],[53.12117,39.33798],[53.1021,39.3742],[53.09156,39.39931],[53.09481,39.41787],[53.10783,39.43345],[53.12289,39.44806],[53.1334,39.46112],[53.14001,39.47316],[53.14878,39.48573],[53.16313,39.50381],[53.1839,39.53684],[53.21093,39.58406],[53.24242,39.62776],[53.2734,39.6522],[53.2921,39.65688],[53.28959,39.64909],[53.2726,39.63399],[53.25456,39.61491],[53.24222,39.59569],[53.23394,39.57894],[53.22571,39.5642],[53.22107,39.54874],[53.23478,39.5352],[53.2804,39.53083],[53.34812,39.53391],[53.40743,39.53473],[53.44082,39.52832],[53.45634,39.51645],[53.46754,39.50315],[53.48009,39.49191],[53.4959,39.48413],[53.51766,39.47907],[53.54293,39.47508],[53.56288,39.47223],[53.57326,39.47311],[53.57726,39.47888],[53.57815,39.48716],[53.57603,39.49466],[53.57099,39.50113],[53.56841,39.50959],[53.57436,39.51816],[53.58718,39.51877],[53.60191,39.51043],[53.61795,39.50297],[53.63744,39.50479],[53.65943,39.51344],[53.67978,39.51955],[53.697,39.51855],[53.71183,39.51467],[53.72307,39.51425],[53.7289,39.51938],[53.72841,39.52787],[53.7215,39.5369],[53.70701,39.54503],[53.68338,39.55268],[53.65702,39.56081],[53.64197,39.56904],[53.64263,39.57658],[53.64864,39.58454],[53.65004,39.5949],[53.64456,39.60679],[53.63144,39.61599],[53.60973,39.61992],[53.58568,39.62194],[53.57024,39.62817],[53.56458,39.63967],[53.56133,39.65261],[53.55536,39.66434],[53.54638,39.67133],[53.5388,39.66705],[53.53627,39.65252],[53.53408,39.642],[53.523,39.64905],[53.50041,39.67041],[53.47416,39.68991],[53.45558,39.6962],[53.44973,39.69046],[53.45045,39.68229],[53.44756,39.68017],[53.43928,39.68197],[53.43289,39.67857],[53.43468,39.66632],[53.44004,39.65171],[53.43695,39.64654],[53.42552,39.66153],[53.41872,39.6972],[53.41853,39.73517],[53.41512,39.75509],[53.4058,39.75915],[53.39516,39.76069],[53.38888,39.7652],[53.39578,39.77574],[53.42163,39.7983],[53.45676,39.82995],[53.48198,39.85633],[53.48946,39.87073],[53.48776,39.87894],[53.4879,39.88538],[53.49411,39.89001],[53.50577,39.89296],[53.51949,39.8954],[53.52967,39.89892],[53.53287,39.90411],[53.53126,39.91012],[53.53127,39.91708],[53.53805,39.92641],[53.55017,39.93829],[53.56155,39.95113],[53.56752,39.96145],[53.56784,39.96612],[53.56556,39.96628],[53.56242,39.96576],[53.55608,39.96791],[53.54301,39.97274],[53.52245,39.97671],[53.49819,39.97949],[53.47544,39.98517],[53.45573,39.99424],[53.43762,40.00235],[53.41988,40.00653],[53.40208,40.00662],[53.38292,40.00118],[53.35948,39.98773],[53.33407,39.9704],[53.31432,39.95781],[53.30159,39.95102],[53.29161,39.94631],[53.2824,39.94421],[53.27244,39.94635],[53.26087,39.95103],[53.246,39.95778],[53.22117,39.97003],[53.18762,39.9841],[53.15862,39.98915],[53.13609,39.98416],[53.10831,39.97756],[53.07837,39.9753],[53.0629,39.97846],[53.06409,39.98466],[53.06692,39.98965],[53.05347,39.98927],[53.01951,39.98416],[52.98066,39.98234],[52.95105,39.9909],[52.93013,40.00532],[52.91332,40.01315],[52.90157,40.00894],[52.89925,39.99733],[52.90568,39.9827],[52.91456,39.96426],[52.92201,39.93912],[52.93046,39.91007],[52.94393,39.88485],[52.96254,39.86355],[52.98555,39.83833],[53.0124,39.80848],[53.03651,39.78426],[53.04716,39.77289],[53.04023,39.77238],[53.0278,39.7743],[53.02686,39.76846],[53.03346,39.75733],[53.03003,39.75485],[53.01278,39.76731],[52.99047,39.79168],[52.96874,39.82063],[52.94691,39.84435],[52.92501,39.86088],[52.90757,39.87783],[52.89712,39.90051],[52.8851,39.92803],[52.85532,39.96028],[52.80795,39.99623],[52.76644,40.02996],[52.74705,40.06063],[52.74543,40.09087],[52.75149,40.117],[52.75819,40.13691],[52.75966,40.15521],[52.7525,40.17517],[52.74272,40.19434],[52.73778,40.20957],[52.73215,40.22392],[52.71937,40.24483],[52.70827,40.28394],[52.71176,40.35405],[52.72889,40.44118],[52.75227,40.51156],[52.78319,40.56187],[52.82006,40.60925],[52.84873,40.65279],[52.85891,40.68304],[52.85291,40.69895],[52.83999,40.70666],[52.8308,40.71371],[52.82969,40.72361],[52.83228,40.73411],[52.83402,40.74179],[52.83721,40.74735],[52.84574,40.75242],[52.85663,40.75641],[52.86398,40.76022],[52.86636,40.7664],[52.86543,40.7749],[52.86449,40.78766],[52.87053,40.81646],[52.88827,40.86785],[52.90921,40.92825],[52.91948,40.98445],[52.91925,41.03348],[52.92115,41.0663],[52.93205,41.07576],[52.94653,41.06998],[52.95667,41.05987],[52.96037,41.04913],[52.95976,41.0381],[52.95832,41.0264],[52.96225,41.01113],[52.97718,40.98864],[52.99878,40.96068],[53.0169,40.93247],[53.03105,40.9074],[53.04719,40.88795],[53.06484,40.87546],[53.08091,40.86938],[53.09576,40.86816],[53.10743,40.8688],[53.10994,40.86709],[53.10025,40.86111],[53.0839,40.85235],[53.07227,40.84204],[53.07224,40.83142],[53.08107,40.82206],[53.09143,40.81321],[53.09817,40.80373],[53.10141,40.79396],[53.10467,40.78465],[53.11286,40.77715],[53.13063,40.77248],[53.15601,40.77088],[53.18266,40.77459],[53.21023,40.78679],[53.23645,40.80149],[53.25043,40.80467],[53.25063,40.7936],[53.25379,40.78062],[53.27571,40.77548],[53.30851,40.77777],[53.33091,40.78411],[53.33805,40.79321],[53.34069,40.80433],[53.34667,40.81635],[53.35719,40.82697],[53.36913,40.83239],[53.37719,40.83042],[53.37847,40.82193],[53.37627,40.80929],[53.37739,40.79465],[53.38594,40.77953],[53.40127,40.7662],[53.41956,40.75681],[53.4364,40.7509],[53.44984,40.74596],[53.46117,40.74128],[53.47167,40.73886],[53.48174,40.73997],[53.4938,40.74448],[53.51153,40.75237],[53.53252,40.7634],[53.54836,40.77888],[53.55557,40.80162],[53.55956,40.82994],[53.56756,40.85806],[53.58035,40.8802],[53.59345,40.89187],[53.60495,40.89418],[53.61536,40.89188],[53.62391,40.88719],[53.62999,40.88139],[53.63539,40.87649],[53.64233,40.87283],[53.64948,40.86908],[53.65352,40.86445],[53.6538,40.85924],[53.6519,40.85395],[53.64984,40.84798],[53.64993,40.83903],[53.65346,40.82736],[53.65883,40.81674],[53.66187,40.80798],[53.65977,40.79931],[53.65519,40.79025],[53.65438,40.77798],[53.6613,40.75779],[53.6741,40.733],[53.6882,40.7143],[53.7006,40.70572],[53.71013,40.70142],[53.71647,40.69585],[53.71871,40.68774],[53.7156,40.67658],[53.71045,40.66235],[53.71283,40.64717],[53.73067,40.63543],[53.7643,40.63066],[53.80721,40.63102],[53.84724,40.6341],[53.87678,40.64211],[53.90163,40.65508],[53.92628,40.6671],[53.94677,40.67244],[53.96479,40.6705],[53.9858,40.66556],[54.00838,40.66326],[54.02991,40.66587],[54.05138,40.67147],[54.07088,40.67768],[54.08367,40.68395],[54.08945,40.69031],[54.08961,40.69639],[54.08236,40.70257],[54.07311,40.70903],[54.07878,40.71401],[54.10532,40.71731],[54.14128,40.72169],[54.17879,40.72664],[54.21101,40.72812],[54.22666,40.72402],[54.22624,40.71428],[54.22114,40.70197],[54.221,40.69241],[54.23942,40.68618],[54.28893,40.68145],[54.34723,40.68011],[54.3745,40.68372],[54.37595,40.69112],[54.38478,40.70087],[54.39961,40.71095],[54.39115,40.71846],[54.3569,40.72244],[54.3257,40.72647],[54.31142,40.73581],[54.30469,40.75185],[54.29669,40.77276],[54.2862,40.79635],[54.27621,40.81875],[54.26924,40.83582],[54.2662,40.84705],[54.26681,40.85461],[54.26912,40.86039],[54.2706,40.86561],[54.26947,40.87051],[54.26472,40.8738],[54.25699,40.87547],[54.24974,40.87852],[54.24716,40.88433],[54.25044,40.88987],[54.25729,40.89263],[54.26598,40.89505],[54.27811,40.90186],[54.29458,40.913],[54.31375,40.922],[54.3379,40.9218],[54.37129,40.91001],[54.40837,40.89269],[54.43791,40.87778],[54.45503,40.86505],[54.45907,40.85097],[54.4545,40.83556],[54.46162,40.82318],[54.50181,40.82026],[54.56299,40.82675],[54.61159,40.83624],[54.63972,40.84732],[54.66326,40.86178],[54.689,40.87851],[54.71388,40.89914],[54.73529,40.92423],[54.74938,40.94722],[54.75399,40.96491],[54.75185,40.97931],[54.74621,40.99095]]]}}]}