{"type":"FeatureCollection","meta":{"year":2022,"level_m":-28.72,"reference_year":2015,"reference_level_m":-27.85,"status":"semi","model":"cross-shore translation: retreat = Δlevel / tan(β)","source_id":"model","projected":false},"features":[{"type":"Feature","properties":{"year":2022,"level_m":-28.72},"geometry":{"type":"Polygon","coordinates":[[[54.73476,41.00344],[54.71621,41.02347],[54.69519,41.04621],[54.68317,41.06197],[54.68631,41.06816],[54.70332,41.06556],[54.72832,41.05621],[54.74861,41.04778],[54.75209,41.04763],[54.74219,41.05466],[54.73081,41.06368],[54.72289,41.07202],[54.71821,41.07922],[54.71664,41.08582],[54.71826,41.09244],[54.72236,41.09783],[54.72574,41.10078],[54.7227,41.10435],[54.70945,41.11189],[54.68736,41.1207],[54.66245,41.1287],[54.64102,41.14123],[54.611,41.16825],[54.54107,41.21799],[54.43507,41.27949],[54.3436,41.32611],[54.28999,41.35201],[54.2529,41.37166],[54.21962,41.38985],[54.19603,41.40362],[54.18187,41.41581],[54.16931,41.43104],[54.15444,41.44736],[54.13596,41.4596],[54.11334,41.46774],[54.09104,41.47626],[54.07285,41.48896],[54.05694,41.50859],[54.04215,41.5365],[54.03106,41.57394],[54.02492,41.62343],[54.02084,41.67898],[54.01452,41.72682],[54.00187,41.76544],[53.98027,41.80439],[53.95546,41.8424],[53.93812,41.86874],[53.92899,41.88157],[53.92104,41.88748],[53.91164,41.89134],[53.9034,41.89651],[53.89945,41.90481],[53.90032,41.91472],[53.90351,41.92432],[53.90569,41.93375],[53.90512,41.94482],[53.90357,41.95894],[53.90486,41.97549],[53.90921,41.99241],[53.91257,42.00847],[53.91245,42.02492],[53.9091,42.04283],[53.9016,42.06123],[53.88561,42.08007],[53.85657,42.10017],[53.8158,42.11841],[53.77021,42.1298],[53.70875,42.13334],[53.5982,42.12743],[53.45361,42.11082],[53.34251,42.0929],[53.27888,42.08545],[53.22507,42.08883],[53.17044,42.09252],[53.12429,42.0853],[53.08343,42.06473],[53.03573,42.03301],[52.97662,41.98462],[52.91118,41.90846],[52.85046,41.82046],[52.80957,41.76079],[52.79015,41.73638],[52.7801,41.72098],[52.77315,41.70087],[52.77058,41.68049],[52.77539,41.66952],[52.78947,41.67394],[52.81174,41.68759],[52.84048,41.69709],[52.87154,41.69593],[52.89601,41.68679],[52.90767,41.67387],[52.90746,41.65912],[52.90119,41.64402],[52.8963,41.63004],[52.89598,41.61637],[52.89778,41.60156],[52.89431,41.57837],[52.87655,41.53277],[52.84875,41.47153],[52.82671,41.42266],[52.81606,41.39572],[52.81295,41.37939],[52.81598,41.36235],[52.82371,41.33552],[52.83263,41.29638],[52.84351,41.25141],[52.86216,41.20477],[52.88526,41.15991],[52.89832,41.12503],[52.89566,41.0995],[52.88646,41.07693],[52.87958,41.06062],[52.87433,41.05604],[52.86662,41.06101],[52.85686,41.06976],[52.84922,41.08029],[52.84698,41.09592],[52.84857,41.11767],[52.84917,41.1409],[52.84602,41.16204],[52.83977,41.18057],[52.83221,41.19537],[52.82431,41.20607],[52.81681,41.21466],[52.81149,41.22396],[52.80944,41.236],[52.80814,41.2526],[52.80298,41.27683],[52.79368,41.3051],[52.78346,41.32828],[52.77229,41.34774],[52.75941,41.36791],[52.74629,41.38318],[52.734,41.3906],[52.72403,41.39623],[52.71804,41.40484],[52.71498,41.41519],[52.71165,41.42473],[52.70521,41.43386],[52.69425,41.44309],[52.67872,41.45038],[52.65968,41.45658],[52.63811,41.46772],[52.61564,41.48481],[52.59513,41.50044],[52.57804,41.51185],[52.5658,41.52385],[52.56177,41.53834],[52.56688,41.55391],[52.57626,41.56949],[52.58302,41.58377],[52.5853,41.5976],[52.58614,41.61167],[52.58809,41.62367],[52.59062,41.63252],[52.59163,41.63929],[52.59055,41.64492],[52.58796,41.6495],[52.58366,41.65347],[52.57765,41.65979],[52.5712,41.66977],[52.56549,41.6799],[52.5593,41.68676],[52.55027,41.68981],[52.53892,41.69096],[52.52832,41.69392],[52.51988,41.70019],[52.51135,41.70795],[52.50009,41.71619],[52.48648,41.72442],[52.47105,41.73162],[52.45446,41.73954],[52.44171,41.75203],[52.43973,41.77327],[52.4513,41.80831],[52.46935,41.8545],[52.48053,41.8993],[52.4794,41.93405],[52.47078,41.95834],[52.46016,41.97409],[52.44987,41.98412],[52.44067,41.99225],[52.43396,42.00315],[52.43158,42.02013],[52.43229,42.03989],[52.4304,42.05658],[52.42203,42.07174],[52.41303,42.08926],[52.41221,42.10799],[52.41821,42.12654],[52.42437,42.14523],[52.42973,42.16298],[52.43785,42.17758],[52.45061,42.18794],[52.46834,42.19948],[52.49509,42.22531],[52.53232,42.26823],[52.56771,42.30953],[52.58801,42.33369],[52.5952,42.34667],[52.59735,42.35966],[52.59827,42.3744],[52.60144,42.38828],[52.61116,42.40188],[52.62561,42.41585],[52.63711,42.42833],[52.64257,42.43968],[52.64597,42.4532],[52.65215,42.47341],[52.66153,42.5029],[52.66882,42.53832],[52.66778,42.57541],[52.65634,42.6129],[52.63637,42.64751],[52.61067,42.6755],[52.58524,42.6985],[52.5695,42.71944],[52.56706,42.73555],[52.57266,42.74095],[52.58042,42.73359],[52.58952,42.71783],[52.60142,42.70158],[52.61639,42.68969],[52.63432,42.68015],[52.65214,42.67008],[52.66366,42.6607],[52.6684,42.65362],[52.67199,42.64686],[52.67854,42.63473],[52.68822,42.61589],[52.69904,42.59916],[52.7096,42.59349],[52.71988,42.60022],[52.72957,42.61628],[52.73659,42.63817],[52.73724,42.66529],[52.72756,42.69614],[52.7052,42.72317],[52.67333,42.74134],[52.64078,42.75603],[52.60592,42.77485],[52.55108,42.79742],[52.47403,42.81687],[52.40366,42.82788],[52.36314,42.83101],[52.34473,42.8295],[52.3325,42.82539],[52.32168,42.81908],[52.31256,42.81009],[52.30365,42.80046],[52.28824,42.79952],[52.2574,42.81803],[52.21468,42.85036],[52.17133,42.8758],[52.12333,42.88296],[52.06346,42.87555],[52.00451,42.86092],[51.9618,42.84685],[51.93132,42.84302],[51.90002,42.8566],[51.86638,42.8833],[51.83861,42.91162],[51.8187,42.93606],[51.80342,42.95784],[51.79124,42.98064],[51.7784,43.0069],[51.7587,43.03553],[51.73371,43.06273],[51.71243,43.08229],[51.69756,43.09168],[51.6857,43.0963],[51.67668,43.1025],[51.67256,43.11148],[51.67351,43.12117],[51.67678,43.13122],[51.67806,43.14385],[51.67409,43.15972],[51.66292,43.17431],[51.64148,43.18109],[51.60878,43.17998],[51.57337,43.17663],[51.54719,43.17341],[51.53281,43.16899],[51.52469,43.16322],[51.51718,43.15794],[51.5067,43.15585],[51.49211,43.15821],[51.47074,43.16195],[51.43089,43.16176],[51.36782,43.15823],[51.30586,43.15904],[51.27466,43.17332],[51.27628,43.20793],[51.29283,43.26374],[51.30736,43.33532],[51.31159,43.40784],[51.30398,43.46263],[51.29011,43.49586],[51.27961,43.51595],[51.27527,43.53102],[51.27252,43.54544],[51.26505,43.55945],[51.24837,43.5743],[51.22733,43.59129],[51.21215,43.6075],[51.20409,43.61848],[51.19686,43.62245],[51.18717,43.62188],[51.17583,43.62098],[51.16438,43.6222],[51.15207,43.62745],[51.13131,43.64717],[51.09352,43.69602],[51.04908,43.76156],[51.02027,43.80996],[51.01007,43.83262],[51.00558,43.84419],[51.00022,43.85296],[50.99494,43.86051],[50.99211,43.86898],[50.99199,43.8807],[50.99158,43.89466],[50.98665,43.90798],[50.97477,43.92103],[50.95914,43.93498],[50.94567,43.94957],[50.93453,43.96545],[50.9228,43.98246],[50.91101,43.99752],[50.89968,44.00788],[50.88673,44.01428],[50.87249,44.01992],[50.86113,44.0275],[50.85582,44.03713],[50.85616,44.04723],[50.85888,44.06211],[50.85988,44.092],[50.85713,44.13325],[50.85047,44.16803],[50.8374,44.19178],[50.81081,44.2134],[50.74608,44.2385],[50.61203,44.26857],[50.44368,44.29899],[50.3264,44.32167],[50.27799,44.33707],[50.25643,44.35211],[50.2421,44.37175],[50.23645,44.39825],[50.23658,44.42849],[50.23691,44.45451],[50.23597,44.47289],[50.2341,44.48839],[50.23053,44.50844],[50.22772,44.53489],[50.23025,44.55901],[50.23953,44.56952],[50.25325,44.57034],[50.26775,44.57706],[50.28096,44.59232],[50.29267,44.60665],[50.30183,44.61792],[50.30709,44.62966],[50.30953,44.64075],[50.31136,44.64807],[50.31323,44.65089],[50.31637,44.64964],[50.33301,44.64403],[50.38412,44.63418],[50.46446,44.62479],[50.53758,44.62257],[50.58239,44.62566],[50.60635,44.62537],[50.62735,44.61957],[50.66149,44.61318],[50.70386,44.608],[50.73665,44.60306],[50.75782,44.6013],[50.77396,44.60601],[50.78476,44.61432],[50.78977,44.62077],[50.7954,44.62347],[50.81146,44.62361],[50.83831,44.62195],[50.86665,44.61761],[50.89458,44.60822],[50.92466,44.5929],[50.95199,44.57708],[50.97295,44.56805],[50.98937,44.56531],[51.00106,44.56274],[51.00668,44.55765],[51.00607,44.55181],[51.00138,44.54651],[51.00055,44.53944],[51.01496,44.52747],[51.05051,44.51107],[51.09786,44.49552],[51.14014,44.48697],[51.17275,44.48653],[51.20257,44.4932],[51.23425,44.50791],[51.26274,44.52608],[51.27916,44.5386],[51.28487,44.5442],[51.28836,44.54754],[51.29445,44.55015],[51.30548,44.55146],[51.32211,44.55228],[51.34209,44.55424],[51.36062,44.55506],[51.3734,44.54842],[51.38745,44.53572],[51.41901,44.52622],[51.46985,44.52085],[51.52041,44.516],[51.55268,44.51614],[51.56477,44.52451],[51.56271,44.53666],[51.54955,44.54919],[51.52237,44.56361],[51.48274,44.58041],[51.44284,44.59367],[51.4072,44.59774],[51.36771,44.59685],[51.32358,44.60403],[51.28294,44.63048],[51.24968,44.67082],[51.21788,44.70822],[51.17806,44.73718],[51.1355,44.76047],[51.10712,44.77606],[51.09398,44.78368],[51.08129,44.78771],[51.06283,44.79165],[51.04556,44.79691],[51.03073,44.80476],[51.00812,44.8182],[50.97985,44.83848],[50.9649,44.86165],[50.96871,44.88246],[50.97913,44.89758],[50.98921,44.90724],[50.99666,44.91539],[50.99609,44.92439],[50.98808,44.93215],[50.97975,44.93663],[50.97193,44.93904],[50.96248,44.94247],[50.95709,44.94979],[50.96151,44.96052],[50.97369,44.97114],[50.99045,44.97929],[51.01002,44.98443],[51.03056,44.98659],[51.05112,44.98769],[51.07021,44.99106],[51.08586,44.99808],[51.09793,45.00744],[51.10967,45.01767],[51.1273,45.02904],[51.15175,45.04102],[51.17516,45.04984],[51.19229,45.05184],[51.20676,45.04595],[51.2246,45.03439],[51.24632,45.02464],[51.26309,45.02528],[51.26664,45.03709],[51.25959,45.05377],[51.24874,45.07043],[51.24056,45.08567],[51.24242,45.09897],[51.25378,45.1106],[51.26302,45.12142],[51.26064,45.13152],[51.25091,45.14117],[51.24716,45.1512],[51.25407,45.16177],[51.26612,45.17477],[51.28128,45.19334],[51.29816,45.21558],[51.31654,45.23936],[51.34575,45.27084],[51.38413,45.30991],[51.41176,45.34352],[51.42119,45.36449],[51.42339,45.37234],[51.43163,45.36477],[51.4555,45.34699],[51.49584,45.33276],[51.54477,45.33051],[51.5926,45.33957],[51.63162,45.35522],[51.65805,45.36995],[51.67547,45.37798],[51.69176,45.38246],[51.70934,45.39103],[51.72532,45.40597],[51.7384,45.42303],[51.74874,45.43637],[51.75615,45.44192],[51.76194,45.43872],[51.76867,45.42868],[51.7822,45.41457],[51.81161,45.40001],[51.85223,45.38822],[51.88729,45.37809],[51.91391,45.36833],[51.93988,45.36368],[51.9667,45.36813],[51.99097,45.37701],[52.0122,45.38215],[52.03587,45.38082],[52.08244,45.37814],[52.18363,45.38121],[52.32364,45.38879],[52.43909,45.39391],[52.51749,45.39137],[52.60291,45.3761],[52.70967,45.3509],[52.80624,45.32807],[52.87341,45.31408],[52.92775,45.30813],[52.98204,45.30645],[53.03086,45.30285],[53.07185,45.29674],[53.10737,45.29458],[53.13976,45.29999],[53.16966,45.30906],[53.19326,45.31672],[53.20827,45.32267],[53.2171,45.32728],[53.22489,45.32867],[53.23581,45.32733],[53.24861,45.32719],[53.25884,45.3312],[53.26219,45.33928],[53.25841,45.34835],[53.24568,45.35588],[53.21367,45.3635],[53.16752,45.37294],[53.13294,45.38222],[53.11872,45.38915],[53.11157,45.39366],[53.0979,45.39721],[53.06521,45.40442],[53.00621,45.42056],[52.93818,45.44139],[52.88993,45.4573],[52.86545,45.46814],[52.85162,45.47777],[52.84082,45.48468],[52.82432,45.48928],[52.79455,45.49633],[52.76006,45.50808],[52.73693,45.52196],[52.72799,45.53421],[52.72443,45.54412],[52.72227,45.5541],[52.72341,45.5648],[52.72652,45.57384],[52.7278,45.58067],[52.72683,45.58882],[52.72622,45.6023],[52.72984,45.62004],[52.7418,45.63506],[52.7613,45.64345],[52.78063,45.65037],[52.79429,45.66374],[52.80888,45.68694],[52.83324,45.71768],[52.86122,45.74728],[52.88207,45.76644],[52.89784,45.77579],[52.91554,45.78419],[52.93545,45.79962],[52.95189,45.82424],[52.96442,45.85366],[52.9826,45.88074],[53.00934,45.90173],[53.03249,45.91823],[53.04139,45.93361],[53.04224,45.94947],[53.04891,45.96556],[53.06122,45.98292],[53.06899,46.00227],[53.07029,46.01914],[53.06905,46.02956],[53.06891,46.03681],[53.076,46.04651],[53.09116,46.06084],[53.10323,46.07896],[53.10608,46.10138],[53.10697,46.13687],[53.10996,46.19461],[53.11042,46.26489],[53.10224,46.32747],[53.07996,46.37548],[53.04769,46.41237],[53.0264,46.43468],[53.03339,46.4371],[53.0586,46.42816],[53.0748,46.42396],[53.06837,46.43131],[53.05054,46.44785],[53.03789,46.4689],[53.03875,46.48541],[53.05332,46.4886],[53.06647,46.47965],[53.056,46.4673],[53.01987,46.46373],[52.98669,46.47695],[52.99066,46.5008],[53.02283,46.52363],[53.03905,46.53742],[53.0348,46.53654],[53.04617,46.52708],[53.07506,46.52621],[53.08671,46.54329],[53.07548,46.57053],[53.07018,46.58984],[53.08364,46.59265],[53.11061,46.5904],[53.14382,46.59564],[53.16634,46.60513],[53.16924,46.60964],[53.16697,46.60802],[53.17621,46.60612],[53.19182,46.61029],[53.19297,46.62418],[53.17715,46.6446],[53.16361,46.66487],[53.15888,46.68165],[53.15239,46.69281],[53.13632,46.69899],[53.11022,46.70686],[53.0819,46.72346],[53.06215,46.75155],[53.05051,46.79],[53.0391,46.83055],[53.02958,46.85931],[53.02812,46.87004],[53.02556,46.8692],[53.00642,46.86811],[52.97269,46.87617],[52.93883,46.89507],[52.91499,46.91492],[52.89462,46.92399],[52.85638,46.92239],[52.79154,46.91852],[52.71236,46.91788],[52.63708,46.92115],[52.58001,46.92918],[52.54253,46.9425],[52.51637,46.95613],[52.4931,46.96453],[52.4726,46.96886],[52.45785,46.97263],[52.43688,46.97505],[52.41047,46.97003],[52.40513,46.95187],[52.41514,46.92269],[52.40232,46.89128],[52.35408,46.86543],[52.28878,46.84975],[52.23344,46.84661],[52.20247,46.85318],[52.18237,46.86187],[52.16152,46.86318],[52.15477,46.85211],[52.16888,46.83645],[52.18564,46.82728],[52.19224,46.82506],[52.19318,46.82379],[52.19486,46.82043],[52.19981,46.81442],[52.20276,46.80333],[52.18218,46.79051],[52.13134,46.78633],[52.08049,46.79261],[52.0511,46.80335],[52.03583,46.81609],[52.0286,46.82758],[52.0288,46.83196],[52.02715,46.83255],[52.01381,46.83918],[51.99336,46.85199],[51.97538,46.86624],[51.96795,46.88128],[51.98302,46.89256],[52.01141,46.89812],[52.01938,46.9057],[52.00483,46.9147],[51.99947,46.91668],[52.00881,46.91083],[52.00934,46.89686],[51.98745,46.87571],[51.94852,46.8585],[51.90919,46.85528],[51.88996,46.86627],[51.8926,46.88465],[51.8933,46.90016],[51.88217,46.90643],[51.87079,46.904],[51.85457,46.89585],[51.82183,46.88696],[51.78038,46.88454],[51.74389,46.89146],[51.71525,46.90443],[51.68866,46.922],[51.66838,46.94707],[51.66967,46.97855],[51.67984,47.00726],[51.67371,47.02439],[51.66315,47.03008],[51.66498,47.03019],[51.67005,47.02668],[51.66865,47.01573],[51.65598,46.99637],[51.62518,46.97806],[51.5807,46.97533],[51.54034,46.99119],[51.51483,47.01209],[51.49719,47.02547],[51.47051,47.0329],[51.42114,47.04187],[51.3482,47.05555],[51.27179,47.07141],[51.22033,47.08219],[51.19193,47.08088],[51.15492,47.06793],[51.09284,47.05077],[51.02648,47.03578],[50.98087,47.02206],[50.94803,47.00742],[50.91083,46.99797],[50.87531,46.99933],[50.85733,47.0058],[50.86022,47.01056],[50.86659,47.01385],[50.85874,47.01627],[50.8511,47.01547],[50.85672,47.0036],[50.84551,46.9699],[50.79725,46.92569],[50.74484,46.90283],[50.7309,46.90892],[50.75019,46.92553],[50.75914,46.94124],[50.74914,46.95039],[50.74674,46.94835],[50.74757,46.93742],[50.72913,46.92211],[50.69339,46.90839],[50.65855,46.90284],[50.64171,46.90573],[50.64451,46.90777],[50.65077,46.89619],[50.64808,46.87015],[50.6349,46.84161],[50.6141,46.82148],[50.59768,46.81645],[50.59758,46.82601],[50.60417,46.84047],[50.59621,46.85074],[50.57364,46.85345],[50.5545,46.85086],[50.54438,46.84732],[50.53343,46.8443],[50.51326,46.84391],[50.48684,46.84957],[50.46267,46.86019],[50.44488,46.87031],[50.43581,46.87601],[50.43633,46.87822],[50.44162,46.8793],[50.44277,46.87489],[50.431,46.85533],[50.40787,46.82555],[50.38768,46.80981],[50.377,46.81836],[50.37245,46.83232],[50.37385,46.83422],[50.37596,46.82599],[50.37069,46.81452],[50.35777,46.80322],[50.34146,46.79505],[50.32828,46.79122],[50.32208,46.78986],[50.31751,46.78558],[50.30401,46.76955],[50.27645,46.74276],[50.24403,46.72241],[50.22662,46.72059],[50.22807,46.73123],[50.22712,46.74273],[50.21608,46.74843],[50.20827,46.74759],[50.19833,46.73911],[50.16729,46.71643],[50.12044,46.68055],[50.07915,46.64643],[50.04711,46.62481],[50.01641,46.61483],[49.99092,46.61191],[49.97725,46.61062],[49.96938,46.6059],[49.95721,46.59656],[49.93843,46.58521],[49.91653,46.57413],[49.89327,46.56493],[49.87029,46.56041],[49.85474,46.55998],[49.84863,46.55664],[49.83946,46.54589],[49.81614,46.53566],[49.78673,46.53606],[49.76992,46.54376],[49.77181,46.54946],[49.78036,46.54778],[49.77932,46.53767],[49.76168,46.52748],[49.7352,46.52774],[49.71592,46.53568],[49.71241,46.54268],[49.71945,46.5457],[49.72403,46.54158],[49.71124,46.53218],[49.67871,46.53297],[49.64869,46.54877],[49.64087,46.55962],[49.64386,46.54989],[49.63787,46.52866],[49.62486,46.513],[49.61373,46.50532],[49.59739,46.49967],[49.57223,46.49934],[49.54821,46.50774],[49.52335,46.51924],[49.49527,46.53192],[49.48259,46.55016],[49.4918,46.56975],[49.49919,46.57591],[49.48613,46.56291],[49.46418,46.54148],[49.45882,46.52179],[49.476,46.50522],[49.49201,46.49158],[49.48625,46.48279],[49.46688,46.48109],[49.45243,46.48672],[49.45571,46.49756],[49.47547,46.51038],[49.48884,46.5215],[49.47629,46.52708],[49.44758,46.52752],[49.42965,46.52834],[49.43423,46.53205],[49.44588,46.53476],[49.44231,46.53115],[49.41683,46.52406],[49.37845,46.52359],[49.34174,46.53356],[49.31887,46.5473],[49.31085,46.55138],[49.32031,46.53531],[49.3521,46.50577],[49.37932,46.47969],[49.37104,46.46556],[49.34006,46.46306],[49.31143,46.47017],[49.29193,46.48274],[49.28226,46.49398],[49.27924,46.49978],[49.27334,46.50158],[49.26812,46.50095],[49.27797,46.49509],[49.29336,46.48011],[49.29983,46.458],[49.31351,46.43733],[49.34749,46.42477],[49.38452,46.41791],[49.40129,46.40786],[49.38882,46.39273],[49.35353,46.38384],[49.31298,46.39012],[49.28217,46.406],[49.2626,46.42222],[49.25049,46.43458],[49.24408,46.44157],[49.23936,46.44437],[49.23055,46.44533],[49.22391,46.44593],[49.23591,46.44696],[49.25914,46.44453],[49.26533,46.43165],[49.25926,46.40956],[49.26749,46.38828],[49.28058,46.37481],[49.27074,46.37053],[49.23742,46.37488],[49.2049,46.38386],[49.18933,46.39187],[49.17843,46.39398],[49.1642,46.38714],[49.16156,46.37582],[49.17178,46.36818],[49.18491,46.36603],[49.20664,46.36472],[49.23632,46.35894],[49.25683,46.34869],[49.25893,46.33777],[49.24545,46.32509],[49.23219,46.30574],[49.24283,46.28284],[49.27806,46.26539],[49.3083,46.25262],[49.30678,46.23993],[49.27921,46.23304],[49.25033,46.2361],[49.23051,46.24284],[49.21026,46.24916],[49.18413,46.25919],[49.16849,46.27723],[49.17308,46.29823],[49.17733,46.31121],[49.16875,46.31234],[49.15621,46.30438],[49.14054,46.2913],[49.12332,46.28018],[49.11366,46.27322],[49.10905,46.26513],[49.09961,46.25512],[49.08235,46.24546],[49.06746,46.23625],[49.07061,46.2296],[49.09517,46.22267],[49.12466,46.20302],[49.13174,46.1705],[49.10878,46.14678],[49.07692,46.14597],[49.05532,46.15831],[49.04753,46.16879],[49.05024,46.17257],[49.0566,46.17259],[49.05859,46.17013],[49.05092,46.1638],[49.03324,46.15468],[49.0091,46.14414],[48.98539,46.13479],[48.96783,46.13023],[48.95662,46.12513],[48.95665,46.11337],[48.96878,46.09929],[48.97382,46.08597],[48.96202,46.07544],[48.95131,46.0768],[48.9487,46.09228],[48.93398,46.11011],[48.90479,46.12141],[48.88867,46.1285],[48.89648,46.13411],[48.91063,46.13272],[48.91113,46.11934],[48.88991,46.10553],[48.85824,46.10632],[48.83958,46.118],[48.84044,46.12844],[48.8471,46.12969],[48.85894,46.11882],[48.87821,46.0992],[48.88053,46.07827],[48.8578,46.06946],[48.83845,46.08093],[48.83129,46.10011],[48.82249,46.111],[48.81521,46.10981],[48.82262,46.09886],[48.84134,46.08202],[48.84853,46.06248],[48.83435,46.04801],[48.82046,46.05003],[48.81797,46.06556],[48.8039,46.07941],[48.76901,46.08715],[48.73762,46.09388],[48.72264,46.0984],[48.70962,46.09803],[48.69278,46.09682],[48.6868,46.09803],[48.6944,46.0993],[48.70136,46.09869],[48.70212,46.09574],[48.69729,46.08785],[48.68416,46.076],[48.66509,46.06681],[48.64905,46.06184],[48.64432,46.05703],[48.65199,46.05038],[48.66625,46.03981],[48.68516,46.02612],[48.71196,46.01548],[48.73834,46.00734],[48.74667,45.99556],[48.73525,45.98166],[48.71769,45.97132],[48.70286,45.96541],[48.69182,45.96215],[48.68114,45.96091],[48.66639,45.95803],[48.65687,45.95001],[48.66651,45.94302],[48.68783,45.94278],[48.70664,45.94533],[48.72314,45.94755],[48.74457,45.94907],[48.76857,45.94544],[48.78146,45.93502],[48.77751,45.92312],[48.76506,45.91275],[48.76108,45.90501],[48.77089,45.89845],[48.77869,45.88276],[48.78073,45.85663],[48.78195,45.83586],[48.77756,45.82789],[48.76855,45.82442],[48.75823,45.82058],[48.74819,45.81767],[48.73649,45.81311],[48.71726,45.81026],[48.70344,45.82044],[48.71059,45.84108],[48.72406,45.85836],[48.71941,45.86522],[48.69293,45.8656],[48.66094,45.86907],[48.63935,45.87685],[48.63043,45.88212],[48.62745,45.88358],[48.62674,45.88652],[48.63325,45.89696],[48.6424,45.91246],[48.63305,45.92304],[48.60265,45.92869],[48.57582,45.93606],[48.56522,45.94188],[48.56034,45.94088],[48.55205,45.93531],[48.5393,45.92811],[48.52035,45.92072],[48.4989,45.91618],[48.48582,45.91566],[48.48244,45.91535],[48.47672,45.90907],[48.45938,45.89268],[48.43187,45.87059],[48.40257,45.85479],[48.38385,45.85147],[48.37833,45.85464],[48.37214,45.85359],[48.36404,45.84435],[48.37251,45.83432],[48.3979,45.82952],[48.40924,45.82524],[48.38294,45.81886],[48.34087,45.81608],[48.31936,45.81818],[48.31887,45.81816],[48.32064,45.80996],[48.31691,45.79433],[48.30639,45.77651],[48.28854,45.7612],[48.26681,45.75061],[48.24999,45.7464],[48.246,45.74935],[48.25195,45.75501],[48.25849,45.75659],[48.26324,45.7524],[48.26681,45.74144],[48.26071,45.72261],[48.23664,45.70606],[48.20313,45.70398],[48.17534,45.71028],[48.1517,45.71268],[48.12228,45.71372],[48.09533,45.71924],[48.08404,45.72372],[48.07927,45.72038],[48.06752,45.71142],[48.0538,45.70385],[48.04638,45.69991],[48.03812,45.69537],[48.02056,45.69261],[48.00234,45.69946],[47.98873,45.70938],[47.97261,45.71094],[47.95858,45.70809],[47.95566,45.70718],[47.96124,45.70708],[47.96857,45.70669],[47.97026,45.70534],[47.96314,45.70241],[47.95206,45.69811],[47.94094,45.69309],[47.93089,45.69331],[47.92017,45.70206],[47.90166,45.70873],[47.88029,45.70637],[47.87236,45.70271],[47.87692,45.70122],[47.88057,45.69399],[47.87839,45.67871],[47.87419,45.66517],[47.87418,45.65689],[47.87765,45.6448],[47.87647,45.62625],[47.86454,45.60915],[47.84132,45.6028],[47.81753,45.61642],[47.80618,45.64591],[47.79958,45.67093],[47.77959,45.67905],[47.74974,45.67853],[47.72917,45.68406],[47.7178,45.69326],[47.7073,45.6938],[47.70577,45.68858],[47.71306,45.68584],[47.71349,45.68402],[47.70178,45.68108],[47.68578,45.67924],[47.67198,45.67974],[47.66273,45.6846],[47.66371,45.6977],[47.67495,45.71576],[47.68352,45.73073],[47.67819,45.74037],[47.65591,45.74348],[47.6249,45.74062],[47.6008,45.73875],[47.58714,45.74107],[47.57975,45.74514],[47.57947,45.74985],[47.58296,45.75141],[47.58254,45.74317],[47.57943,45.72907],[47.58171,45.72257],[47.59479,45.72763],[47.6119,45.73212],[47.61524,45.72348],[47.60454,45.70638],[47.60213,45.69564],[47.61924,45.69606],[47.64319,45.69912],[47.65738,45.69668],[47.66058,45.68882],[47.65815,45.67662],[47.64962,45.66167],[47.63886,45.65161],[47.63526,45.6527],[47.63911,45.66011],[47.64368,45.66275],[47.64346,45.65479],[47.63967,45.6395],[47.64406,45.62509],[47.65525,45.61315],[47.65685,45.59752],[47.65027,45.57921],[47.64285,45.56648],[47.63312,45.56636],[47.62596,45.58276],[47.61718,45.60974],[47.58924,45.63269],[47.54756,45.64321],[47.51183,45.64543],[47.4821,45.64816],[47.45399,45.65566],[47.435,45.66627],[47.4352,45.67729],[47.45214,45.6866],[47.46713,45.69194],[47.47368,45.69361],[47.48313,45.69517],[47.48713,45.69919],[47.46831,45.70778],[47.44091,45.72263],[47.42285,45.73502],[47.4106,45.73522],[47.40511,45.73105],[47.40858,45.73309],[47.41447,45.73867],[47.42247,45.73877],[47.43464,45.72857],[47.44499,45.71357],[47.44897,45.70317],[47.44658,45.69692],[47.43691,45.68534],[47.42775,45.66766],[47.42959,45.65488],[47.43836,45.65377],[47.45162,45.6621],[47.46938,45.66905],[47.48009,45.66125],[47.48473,45.64237],[47.49989,45.6294],[47.52984,45.6277],[47.56209,45.62845],[47.57988,45.62405],[47.57932,45.61323],[47.57262,45.59719],[47.57051,45.58034],[47.57184,45.56785],[47.57091,45.55951],[47.56572,45.55259],[47.55813,45.54641],[47.54971,45.5423],[47.53907,45.54372],[47.52629,45.55412],[47.51506,45.57041],[47.50667,45.58205],[47.50015,45.58194],[47.49704,45.57413],[47.49959,45.56403],[47.50883,45.54953],[47.52237,45.5305],[47.53312,45.51479],[47.53491,45.50589],[47.526,45.49714],[47.51168,45.48446],[47.50161,45.47087],[47.49875,45.45714],[47.49742,45.44279],[47.4884,45.43134],[47.46419,45.42553],[47.43015,45.42296],[47.40288,45.41894],[47.39489,45.41224],[47.40843,45.40582],[47.43333,45.40132],[47.45226,45.39675],[47.45784,45.39009],[47.45431,45.38215],[47.44623,45.3751],[47.43701,45.37001],[47.43024,45.3663],[47.42501,45.36039],[47.41574,45.34645],[47.40156,45.32437],[47.38913,45.29766],[47.38229,45.26283],[47.37711,45.22302],[47.36829,45.19569],[47.35419,45.18805],[47.33615,45.18994],[47.31723,45.18977],[47.3009,45.17992],[47.28783,45.15655],[47.27583,45.12357],[47.26294,45.09056],[47.24796,45.06068],[47.23118,45.02949],[47.2147,44.99935],[47.19895,44.97984],[47.18312,44.97094],[47.1687,44.96201],[47.15719,44.94896],[47.14781,44.93973],[47.13819,44.94098],[47.12629,44.94845],[47.11357,44.95361],[47.10516,44.94825],[47.10288,44.92223],[47.10002,44.87676],[47.09176,44.83203],[47.08313,44.80393],[47.07724,44.79199],[47.06877,44.7944],[47.05304,44.81126],[47.03413,44.8372],[47.02006,44.86614],[47.01119,44.89344],[47.00246,44.90971],[46.99403,44.90787],[46.99092,44.89206],[46.99521,44.87093],[47.00248,44.85018],[47.00453,44.83101],[46.99559,44.81056],[46.97851,44.78935],[46.96027,44.77522],[46.94166,44.77003],[46.91916,44.76449],[46.89417,44.7531],[46.87261,44.73897],[46.85682,44.72451],[46.84236,44.71135],[46.82245,44.70222],[46.79629,44.69365],[46.7698,44.67931],[46.74714,44.66282],[46.72955,44.64661],[46.71835,44.62185],[46.71372,44.59086],[46.71474,44.56889],[46.71862,44.55815],[46.7202,44.55125],[46.716,44.5464],[46.70693,44.54365],[46.69654,44.54072],[46.68843,44.53484],[46.68548,44.52231],[46.68883,44.5004],[46.6961,44.47343],[46.70498,44.44986],[46.71771,44.43191],[46.736,44.41679],[46.75764,44.40448],[46.78273,44.3972],[46.81069,44.39516],[46.8434,44.3939],[46.89522,44.38667],[46.96316,44.37313],[47.01604,44.35874],[47.04232,44.34285],[47.05685,44.31992],[47.06896,44.29233],[47.08009,44.26873],[47.09218,44.2516],[47.10643,44.23764],[47.12135,44.22618],[47.13536,44.21816],[47.14953,44.21192],[47.16465,44.20669],[47.17959,44.2059],[47.19422,44.21212],[47.20959,44.22058],[47.2267,44.22005],[47.24636,44.19975],[47.26833,44.15789],[47.29158,44.10764],[47.31405,44.06791],[47.333,44.04491],[47.34874,44.02834],[47.36591,44.00305],[47.38711,43.96696],[47.40751,43.93277],[47.4212,43.90789],[47.42972,43.89032],[47.43928,43.87844],[47.4508,43.86975],[47.45794,43.8601],[47.45645,43.84746],[47.45059,43.83398],[47.44886,43.82509],[47.45562,43.82297],[47.46804,43.82361],[47.48089,43.8201],[47.49171,43.80743],[47.49909,43.78893],[47.49932,43.77369],[47.48988,43.76484],[47.47483,43.75887],[47.46148,43.75269],[47.45215,43.74472],[47.44608,43.73245],[47.44523,43.7147],[47.44855,43.69636],[47.44897,43.6838],[47.44364,43.67709],[47.43532,43.67081],[47.42443,43.65796],[47.4102,43.63773],[47.39496,43.62116],[47.38237,43.61683],[47.37408,43.61805],[47.36998,43.61363],[47.37015,43.60008],[47.37454,43.58152],[47.38233,43.56471],[47.3921,43.55227],[47.40053,43.54095],[47.40583,43.52781],[47.41296,43.51599],[47.42747,43.51349],[47.44649,43.52693],[47.4627,43.55551],[47.47243,43.59045],[47.47703,43.62057],[47.48008,43.64024],[47.48454,43.65211],[47.4915,43.6618],[47.49927,43.67375],[47.50441,43.69035],[47.50721,43.70987],[47.51266,43.7296],[47.5226,43.75117],[47.53304,43.77657],[47.54012,43.80394],[47.54333,43.82948],[47.545,43.84989],[47.55021,43.86531],[47.56323,43.87907],[47.58196,43.89104],[47.60258,43.89753],[47.62587,43.89791],[47.65188,43.89399],[47.67272,43.88405],[47.6729,43.86131],[47.64475,43.81567],[47.60007,43.73829],[47.55646,43.63726],[47.52261,43.54156],[47.50006,43.47178],[47.4892,43.42289],[47.4885,43.38398],[47.49114,43.35301],[47.49147,43.33016],[47.49217,43.31303],[47.49913,43.30242],[47.51404,43.30305],[47.53364,43.31322],[47.55261,43.32373],[47.56724,43.32858],[47.57686,43.32718],[47.58256,43.32064],[47.58525,43.31118],[47.58477,43.30141],[47.58098,43.29247],[47.57401,43.28246],[47.56245,43.26981],[47.54485,43.25646],[47.52423,43.24385],[47.50588,43.23049],[47.49299,43.21539],[47.48723,43.19953],[47.4864,43.18447],[47.48506,43.17137],[47.4824,43.15991],[47.48149,43.14893],[47.48215,43.1381],[47.48046,43.12735],[47.47387,43.11664],[47.46478,43.10621],[47.4586,43.09221],[47.46214,43.06472],[47.48537,43.02159],[47.52843,42.97808],[47.57115,42.94877],[47.59653,42.9317],[47.61379,42.91694],[47.64126,42.8983],[47.67567,42.87719],[47.69908,42.8584],[47.70805,42.84353],[47.7113,42.82949],[47.71358,42.80961],[47.71589,42.78444],[47.71816,42.76492],[47.71934,42.75453],[47.71873,42.74442],[47.71817,42.72581],[47.72201,42.69768],[47.73774,42.66615],[47.77305,42.63643],[47.82401,42.60438],[47.87948,42.55739],[47.93451,42.49443],[47.98557,42.43572],[48.02992,42.39558],[48.07388,42.35955],[48.12941,42.29993],[48.19367,42.22054],[48.24678,42.15782],[48.28014,42.12426],[48.29993,42.10258],[48.31122,42.08178],[48.32194,42.05559],[48.34415,42.01412],[48.38,41.96302],[48.42136,41.92413],[48.46425,41.90404],[48.50777,41.88993],[48.54521,41.87284],[48.56938,41.85607],[48.58311,41.84478],[48.59856,41.83531],[48.62709,41.81663],[48.67293,41.77917],[48.72624,41.73046],[48.76721,41.69088],[48.79226,41.66309],[48.81953,41.63017],[48.85825,41.58567],[48.89606,41.5443],[48.92243,41.51885],[48.93993,41.50391],[48.95378,41.48954],[48.96719,41.47317],[48.98005,41.45763],[48.99056,41.44687],[49.00147,41.44071],[49.01527,41.43527],[49.03104,41.4244],[49.05135,41.39953],[49.07768,41.36078],[49.10341,41.32242],[49.12219,41.29484],[49.13471,41.26986],[49.14452,41.23309],[49.15372,41.18888],[49.16271,41.15641],[49.17194,41.1362],[49.1849,41.10714],[49.21308,41.0555],[49.26619,40.98797],[49.32717,40.92602],[49.36742,40.88732],[49.38882,40.86721],[49.41221,40.85227],[49.44174,40.84016],[49.46866,40.83139],[49.49002,40.82161],[49.50864,40.80961],[49.52437,40.79751],[49.53254,40.78265],[49.53023,40.7607],[49.5217,40.73503],[49.51456,40.7138],[49.51201,40.69965],[49.51357,40.68945],[49.51881,40.68029],[49.52571,40.67195],[49.53103,40.66568],[49.53568,40.66032],[49.54423,40.65264],[49.55828,40.64255],[49.57636,40.63335],[49.5993,40.62726],[49.62601,40.62319],[49.65137,40.61759],[49.67518,40.60732],[49.70175,40.59414],[49.7341,40.58305],[49.7721,40.57516],[49.80884,40.56936],[49.83942,40.56769],[49.87011,40.57232],[49.91011,40.58015],[49.9633,40.58474],[50.01813,40.58334],[50.05287,40.578],[50.06504,40.57124],[50.07014,40.56364],[50.07848,40.55393],[50.0924,40.54178],[50.11484,40.52927],[50.15188,40.51759],[50.19716,40.50621],[50.2313,40.49386],[50.24962,40.47821],[50.26308,40.45937],[50.27869,40.44196],[50.29712,40.42926],[50.31673,40.41824],[50.33475,40.40402],[50.34949,40.38182],[50.36111,40.3468],[50.37062,40.30616],[50.37879,40.27519],[50.38533,40.25492],[50.3877,40.24033],[50.38212,40.23759],[50.36767,40.25119],[50.34555,40.27425],[50.3161,40.29883],[50.28326,40.32017],[50.25285,40.33459],[50.22236,40.34301],[50.18791,40.34946],[50.15545,40.35504],[50.13195,40.35793],[50.11625,40.35739],[50.10232,40.35507],[50.08406,40.35279],[50.05991,40.34923],[50.03332,40.34154],[50.00852,40.3323],[49.98926,40.32869],[49.97613,40.33342],[49.96574,40.3424],[49.95475,40.35025],[49.93979,40.35573],[49.91906,40.36046],[49.89482,40.36203],[49.87092,40.35451],[49.85153,40.33712],[49.83495,40.3155],[49.80988,40.29524],[49.76794,40.27777],[49.71183,40.26022],[49.65059,40.24054],[49.59624,40.22062],[49.55595,40.20105],[49.52729,40.18192],[49.5076,40.16542],[49.4972,40.14964],[49.49432,40.13072],[49.49168,40.11094],[49.47857,40.09398],[49.45649,40.07843],[49.44124,40.06148],[49.4406,40.0435],[49.44884,40.02762],[49.45972,40.01599],[49.47038,40.00711],[49.47811,39.99859],[49.48016,39.99037],[49.47541,39.98304],[49.46524,39.97578],[49.45329,39.9685],[49.44311,39.9622],[49.43552,39.95556],[49.4299,39.94666],[49.42656,39.93576],[49.42687,39.9225],[49.43143,39.906],[49.43743,39.88877],[49.43975,39.87447],[49.43625,39.86383],[49.42943,39.8559],[49.42291,39.84932],[49.41866,39.84255],[49.41718,39.83549],[49.41813,39.82907],[49.4203,39.82317],[49.42164,39.81712],[49.41967,39.81099],[49.41301,39.80417],[49.40427,39.79526],[49.39864,39.78525],[49.39783,39.77616],[49.39901,39.76699],[49.40156,39.75507],[49.40838,39.73971],[49.41647,39.72378],[49.41642,39.71096],[49.40397,39.70003],[49.38299,39.6861],[49.35966,39.66725],[49.33932,39.64555],[49.32522,39.62408],[49.316,39.60453],[49.30751,39.58552],[49.29881,39.56493],[49.29189,39.54292],[49.28862,39.52037],[49.29561,39.4952],[49.32321,39.46327],[49.36415,39.42865],[49.39447,39.40316],[49.40556,39.38989],[49.40631,39.38119],[49.40369,39.36887],[49.40126,39.352],[49.40099,39.33728],[49.40011,39.33023],[49.39509,39.33076],[49.38735,39.33608],[49.38007,39.34286],[49.3744,39.34728],[49.37177,39.34503],[49.37418,39.33503],[49.38191,39.3212],[49.39268,39.30832],[49.40054,39.29901],[49.39853,39.29507],[49.38679,39.29818],[49.36963,39.30851],[49.34493,39.32315],[49.3113,39.33329],[49.27772,39.32851],[49.25414,39.30298],[49.24233,39.25558],[49.23772,39.20046],[49.23402,39.15965],[49.22763,39.13377],[49.21959,39.1103],[49.21297,39.08514],[49.20797,39.05958],[49.19777,39.03493],[49.17112,39.01001],[49.12855,38.98719],[49.08799,38.97647],[49.06426,38.98076],[49.05622,38.99102],[49.05576,39.00024],[49.06102,39.00807],[49.07678,39.01545],[49.10065,39.02289],[49.12199,39.03232],[49.13598,39.04603],[49.14341,39.06376],[49.14289,39.08253],[49.13129,39.09819],[49.10886,39.10815],[49.08492,39.11644],[49.07029,39.1313],[49.06316,39.15251],[49.0545,39.17093],[49.03882,39.1818],[49.01528,39.18647],[48.98986,39.18634],[48.97196,39.18215],[48.9631,39.17445],[48.95768,39.16432],[48.95314,39.15395],[48.95037,39.14472],[48.94852,39.13656],[48.94571,39.13033],[48.94187,39.12704],[48.93834,39.12279],[48.93615,39.10882],[48.93671,39.08344],[48.94125,39.05558],[48.94537,39.02781],[48.94107,38.9933],[48.92842,38.95511],[48.91441,38.92426],[48.90176,38.90262],[48.88642,38.88625],[48.86518,38.873],[48.84511,38.85886],[48.83599,38.84042],[48.83775,38.81892],[48.84644,38.78535],[48.85838,38.71372],[48.86807,38.60106],[48.87321,38.49092],[48.87497,38.41535],[48.87403,38.36317],[48.87238,38.32158],[48.87402,38.2853],[48.88137,38.24148],[48.89545,38.17524],[48.9154,38.08649],[48.93357,38.00362],[48.94185,37.95256],[48.94364,37.92564],[48.94862,37.90407],[48.96133,37.87953],[48.97664,37.85404],[48.98522,37.83499],[48.98664,37.82191],[48.98924,37.80427],[49.00094,37.77418],[49.0281,37.7314],[49.07428,37.68055],[49.14176,37.6278],[49.23405,37.57666],[49.35963,37.53019],[49.53115,37.49339],[49.7164,37.47066],[49.84307,37.46402],[49.90053,37.4671],[49.93225,37.46818],[49.9529,37.46437],[49.95708,37.46119],[49.95069,37.46055],[49.94837,37.4577],[49.97241,37.44706],[50.03694,37.42856],[50.11985,37.40751],[50.18297,37.38613],[50.21443,37.36195],[50.22689,37.33566],[50.23501,37.31],[50.245,37.28604],[50.25729,37.26288],[50.27356,37.23431],[50.29624,37.19712],[50.32749,37.15832],[50.37067,37.1212],[50.42165,37.08329],[50.46538,37.05067],[50.4996,37.0284],[50.54266,37.00671],[50.59598,36.98136],[50.63797,36.96173],[50.66367,36.94802],[50.69312,36.93001],[50.75534,36.89713],[50.86122,36.84476],[50.9939,36.78577],[51.15205,36.73582],[51.34278,36.69433],[51.54201,36.65644],[51.7294,36.6241],[51.90996,36.60721],[52.08717,36.61681],[52.2603,36.64757],[52.43266,36.6823],[52.6061,36.71367],[52.77848,36.74592],[52.95849,36.78394],[53.1597,36.82657],[53.372,36.86435],[53.585,36.8894],[53.78551,36.90684],[53.92565,36.92272],[53.98232,36.92914],[53.97946,36.91956],[53.94008,36.90373],[53.88694,36.89163],[53.84448,36.88346],[53.81876,36.87913],[53.79988,36.87938],[53.77996,36.881],[53.75874,36.87976],[53.73539,36.87624],[53.70397,36.87459],[53.66413,36.87505],[53.6322,36.87338],[53.62434,36.8687],[53.63534,36.86449],[53.64612,36.86192],[53.64733,36.85809],[53.65019,36.84909],[53.67599,36.83456],[53.73657,36.81945],[53.81148,36.80799],[53.87077,36.80216],[53.92264,36.80524],[53.97795,36.81687],[54.01626,36.83688],[54.02934,36.87358],[54.02998,36.9217],[54.02411,36.95725],[54.01295,36.97311],[54.00371,36.98389],[54.00291,37.0015],[54.00397,37.02786],[53.99567,37.06277],[53.97751,37.11116],[53.95553,37.17097],[53.93578,37.2277],[53.92273,37.27589],[53.91526,37.32324],[53.90833,37.3792],[53.89827,37.4438],[53.88513,37.50096],[53.87241,37.54115],[53.86133,37.58031],[53.84689,37.65564],[53.82771,37.79093],[53.81349,37.9412],[53.8121,38.03912],[53.82103,38.09069],[53.83439,38.13902],[53.84678,38.19053],[53.85509,38.23326],[53.86006,38.27179],[53.86193,38.31605],[53.86025,38.3588],[53.85608,38.38652],[53.85081,38.40109],[53.846,38.41238],[53.8418,38.42834],[53.83617,38.45574],[53.83002,38.49496],[53.8286,38.54261],[53.83459,38.59458],[53.84794,38.64345],[53.87006,38.68801],[53.89584,38.73141],[53.91329,38.76934],[53.92103,38.79668],[53.92764,38.81594],[53.9357,38.83309],[53.94369,38.85079],[53.95256,38.86805],[53.96265,38.88454],[53.97109,38.89944],[53.97413,38.91049],[53.97155,38.91984],[53.96446,38.93178],[53.95113,38.94429],[53.93425,38.95284],[53.92237,38.95808],[53.91802,38.9631],[53.91584,38.96813],[53.91106,38.97192],[53.90404,38.97451],[53.89701,38.97707],[53.8905,38.98143],[53.88505,38.98863],[53.88121,38.99866],[53.87729,39.01153],[53.86887,39.02497],[53.85115,39.03463],[53.82618,39.03977],[53.80323,39.04252],[53.78754,39.04287],[53.77757,39.04028],[53.77116,39.03707],[53.76549,39.03734],[53.75647,39.04549],[53.74347,39.06462],[53.7304,39.08867],[53.72049,39.10292],[53.71489,39.1005],[53.71523,39.08789],[53.72073,39.0743],[53.7261,39.06535],[53.72513,39.06332],[53.7158,39.06861],[53.70397,39.08113],[53.69764,39.09985],[53.69665,39.12083],[53.69652,39.13871],[53.69893,39.15163],[53.7065,39.16161],[53.71205,39.17101],[53.71016,39.18388],[53.70803,39.20398],[53.70688,39.2233],[53.69678,39.22789],[53.67941,39.21782],[53.66884,39.19787],[53.67012,39.16323],[53.67324,39.12492],[53.66717,39.11044],[53.65248,39.12152],[53.63821,39.13939],[53.63018,39.15707],[53.62577,39.17439],[53.61928,39.18814],[53.61096,39.19809],[53.6061,39.20848],[53.60508,39.22102],[53.60296,39.23226],[53.59691,39.23599],[53.58758,39.22762],[53.57755,39.21327],[53.56964,39.20858],[53.56657,39.22341],[53.56926,39.25238],[53.57248,39.27967],[53.57256,39.29766],[53.5731,39.31217],[53.57332,39.32366],[53.5683,39.32852],[53.56171,39.3329],[53.55914,39.34181],[53.55602,39.34837],[53.54697,39.34634],[53.53526,39.34064],[53.52261,39.3374],[53.50351,39.33493],[53.47812,39.32996],[53.45644,39.32493],[53.44461,39.32572],[53.439,39.33156],[53.43365,39.33401],[53.42584,39.32922],[53.41563,39.32163],[53.40463,39.31635],[53.39657,39.31636],[53.39448,39.32286],[53.39507,39.33225],[53.39184,39.33841],[53.3842,39.34003],[53.3765,39.33947],[53.37054,39.33765],[53.36588,39.33528],[53.36249,39.33454],[53.35912,39.33704],[53.35356,39.34137],[53.34403,39.34339],[53.32944,39.34087],[53.31244,39.33674],[53.29951,39.33584],[53.29452,39.33946],[53.29477,39.34508],[53.29366,39.3498],[53.28722,39.35253],[53.27679,39.35444],[53.26474,39.35767],[53.25137,39.36216],[53.23402,39.36474],[53.20851,39.36214],[53.18119,39.35395],[53.16997,39.3427],[53.17726,39.33116],[53.18374,39.31889],[53.17942,39.3043],[53.17223,39.28825],[53.16957,39.27031],[53.17197,39.24697],[53.17561,39.21956],[53.175,39.19671],[53.16755,39.1931],[53.15472,39.22515],[53.13934,39.28412],[53.12133,39.33817],[53.10227,39.37446],[53.09122,39.39956],[53.09411,39.41819],[53.10707,39.43386],[53.12212,39.44845],[53.13258,39.46142],[53.13919,39.47345],[53.14799,39.48609],[53.16235,39.50418],[53.18308,39.53717],[53.21013,39.58439],[53.24182,39.62819],[53.27316,39.65272],[53.29205,39.65742],[53.28932,39.64961],[53.27199,39.63445],[53.25377,39.61528],[53.24137,39.59597],[53.23309,39.57922],[53.22498,39.56452],[53.22065,39.54913],[53.23471,39.53571],[53.28043,39.53147],[53.34815,39.53461],[53.40753,39.53536],[53.44079,39.52866],[53.45603,39.51646],[53.46727,39.50314],[53.48021,39.4922],[53.49622,39.4847],[53.51791,39.47975],[53.54308,39.47578],[53.56281,39.47284],[53.57281,39.47352],[53.57658,39.47907],[53.57776,39.4873],[53.57609,39.49494],[53.57101,39.5015],[53.56808,39.50994],[53.5741,39.51855],[53.5874,39.51924],[53.60238,39.51096],[53.61817,39.50355],[53.63726,39.50541],[53.65913,39.51408],[53.67971,39.52021],[53.69716,39.51921],[53.7119,39.51529],[53.72276,39.51473],[53.72832,39.51961],[53.72805,39.52801],[53.7216,39.53723],[53.70736,39.5456],[53.68366,39.55329],[53.65699,39.56129],[53.64156,39.56941],[53.64198,39.57691],[53.64797,39.58479],[53.64969,39.59509],[53.64469,39.60711],[53.63176,39.61653],[53.60984,39.62054],[53.58544,39.6224],[53.56962,39.62833],[53.56383,39.63963],[53.56095,39.65263],[53.55547,39.66457],[53.54646,39.67164],[53.53837,39.66725],[53.53555,39.65264],[53.53369,39.64222],[53.52322,39.64943],[53.50094,39.6709],[53.4745,39.69044],[53.45544,39.69657],[53.44921,39.69058],[53.45003,39.68241],[53.44751,39.68052],[53.43923,39.68238],[53.43242,39.67875],[53.43395,39.66627],[53.43941,39.6517],[53.43644,39.64663],[53.42488,39.66158],[53.41792,39.69724],[53.41781,39.73539],[53.41473,39.75559],[53.40579,39.75978],[53.3954,39.76131],[53.38905,39.76575],[53.39556,39.77626],[53.42105,39.79879],[53.45603,39.83035],[53.48119,39.85651],[53.48864,39.87067],[53.48696,39.87889],[53.48722,39.88562],[53.49366,39.89055],[53.50549,39.89363],[53.51915,39.896],[53.5292,39.89931],[53.53247,39.90433],[53.53099,39.91037],[53.53084,39.91743],[53.53739,39.92683],[53.54942,39.93869],[53.56077,39.95147],[53.56679,39.9618],[53.56726,39.96661],[53.56513,39.96687],[53.56223,39.96636],[53.55622,39.9685],[53.54329,39.97337],[53.52266,39.97738],[53.49841,39.98016],[53.47582,39.9858],[53.45618,39.99486],[53.43797,40.00299],[53.42001,40.00722],[53.40196,40.00731],[53.38255,40.00181],[53.35896,39.98831],[53.33352,39.97097],[53.31382,39.9584],[53.30113,39.95163],[53.29128,39.94694],[53.28238,39.94486],[53.27272,39.94701],[53.26128,39.95167],[53.24644,39.95842],[53.22158,39.97065],[53.18778,39.98472],[53.15841,39.98976],[53.13572,39.98479],[53.10802,39.97822],[53.07805,39.9759],[53.06237,39.97896],[53.06344,39.98514],[53.06638,39.99021],[53.05312,39.98993],[53.01939,39.98485],[52.98082,39.98299],[52.9515,39.99146],[52.93053,40.00583],[52.91327,40.01363],[52.90113,40.00926],[52.89885,39.99747],[52.90544,39.98274],[52.9141,39.9642],[52.92131,39.93903],[52.93006,39.91013],[52.94416,39.88512],[52.96319,39.86395],[52.98632,39.83875],[53.01314,39.80891],[53.0372,39.78472],[53.04777,39.7734],[53.04074,39.77295],[53.02821,39.77484],[53.02706,39.76881],[53.0335,39.75756],[53.03017,39.75513],[53.01284,39.76754],[52.99018,39.79169],[52.96842,39.82065],[52.94693,39.8446],[52.92502,39.86115],[52.90713,39.87788],[52.8964,39.90043],[52.88466,39.92809],[52.85546,39.9606],[52.80841,39.99667],[52.76662,40.03029],[52.74664,40.06079],[52.74462,40.091],[52.75059,40.11717],[52.75739,40.13707],[52.75918,40.15534],[52.75222,40.17527],[52.74235,40.19443],[52.73751,40.20976],[52.7323,40.22422],[52.71953,40.24507],[52.70789,40.28405],[52.71094,40.35413],[52.72798,40.44135],[52.7514,40.51183],[52.78236,40.56221],[52.81922,40.60956],[52.84792,40.65302],[52.85839,40.6833],[52.8528,40.69935],[52.83988,40.70706],[52.83029,40.71393],[52.82887,40.72372],[52.8314,40.73415],[52.83321,40.74184],[52.83654,40.74762],[52.84523,40.75294],[52.85615,40.75698],[52.86333,40.76059],[52.86552,40.76651],[52.86453,40.77484],[52.86357,40.78759],[52.86961,40.81651],[52.88735,40.868],[52.90828,40.92838],[52.91855,40.98449],[52.9184,41.03354],[52.92066,41.06653],[52.93202,41.07615],[52.94653,41.07028],[52.95622,41.05992],[52.95954,41.0491],[52.95883,41.03815],[52.95739,41.02641],[52.96136,41.01098],[52.97634,40.98835],[52.99794,40.96037],[53.01612,40.93227],[53.03063,40.90742],[53.04731,40.88826],[53.06521,40.87602],[53.08112,40.87005],[53.09566,40.86883],[53.10703,40.86939],[53.10936,40.86761],[53.09965,40.86163],[53.08328,40.8528],[53.07162,40.84229],[53.07187,40.83157],[53.08115,40.82231],[53.0915,40.81344],[53.09775,40.80376],[53.10069,40.7939],[53.10422,40.78475],[53.11288,40.77752],[53.1308,40.77308],[53.156,40.77156],[53.18238,40.77524],[53.20972,40.78735],[53.23575,40.8019],[53.24959,40.8049],[53.24978,40.79374],[53.25315,40.78084],[53.27532,40.77592],[53.30811,40.77829],[53.33025,40.78447],[53.33719,40.79339],[53.3398,40.8045],[53.34588,40.81667],[53.35667,40.82746],[53.36897,40.83295],[53.37708,40.83087],[53.378,40.82219],[53.37545,40.80935],[53.37658,40.79459],[53.38554,40.77955],[53.40136,40.76651],[53.41992,40.75738],[53.4368,40.75155],[53.45026,40.7466],[53.46149,40.74192],[53.47171,40.73952],[53.48148,40.74062],[53.49337,40.74511],[53.51102,40.75297],[53.53189,40.76389],[53.54758,40.77919],[53.55468,40.80177],[53.55864,40.83007],[53.56672,40.85831],[53.57973,40.88063],[53.59319,40.89247],[53.60504,40.89485],[53.61563,40.89247],[53.62398,40.88748],[53.62969,40.88136],[53.63508,40.87649],[53.64232,40.87311],[53.64943,40.8694],[53.65303,40.8646],[53.65298,40.85935],[53.65102,40.85415],[53.64895,40.84814],[53.64904,40.83901],[53.6526,40.82716],[53.658,40.81651],[53.66103,40.80794],[53.65893,40.79948],[53.65434,40.79044],[53.65351,40.77799],[53.66042,40.7576],[53.67332,40.73276],[53.68776,40.71425],[53.70052,40.70597],[53.71004,40.7017],[53.71599,40.6959],[53.71792,40.68774],[53.71471,40.6767],[53.70965,40.66251],[53.71234,40.64738],[53.73054,40.63585],[53.76431,40.6313],[53.80714,40.63171],[53.84699,40.63475],[53.87632,40.6427],[53.90112,40.65567],[53.92594,40.66774],[53.94673,40.67312],[53.96498,40.67118],[53.98598,40.66625],[54.00835,40.66395],[54.02968,40.66656],[54.05103,40.67213],[54.07039,40.67826],[54.08299,40.68436],[54.0887,40.69053],[54.08912,40.69659],[54.08233,40.70297],[54.0733,40.70964],[54.07886,40.71469],[54.10522,40.71801],[54.14111,40.72239],[54.1786,40.72731],[54.21068,40.72866],[54.22604,40.72436],[54.2254,40.7145],[54.22031,40.70215],[54.22048,40.69266],[54.23931,40.68664],[54.28902,40.6821],[54.3473,40.68075],[54.37439,40.68417],[54.37557,40.69144],[54.38433,40.7013],[54.39933,40.71156],[54.39111,40.71915],[54.35699,40.72307],[54.32562,40.72687],[54.31092,40.7359],[54.30387,40.75173],[54.29578,40.77255],[54.28529,40.79612],[54.27529,40.81854],[54.26833,40.83567],[54.26528,40.84705],[54.26591,40.85477],[54.26823,40.86056],[54.26978,40.86568],[54.26889,40.87062],[54.26444,40.87414],[54.25672,40.8758],[54.2492,40.87864],[54.24649,40.8845],[54.24994,40.89031],[54.257,40.89327],[54.26566,40.8957],[54.27762,40.90245],[54.29407,40.91358],[54.31347,40.92263],[54.33799,40.92245],[54.37166,40.91065],[54.40876,40.89325],[54.43796,40.87812],[54.45461,40.86515],[54.45832,40.85104],[54.45372,40.83569],[54.46102,40.82339],[54.50146,40.82069],[54.56272,40.82737],[54.61122,40.83687],[54.63919,40.84789],[54.66266,40.86232],[54.68837,40.87903],[54.71317,40.89958],[54.73446,40.92456],[54.74849,40.9474],[54.75307,40.96491],[54.75096,40.97913],[54.74538,40.99063]]]}}]}