{"type":"FeatureCollection","meta":{"year":2023,"level_m":-28.94,"reference_year":2015,"reference_level_m":-27.85,"status":"semi","model":"cross-shore translation: retreat = Δlevel / tan(β)","source_id":"model","projected":false},"features":[{"type":"Feature","properties":{"year":2023,"level_m":-28.94},"geometry":{"type":"Polygon","coordinates":[[[54.73403,41.00309],[54.71551,41.02309],[54.69452,41.04588],[54.68267,41.0619],[54.68606,41.0684],[54.70323,41.06583],[54.72827,41.05632],[54.74847,41.04776],[54.75173,41.04743],[54.74162,41.05428],[54.73012,41.06328],[54.72214,41.0717],[54.71741,41.07903],[54.71582,41.08581],[54.71751,41.09266],[54.7218,41.09819],[54.7253,41.10102],[54.72227,41.1043],[54.70914,41.11183],[54.68727,41.12092],[54.66231,41.12898],[54.64056,41.14122],[54.61034,41.16795],[54.54051,41.21761],[54.43475,41.27926],[54.34341,41.32601],[54.28967,41.35178],[54.25243,41.37121],[54.21913,41.38936],[54.19554,41.40322],[54.18135,41.41551],[54.16881,41.43081],[54.15414,41.44732],[54.13591,41.45978],[54.1133,41.46791],[54.09077,41.47617],[54.07237,41.48871],[54.05636,41.50836],[54.04154,41.53634],[54.03041,41.57385],[54.02426,41.62338],[54.02018,41.67894],[54.01387,41.72673],[54.00124,41.7653],[53.97966,41.8042],[53.95487,41.84219],[53.93759,41.86855],[53.92869,41.88153],[53.92099,41.88766],[53.91157,41.89155],[53.90305,41.89657],[53.89887,41.90482],[53.89968,41.91481],[53.90287,41.92442],[53.90504,41.93379],[53.90446,41.9448],[53.90292,41.95893],[53.90421,41.97555],[53.90856,41.9925],[53.91191,42.00851],[53.91179,42.02488],[53.90846,42.04273],[53.901,42.06104],[53.8851,42.07978],[53.85618,42.09985],[53.81557,42.11827],[53.77014,42.13],[53.70874,42.13378],[53.59815,42.12792],[53.45347,42.11129],[53.34237,42.09337],[53.27885,42.08593],[53.2251,42.08931],[53.17039,42.09299],[53.12404,42.08573],[53.08303,42.06512],[53.03527,42.03338],[52.97612,41.98493],[52.91063,41.90873],[52.8499,41.82072],[52.80903,41.76106],[52.7896,41.73663],[52.7795,41.72116],[52.77252,41.70094],[52.76998,41.68046],[52.77485,41.66951],[52.789,41.6741],[52.8114,41.68794],[52.84031,41.69747],[52.8714,41.69615],[52.89568,41.68679],[52.90713,41.67381],[52.90685,41.65918],[52.90057,41.64414],[52.89566,41.6301],[52.89533,41.61635],[52.89713,41.60153],[52.89366,41.57841],[52.87592,41.53288],[52.84811,41.47168],[52.82601,41.42281],[52.81526,41.39582],[52.8121,41.37939],[52.81512,41.36225],[52.82285,41.33539],[52.83176,41.29626],[52.84266,41.25127],[52.86133,41.20457],[52.88444,41.15975],[52.89749,41.12502],[52.89483,41.09964],[52.88572,41.07714],[52.87912,41.06083],[52.87417,41.05618],[52.86657,41.06108],[52.8567,41.06981],[52.84875,41.08033],[52.84621,41.09595],[52.8477,41.11768],[52.8483,41.14086],[52.84517,41.16192],[52.83895,41.18036],[52.83143,41.19508],[52.82358,41.20572],[52.81606,41.21434],[52.81068,41.22378],[52.80858,41.23593],[52.80728,41.25256],[52.80213,41.27671],[52.79286,41.3049],[52.78266,41.32801],[52.77157,41.3475],[52.75899,41.36789],[52.74623,41.38343],[52.73396,41.39086],[52.72367,41.39626],[52.71743,41.40474],[52.71434,41.41507],[52.71111,41.42459],[52.70495,41.43381],[52.69431,41.44329],[52.67888,41.45073],[52.65967,41.4568],[52.63789,41.46769],[52.61545,41.48477],[52.59516,41.5006],[52.57803,41.51205],[52.56548,41.52394],[52.5612,41.53841],[52.56628,41.55406],[52.57565,41.56966],[52.58239,41.58387],[52.58465,41.59764],[52.58549,41.61172],[52.58745,41.62376],[52.58999,41.63258],[52.59108,41.63926],[52.59027,41.64493],[52.58801,41.64966],[52.5837,41.65364],[52.57736,41.65978],[52.57073,41.66964],[52.56519,41.67987],[52.55927,41.68697],[52.55033,41.69017],[52.53882,41.69119],[52.52804,41.69391],[52.51968,41.70016],[52.51144,41.70813],[52.50042,41.71654],[52.48686,41.72483],[52.47132,41.732],[52.45449,41.7398],[52.44138,41.75213],[52.43915,41.77333],[52.45066,41.80841],[52.46871,41.8546],[52.47988,41.89932],[52.47877,41.93395],[52.47019,41.95814],[52.45962,41.9738],[52.44937,41.9838],[52.44015,41.99197],[52.43337,42.00298],[52.43095,42.02007],[52.43164,42.03985],[52.42977,42.05647],[52.42143,42.07158],[52.41243,42.08918],[52.41159,42.10804],[52.41757,42.12665],[52.42372,42.14534],[52.42912,42.16314],[52.43734,42.17785],[52.4502,42.18831],[52.46792,42.19986],[52.49459,42.22563],[52.53177,42.2685],[52.56714,42.30978],[52.58741,42.33389],[52.59457,42.3468],[52.59669,42.35972],[52.59761,42.37446],[52.60082,42.38842],[52.6106,42.40211],[52.62506,42.41612],[52.63652,42.42854],[52.64193,42.4398],[52.64531,42.4533],[52.65149,42.47352],[52.66087,42.503],[52.66818,42.53836],[52.66719,42.57537],[52.65586,42.61279],[52.63598,42.64735],[52.61032,42.67531],[52.58488,42.69834],[52.56912,42.71935],[52.56672,42.73547],[52.57234,42.74081],[52.58007,42.73344],[52.58913,42.71768],[52.60107,42.70139],[52.61611,42.68945],[52.63406,42.6799],[52.65182,42.66987],[52.66328,42.66056],[52.66801,42.65349],[52.6716,42.64672],[52.67813,42.63459],[52.68779,42.61578],[52.69864,42.59918],[52.70925,42.59368],[52.71949,42.60046],[52.72912,42.61643],[52.73614,42.63822],[52.73681,42.66527],[52.72717,42.69603],[52.70489,42.72297],[52.67308,42.74108],[52.64052,42.75577],[52.60566,42.77459],[52.55087,42.79714],[52.47391,42.8166],[52.40359,42.82776],[52.36305,42.83112],[52.34459,42.82976],[52.33228,42.82567],[52.32137,42.8193],[52.31221,42.81024],[52.30334,42.80047],[52.28799,42.79937],[52.25714,42.8178],[52.21441,42.85014],[52.17112,42.87572],[52.1232,42.88309],[52.06333,42.87583],[52.00435,42.86118],[51.96164,42.84695],[51.93114,42.84291],[51.89977,42.85639],[51.86605,42.8831],[51.83823,42.91144],[51.81831,42.93589],[51.80301,42.9577],[51.79081,42.98052],[51.77798,43.00677],[51.75832,43.03536],[51.73336,43.06253],[51.71215,43.08205],[51.69735,43.09141],[51.68547,43.09605],[51.67636,43.10234],[51.67216,43.11145],[51.67309,43.12123],[51.67635,43.13128],[51.67763,43.14384],[51.6737,43.15963],[51.66266,43.17411],[51.64139,43.18081],[51.60881,43.17966],[51.57343,43.17634],[51.54716,43.17326],[51.53265,43.16902],[51.52454,43.16325],[51.51715,43.1578],[51.50668,43.15558],[51.49202,43.1579],[51.47065,43.16165],[51.43087,43.16145],[51.3678,43.15793],[51.30571,43.15881],[51.27434,43.17322],[51.27587,43.20795],[51.29238,43.2638],[51.30691,43.33535],[51.31114,43.40782],[51.30355,43.46255],[51.28969,43.49576],[51.27918,43.51586],[51.27483,43.53096],[51.2721,43.54535],[51.26467,43.5593],[51.24803,43.5741],[51.22697,43.5911],[51.21178,43.60734],[51.20383,43.61828],[51.19679,43.62218],[51.18721,43.62156],[51.17583,43.62066],[51.16425,43.6219],[51.15182,43.62718],[51.13098,43.64696],[51.09314,43.69586],[51.04866,43.76143],[51.01983,43.80987],[51.00963,43.83253],[51.00516,43.84407],[50.99981,43.85282],[50.99459,43.86037],[50.99197,43.86889],[50.99211,43.88066],[50.9917,43.89461],[50.98652,43.90787],[50.97445,43.92085],[50.95877,43.9348],[50.94528,43.94941],[50.93413,43.96531],[50.9224,43.9823],[50.91065,43.99733],[50.89939,44.00764],[50.88649,44.01401],[50.87224,44.01967],[50.86085,44.02732],[50.85569,44.03702],[50.85634,44.04715],[50.85928,44.06205],[50.86027,44.09197],[50.85731,44.13323],[50.85032,44.16796],[50.83707,44.19163],[50.8105,44.21317],[50.74586,44.23822],[50.61188,44.26826],[50.44353,44.29867],[50.32619,44.32137],[50.27771,44.3368],[50.25614,44.35191],[50.24198,44.37163],[50.23664,44.3982],[50.23699,44.42848],[50.23737,44.45452],[50.23643,44.4729],[50.23456,44.48842],[50.23099,44.50847],[50.22814,44.53487],[50.2305,44.5589],[50.23955,44.56931],[50.25326,44.57012],[50.26814,44.57683],[50.28219,44.59189],[50.29496,44.60589],[50.30486,44.61713],[50.31038,44.62906],[50.31266,44.64003],[50.31365,44.64675],[50.31391,44.64901],[50.31545,44.64757],[50.3315,44.6419],[50.38307,44.6319],[50.46418,44.62237],[50.53776,44.62015],[50.58222,44.62335],[50.60527,44.62323],[50.62594,44.61746],[50.66042,44.61095],[50.70292,44.60572],[50.7359,44.60085],[50.75818,44.59928],[50.77586,44.60434],[50.7875,44.61296],[50.79228,44.61928],[50.79694,44.62152],[50.81189,44.6213],[50.83786,44.61956],[50.86557,44.61545],[50.89335,44.60667],[50.92383,44.59211],[50.95163,44.57671],[50.97282,44.56776],[50.98924,44.56502],[51.00086,44.56251],[51.00655,44.55747],[51.0061,44.55163],[51.00139,44.54632],[51.00036,44.53925],[51.01469,44.52725],[51.05028,44.51079],[51.09772,44.49521],[51.1401,44.48665],[51.17281,44.48621],[51.20274,44.49291],[51.23452,44.50766],[51.26308,44.52587],[51.27954,44.53843],[51.28525,44.54403],[51.28868,44.54731],[51.29464,44.54988],[51.30556,44.55115],[51.32216,44.55196],[51.34213,44.55394],[51.36053,44.55482],[51.37315,44.54826],[51.38718,44.53554],[51.41886,44.52595],[51.4698,44.52054],[51.52038,44.51572],[51.55259,44.51594],[51.56452,44.5244],[51.56236,44.53654],[51.54921,44.54898],[51.52199,44.56325],[51.48214,44.57955],[51.44227,44.59203],[51.40714,44.59564],[51.36782,44.59504],[51.32278,44.60282],[51.28081,44.62952],[51.24686,44.66968],[51.21521,44.70673],[51.17575,44.73537],[51.13327,44.75858],[51.10483,44.77423],[51.09199,44.78176],[51.07984,44.78556],[51.06144,44.78946],[51.04366,44.79495],[51.02842,44.80295],[51.00574,44.81645],[50.97767,44.83705],[50.96397,44.86078],[50.96992,44.88176],[50.98162,44.89649],[50.99185,44.90577],[50.99903,44.9141],[50.99716,44.92355],[50.98707,44.93129],[50.97777,44.9352],[50.97029,44.93704],[50.96132,44.94046],[50.95687,44.94826],[50.96283,44.9593],[50.97579,44.96963],[50.9921,44.97725],[51.01088,44.98208],[51.03093,44.98415],[51.05166,44.98532],[51.07156,44.98893],[51.08807,44.99627],[51.10058,45.00587],[51.11226,45.01605],[51.12953,45.02718],[51.15342,45.03891],[51.1759,45.04759],[51.19171,45.04966],[51.20499,45.04399],[51.22263,45.03251],[51.24506,45.02277],[51.26203,45.02378],[51.26462,45.03615],[51.25663,45.05295],[51.24556,45.06946],[51.23775,45.08484],[51.24118,45.09837],[51.255,45.11002],[51.26554,45.12083],[51.26195,45.13094],[51.25015,45.14053],[51.2464,45.15051],[51.25535,45.16105],[51.26894,45.17388],[51.2844,45.19226],[51.30127,45.21446],[51.3196,45.23821],[51.34873,45.26958],[51.38716,45.30876],[51.41491,45.34262],[51.42383,45.36351],[51.42433,45.37098],[51.43058,45.36312],[51.45381,45.3451],[51.49498,45.33056],[51.54512,45.32819],[51.59394,45.33736],[51.63354,45.3532],[51.65982,45.36791],[51.6767,45.37578],[51.69306,45.38035],[51.71146,45.38933],[51.72816,45.40464],[51.74124,45.42171],[51.75062,45.43474],[51.75618,45.44011],[51.76006,45.43715],[51.76585,45.42746],[51.7796,45.41324],[51.80978,45.39817],[51.85078,45.38607],[51.88571,45.37594],[51.91267,45.36618],[51.93984,45.36148],[51.9678,45.36594],[51.99219,45.37479],[52.01263,45.37982],[52.03553,45.37841],[52.08202,45.37571],[52.18356,45.37875],[52.32377,45.38632],[52.43909,45.39144],[52.5171,45.38893],[52.60208,45.37372],[52.7086,45.34855],[52.80517,45.32572],[52.87259,45.3117],[52.92733,45.30571],[52.9817,45.30402],[53.03027,45.30045],[53.0714,45.29435],[53.10768,45.29222],[53.14082,45.29767],[53.17102,45.30678],[53.19483,45.31455],[53.21007,45.32064],[53.21848,45.32525],[53.22526,45.32644],[53.23577,45.325],[53.24933,45.32496],[53.26028,45.32937],[53.2628,45.33809],[53.25718,45.3475],[53.24366,45.35459],[53.21203,45.36155],[53.16594,45.37086],[53.13078,45.3804],[53.11629,45.38744],[53.10957,45.39173],[53.09656,45.39499],[53.06412,45.40208],[53.00499,45.41824],[52.93679,45.43913],[52.88825,45.45519],[52.8633,45.46628],[52.8493,45.47598],[52.83894,45.48269],[52.82298,45.48704],[52.79322,45.49411],[52.75808,45.50629],[52.73414,45.52085],[52.72474,45.53353],[52.72109,45.5436],[52.71893,45.55396],[52.72006,45.56516],[52.72313,45.57423],[52.72436,45.58069],[52.72334,45.58863],[52.72273,45.60229],[52.72673,45.62022],[52.7401,45.63484],[52.76162,45.64229],[52.78202,45.64876],[52.79523,45.66262],[52.80942,45.68639],[52.8347,45.71697],[52.86365,45.74599],[52.88443,45.76468],[52.8998,45.77378],[52.91758,45.78223],[52.93755,45.79808],[52.95278,45.82351],[52.96346,45.85372],[52.9816,45.88076],[53.01024,45.90098],[53.03457,45.91705],[53.04234,45.9329],[53.04127,45.94948],[53.04758,45.96574],[53.06032,45.98298],[53.06724,46.00236],[53.06728,46.01909],[53.06561,46.02916],[53.06588,46.03625],[53.07459,46.0459],[53.09177,46.06008],[53.10386,46.07838],[53.10466,46.10135],[53.1034,46.13724],[53.104,46.19505],[53.10162,46.26483],[53.0919,46.32599],[53.06988,46.37223],[53.03841,46.40792],[53.01803,46.42947],[53.02653,46.43108],[53.05357,46.42151],[53.07014,46.41747],[53.06169,46.42585],[53.04132,46.44406],[53.02735,46.46681],[53.02917,46.48355],[53.04848,46.48508],[53.06807,46.47421],[53.0599,46.46099],[53.01977,46.458],[52.98177,46.47328],[52.9872,46.49868],[53.02474,46.52099],[53.04107,46.53356],[53.03239,46.53177],[53.04351,46.52127],[53.07607,46.52039],[53.08727,46.53965],[53.07075,46.56924],[53.06229,46.58814],[53.07725,46.58872],[53.10893,46.58561],[53.14842,46.59147],[53.17453,46.60099],[53.17573,46.60425],[53.1697,46.60112],[53.17759,46.59856],[53.19385,46.60353],[53.19289,46.62011],[53.17142,46.64366],[53.1537,46.66475],[53.14887,46.67958],[53.1448,46.68797],[53.13111,46.69235],[53.10501,46.70032],[53.07424,46.71886],[53.05198,46.74921],[53.03934,46.78854],[53.02799,46.82858],[53.01939,46.85627],[53.02067,46.86541],[53.02182,46.86277],[53.00386,46.86091],[52.96779,46.86962],[52.93152,46.8894],[52.9084,46.90907],[52.89138,46.9171],[52.85604,46.9147],[52.79193,46.91061],[52.71202,46.90998],[52.63518,46.91349],[52.57572,46.92211],[52.53633,46.93603],[52.51052,46.94956],[52.48983,46.95736],[52.47319,46.96164],[52.46148,46.96677],[52.43856,46.97176],[52.40684,46.96888],[52.40152,46.95062],[52.41763,46.91948],[52.40866,46.88598],[52.35918,46.85876],[52.2904,46.84242],[52.23222,46.83924],[52.20074,46.84658],[52.1798,46.85732],[52.15555,46.86051],[52.14677,46.84879],[52.16201,46.83096],[52.17941,46.82088],[52.18462,46.81947],[52.18373,46.81959],[52.1843,46.81762],[52.18943,46.81261],[52.19484,46.80074],[52.17777,46.78536],[52.12811,46.77934],[52.07554,46.78574],[52.04366,46.79774],[52.02636,46.81218],[52.01833,46.82466],[52.01953,46.82826],[52.01938,46.82733],[52.00641,46.83327],[51.98548,46.84628],[51.96665,46.86155],[51.95921,46.87834],[51.97836,46.89036],[52.01281,46.8952],[52.021,46.90262],[52.00176,46.91172],[51.99625,46.9125],[52.01139,46.90567],[52.01667,46.89189],[51.99434,46.87035],[51.95149,46.85183],[51.90922,46.84815],[51.89151,46.86039],[51.89742,46.88029],[51.89698,46.89586],[51.88218,46.90096],[51.87106,46.89738],[51.85734,46.88867],[51.824,46.87963],[51.77887,46.87734],[51.73869,46.88476],[51.70799,46.89834],[51.68044,46.91665],[51.66055,46.94328],[51.66488,46.97653],[51.6775,47.0055],[51.67022,47.02105],[51.65999,47.02476],[51.66693,47.02433],[51.67758,47.02214],[51.67883,47.01262],[51.6653,46.99304],[51.62967,46.97337],[51.57814,46.96995],[51.53278,46.98612],[51.50644,47.00694],[51.49066,47.01931],[51.46615,47.02573],[51.41787,47.03427],[51.34504,47.0479],[51.26902,47.06383],[51.21976,47.0748],[51.19469,47.07372],[51.15943,47.0608],[51.09727,47.04353],[51.03148,47.02887],[50.9872,47.01575],[50.95342,47.00113],[50.91187,46.99128],[50.87191,46.9925],[50.85358,46.99896],[50.86068,47.00397],[50.87112,47.00853],[50.8627,47.01293],[50.8536,47.01348],[50.86203,47.00156],[50.85362,46.96662],[50.80231,46.92113],[50.74402,46.89821],[50.72936,46.90523],[50.75282,46.92253],[50.76195,46.93838],[50.74827,46.94682],[50.74656,46.94327],[50.75175,46.93131],[50.73496,46.91559],[50.69709,46.9013],[50.65968,46.89543],[50.64364,46.89917],[50.6507,46.9033],[50.66071,46.89375],[50.65899,46.86809],[50.64466,46.83822],[50.62174,46.81661],[50.6045,46.81167],[50.60595,46.8225],[50.61319,46.83758],[50.60183,46.84703],[50.5748,46.84804],[50.55523,46.84403],[50.54789,46.8402],[50.53822,46.83761],[50.51572,46.83796],[50.48532,46.84471],[50.45873,46.8561],[50.44097,46.86623],[50.43338,46.87158],[50.43636,46.87375],[50.44458,46.87539],[50.44801,46.87191],[50.43683,46.85289],[50.41252,46.82293],[50.39061,46.80716],[50.37841,46.8163],[50.37342,46.83051],[50.37682,46.83214],[50.3815,46.82379],[50.37672,46.81206],[50.36246,46.79992],[50.34455,46.79087],[50.33103,46.78677],[50.32587,46.78583],[50.3226,46.78223],[50.30972,46.76664],[50.28122,46.73966],[50.24645,46.719],[50.22819,46.71763],[50.23099,46.72922],[50.22938,46.74104],[50.21565,46.74597],[50.20781,46.74397],[50.20055,46.73504],[50.17173,46.71271],[50.12579,46.67728],[50.08429,46.64313],[50.0508,46.62094],[50.01833,46.61032],[49.9925,46.60727],[49.98026,46.60643],[49.97394,46.60228],[49.96213,46.59304],[49.94295,46.58143],[49.92056,46.57015],[49.89615,46.56075],[49.87197,46.55604],[49.85722,46.55614],[49.85319,46.55387],[49.84403,46.54334],[49.81753,46.53239],[49.78443,46.53233],[49.76692,46.54008],[49.77191,46.54628],[49.78438,46.54549],[49.78424,46.53558],[49.76359,46.52463],[49.73311,46.52423],[49.7126,46.5319],[49.71164,46.53899],[49.72271,46.54306],[49.72932,46.54031],[49.71439,46.53103],[49.67795,46.53073],[49.64756,46.54588],[49.6434,46.55732],[49.64924,46.54836],[49.64283,46.52669],[49.62868,46.51003],[49.61746,46.50208],[49.59949,46.49668],[49.5704,46.49644],[49.54368,46.50455],[49.51848,46.51518],[49.49118,46.52746],[49.48162,46.54707],[49.49628,46.56879],[49.50652,46.57585],[49.48994,46.56225],[49.46112,46.53976],[49.45211,46.51952],[49.47142,46.50284],[49.49088,46.4884],[49.48533,46.478],[49.46406,46.47533],[49.44871,46.48157],[49.45445,46.49405],[49.47959,46.50848],[49.49607,46.52055],[49.48058,46.52575],[49.44628,46.52445],[49.42661,46.52361],[49.43494,46.52731],[49.4511,46.53112],[49.44783,46.52765],[49.41871,46.51921],[49.37644,46.51772],[49.33807,46.52787],[49.31611,46.54221],[49.30872,46.54684],[49.31705,46.53144],[49.34978,46.50257],[49.37998,46.47622],[49.37184,46.46074],[49.33802,46.45748],[49.30625,46.46525],[49.2848,46.47869],[49.2756,46.48982],[49.27501,46.49483],[49.27012,46.49652],[49.26392,46.49707],[49.27472,46.49282],[49.29189,46.47829],[49.29676,46.45507],[49.30859,46.43354],[49.34561,46.42205],[49.38874,46.41701],[49.40889,46.40727],[49.39415,46.39049],[49.35333,46.37963],[49.30821,46.38524],[49.27526,46.40156],[49.25506,46.41821],[49.24341,46.43034],[49.23903,46.43651],[49.2371,46.43861],[49.22897,46.43965],[49.2209,46.44134],[49.23446,46.44442],[49.26211,46.44389],[49.26832,46.43095],[49.25782,46.40709],[49.26475,46.38411],[49.28001,46.36954],[49.27042,46.36455],[49.23588,46.3686],[49.20447,46.37789],[49.19156,46.38715],[49.18011,46.39066],[49.16192,46.38378],[49.15697,46.37112],[49.16732,46.36257],[49.18087,46.3611],[49.20526,46.36188],[49.24048,46.35835],[49.26518,46.34928],[49.26733,46.33827],[49.2496,46.32433],[49.23008,46.30306],[49.23773,46.2791],[49.27598,46.26211],[49.31105,46.24968],[49.31002,46.23588],[49.27865,46.2277],[49.24648,46.23041],[49.22606,46.23707],[49.20633,46.2432],[49.18092,46.25359],[49.16813,46.27302],[49.17714,46.2954],[49.18304,46.30821],[49.17366,46.3082],[49.16149,46.29969],[49.14684,46.28668],[49.13032,46.27617],[49.12157,46.27026],[49.11734,46.26247],[49.10669,46.2518],[49.086,46.24135],[49.06638,46.2315],[49.06694,46.22505],[49.09383,46.2198],[49.12818,46.20177],[49.13628,46.16864],[49.1089,46.14303],[49.07202,46.14151],[49.04836,46.15415],[49.04184,46.16427],[49.04848,46.16727],[49.05956,46.16733],[49.06458,46.16551],[49.0572,46.15917],[49.03849,46.14941],[49.01405,46.13858],[48.99109,46.12993],[48.97364,46.12719],[48.96036,46.12376],[48.95895,46.11217],[48.97325,46.09729],[48.98034,46.0828],[48.96736,46.07129],[48.95576,46.07341],[48.95395,46.09105],[48.9371,46.10958],[48.90302,46.11926],[48.88613,46.12468],[48.89866,46.13078],[48.91734,46.13107],[48.91787,46.11775],[48.89209,46.10235],[48.85508,46.10204],[48.8355,46.11363],[48.8396,46.12501],[48.84839,46.12786],[48.86092,46.11811],[48.88218,46.09855],[48.8843,46.07632],[48.85778,46.0663],[48.83681,46.07845],[48.83143,46.09862],[48.82393,46.10931],[48.8165,46.10791],[48.82457,46.09737],[48.84616,46.08077],[48.85506,46.06032],[48.83874,46.04462],[48.82327,46.0474],[48.82203,46.06514],[48.8069,46.0792],[48.76774,46.08455],[48.73502,46.08901],[48.72269,46.09285],[48.71072,46.09261],[48.69225,46.09141],[48.68692,46.0928],[48.69857,46.09501],[48.70905,46.09589],[48.71102,46.09406],[48.70551,46.08576],[48.69027,46.07214],[48.6689,46.06145],[48.65061,46.056],[48.64292,46.05123],[48.64759,46.04501],[48.65974,46.0353],[48.67858,46.02249],[48.70928,46.01259],[48.74178,46.00472],[48.75353,45.99229],[48.74164,45.97715],[48.72259,45.96582],[48.70741,45.95969],[48.69744,45.95731],[48.68733,45.95793],[48.67024,45.95618],[48.6578,45.94711],[48.66761,45.93817],[48.68989,45.93679],[48.70713,45.93914],[48.72142,45.94219],[48.74408,45.94556],[48.77285,45.94354],[48.78959,45.93379],[48.78561,45.9223],[48.77008,45.91205],[48.76405,45.9044],[48.77475,45.8986],[48.78219,45.88284],[48.7819,45.85484],[48.78221,45.83195],[48.77826,45.82268],[48.77046,45.81861],[48.76192,45.81488],[48.75336,45.81288],[48.74132,45.80905],[48.71932,45.80643],[48.70448,45.81743],[48.71496,45.83923],[48.73136,45.85663],[48.7249,45.86237],[48.69335,45.86125],[48.65697,45.86391],[48.63381,45.87157],[48.6254,45.87659],[48.62349,45.87763],[48.62417,45.88088],[48.63374,45.8934],[48.64637,45.91163],[48.63596,45.92276],[48.6004,45.92656],[48.57107,45.93183],[48.5631,45.93647],[48.56259,45.93528],[48.55725,45.93014],[48.54486,45.92308],[48.52402,45.9151],[48.50055,45.90995],[48.48775,45.9095],[48.48669,45.9099],[48.48315,45.90446],[48.46649,45.88849],[48.43746,45.86602],[48.40507,45.84932],[48.38501,45.84577],[48.3809,45.85003],[48.37449,45.85003],[48.36326,45.84024],[48.37035,45.82911],[48.39801,45.82437],[48.41173,45.82043],[48.38545,45.8135],[48.34361,45.81053],[48.32464,45.81408],[48.3269,45.81614],[48.32977,45.80892],[48.32581,45.7927],[48.31414,45.77339],[48.29444,45.75648],[48.27084,45.74482],[48.25332,45.74052],[48.25073,45.74497],[48.25916,45.75342],[48.26709,45.75759],[48.2719,45.75479],[48.27486,45.74345],[48.26642,45.72212],[48.23793,45.70235],[48.20113,45.69843],[48.17368,45.70427],[48.15137,45.70657],[48.12131,45.70762],[48.09398,45.71327],[48.08517,45.718],[48.0836,45.71501],[48.07313,45.70621],[48.0597,45.69882],[48.05301,45.69544],[48.04443,45.69134],[48.02407,45.68899],[48.00311,45.6972],[47.98789,45.70815],[47.96913,45.70869],[47.95281,45.70404],[47.9506,45.70198],[47.95929,45.70124],[47.97019,45.7007],[47.97407,45.69948],[47.96757,45.69664],[47.95705,45.69264],[47.94702,45.68856],[47.938,45.69091],[47.92719,45.70199],[47.90617,45.70843],[47.88202,45.70344],[47.8751,45.69832],[47.88323,45.6979],[47.88922,45.69226],[47.88753,45.67787],[47.88302,45.66542],[47.88264,45.65836],[47.88601,45.64569],[47.88465,45.62483],[47.87132,45.6057],[47.84504,45.59895],[47.8197,45.61422],[47.81073,45.64637],[47.80642,45.67256],[47.78429,45.67899],[47.75057,45.67585],[47.72898,45.6811],[47.71779,45.69128],[47.70646,45.69079],[47.70589,45.68361],[47.7162,45.68026],[47.71781,45.67844],[47.70429,45.67512],[47.68574,45.67288],[47.67023,45.67333],[47.66045,45.67906],[47.6634,45.69477],[47.6791,45.71607],[47.69123,45.7328],[47.68585,45.74246],[47.65962,45.74399],[47.62327,45.73822],[47.59648,45.73387],[47.58369,45.73515],[47.57925,45.73928],[47.58303,45.74555],[47.58948,45.74948],[47.58862,45.74159],[47.58262,45.72523],[47.58268,45.71726],[47.5966,45.72401],[47.61617,45.73137],[47.61871,45.72302],[47.60378,45.7034],[47.59925,45.69083],[47.61921,45.69213],[47.6483,45.69734],[47.6659,45.6964],[47.66984,45.68892],[47.66674,45.67576],[47.6566,45.65864],[47.64451,45.64707],[47.64144,45.64916],[47.64688,45.65926],[47.65245,45.66376],[47.65168,45.65569],[47.64549,45.63909],[47.64763,45.62395],[47.65821,45.61267],[47.65902,45.59773],[47.6511,45.57932],[47.64306,45.56639],[47.6338,45.56641],[47.62875,45.58354],[47.62204,45.61129],[47.59255,45.63319],[47.54716,45.64059],[47.50966,45.64014],[47.47916,45.64226],[47.44941,45.65024],[47.42997,45.66136],[47.4333,45.67288],[47.45515,45.68243],[47.47242,45.68727],[47.47795,45.68811],[47.48613,45.68935],[47.48898,45.69344],[47.46856,45.70251],[47.44109,45.71899],[47.42392,45.73254],[47.41161,45.73151],[47.40723,45.72604],[47.41383,45.72942],[47.422,45.73819],[47.43041,45.74099],[47.44276,45.73127],[47.45371,45.71526],[47.45798,45.70452],[47.45434,45.6986],[47.44101,45.68576],[47.42795,45.66486],[47.42847,45.64941],[47.43757,45.64816],[47.45244,45.65904],[47.47301,45.66904],[47.48402,45.6611],[47.48538,45.63915],[47.49797,45.6245],[47.52961,45.62443],[47.56659,45.62796],[47.58744,45.62508],[47.58564,45.61435],[47.57566,45.59783],[47.57138,45.58053],[47.57218,45.56785],[47.57122,45.55945],[47.566,45.55246],[47.55836,45.54624],[47.54987,45.54213],[47.5392,45.54362],[47.52649,45.55412],[47.51535,45.57048],[47.50698,45.5821],[47.50046,45.58194],[47.49737,45.57414],[47.49991,45.56409],[47.50915,45.54964],[47.52268,45.53059],[47.53343,45.51481],[47.53518,45.5058],[47.52627,45.49699],[47.51197,45.48434],[47.50194,45.47081],[47.49909,45.45712],[47.49773,45.44273],[47.4886,45.4312],[47.46429,45.42532],[47.43023,45.42274],[47.40302,45.41877],[47.39504,45.4121],[47.4085,45.40567],[47.4334,45.40121],[47.45245,45.39672],[47.45812,45.39006],[47.4546,45.38204],[47.44647,45.37492],[47.43723,45.36982],[47.43049,45.36614],[47.42531,45.36028],[47.41606,45.34636],[47.40189,45.32428],[47.38947,45.29759],[47.38264,45.26279],[47.37741,45.22295],[47.36847,45.19554],[47.35422,45.18784],[47.33612,45.18971],[47.31732,45.18957],[47.30113,45.17977],[47.28814,45.15646],[47.27616,45.12351],[47.26326,45.09048],[47.24829,45.0606],[47.23149,45.0294],[47.21498,44.99923],[47.19916,44.97967],[47.1833,44.97076],[47.16893,44.96186],[47.15747,44.94884],[47.14809,44.93968],[47.13844,44.94101],[47.12647,44.94848],[47.11371,44.95354],[47.10538,44.94814],[47.10319,44.92217],[47.10036,44.87672],[47.0921,44.83198],[47.08346,44.80388],[47.07756,44.79199],[47.06907,44.79447],[47.05334,44.81137],[47.03445,44.8373],[47.02039,44.86622],[47.0115,44.89352],[47.00275,44.90977],[46.99433,44.90788],[46.99125,44.89207],[46.99555,44.87097],[47.00281,44.85022],[47.00486,44.831],[46.9959,44.81046],[46.97875,44.7892],[46.96042,44.77502],[46.94175,44.76982],[46.91928,44.76427],[46.89437,44.75292],[46.87286,44.73881],[46.85708,44.72436],[46.84258,44.71117],[46.8226,44.70202],[46.79644,44.69345],[46.77,44.67913],[46.74737,44.66266],[46.72981,44.64647],[46.71866,44.62177],[46.71404,44.59088],[46.71506,44.56897],[46.71893,44.55822],[46.72047,44.55121],[46.71617,44.54624],[46.70705,44.54343],[46.6967,44.54052],[46.68868,44.53471],[46.68579,44.52227],[46.68916,44.50042],[46.69644,44.47349],[46.70529,44.44994],[46.71799,44.43203],[46.73622,44.41693],[46.75778,44.40452],[46.78279,44.39709],[46.8107,44.39494],[46.84339,44.39366],[46.8952,44.38646],[46.96317,44.37302],[47.01618,44.35879],[47.04257,44.34296],[47.05716,44.32001],[47.06928,44.29241],[47.0804,44.26883],[47.09248,44.25173],[47.10668,44.23777],[47.12149,44.22625],[47.13541,44.21817],[47.14955,44.21188],[47.16467,44.20657],[47.17968,44.20571],[47.1944,44.21196],[47.20982,44.22053],[47.22694,44.22012],[47.24663,44.19987],[47.26863,44.158],[47.29189,44.10774],[47.31434,44.06804],[47.33327,44.04506],[47.34901,44.02848],[47.36621,44.00316],[47.38743,43.96706],[47.40783,43.93286],[47.42152,43.90798],[47.43001,43.89044],[47.43953,43.87859],[47.45105,43.86988],[47.45823,43.86015],[47.45676,43.84743],[47.45088,43.83395],[47.44909,43.82504],[47.45576,43.82286],[47.46815,43.82351],[47.48108,43.82012],[47.49198,43.8075],[47.49939,43.78896],[47.49959,43.77362],[47.49008,43.76468],[47.47501,43.75867],[47.4617,43.75252],[47.45243,43.7446],[47.44639,43.73239],[47.44555,43.7147],[47.44886,43.69635],[47.44924,43.68371],[47.44387,43.67693],[47.43556,43.67065],[47.42471,43.65783],[47.41048,43.63762],[47.39521,43.62112],[47.38259,43.61689],[47.37432,43.61815],[47.37027,43.61368],[47.37047,43.6001],[47.37486,43.58159],[47.38262,43.56482],[47.39238,43.5524],[47.40083,43.54105],[47.40612,43.52786],[47.41321,43.51597],[47.42768,43.51339],[47.44674,43.52681],[47.46301,43.55544],[47.47276,43.59042],[47.47736,43.62054],[47.4804,43.64019],[47.48485,43.65201],[47.4918,43.66169],[47.49958,43.67366],[47.50473,43.69031],[47.50754,43.70983],[47.51298,43.72953],[47.52293,43.75109],[47.53337,43.77651],[47.54046,43.80391],[47.54368,43.82946],[47.54534,43.84984],[47.55052,43.86522],[47.56349,43.87891],[47.58213,43.89084],[47.60265,43.89731],[47.62586,43.8977],[47.6519,43.89388],[47.67285,43.88402],[47.67314,43.86127],[47.64504,43.81559],[47.60039,43.7382],[47.55678,43.63719],[47.52293,43.5415],[47.5004,43.47173],[47.48954,43.42287],[47.48884,43.38399],[47.49148,43.35301],[47.4918,43.33016],[47.49248,43.31306],[47.4994,43.30242],[47.51428,43.30295],[47.53384,43.31304],[47.55277,43.32353],[47.56742,43.32846],[47.57709,43.32717],[47.58286,43.3207],[47.58558,43.3112],[47.58508,43.30136],[47.58128,43.29237],[47.57429,43.28233],[47.56272,43.26965],[47.54509,43.25628],[47.52446,43.24368],[47.50614,43.23035],[47.49328,43.2153],[47.48756,43.19949],[47.48673,43.18444],[47.48538,43.17133],[47.48272,43.15988],[47.48183,43.14894],[47.48247,43.1381],[47.48078,43.1273],[47.47416,43.11654],[47.46507,43.1061],[47.45891,43.09216],[47.46246,43.06474],[47.48566,43.0217],[47.52868,42.97824],[47.57139,42.94894],[47.59679,42.93185],[47.61405,42.91709],[47.64149,42.89846],[47.67591,42.87734],[47.69937,42.85849],[47.70838,42.84359],[47.71163,42.82953],[47.71392,42.80964],[47.71622,42.78446],[47.71849,42.76495],[47.71967,42.75454],[47.71906,42.74441],[47.7185,42.72581],[47.72232,42.69772],[47.73802,42.66626],[47.77328,42.63659],[47.82423,42.60456],[47.87974,42.55755],[47.93479,42.49457],[47.98584,42.43588],[48.03016,42.39575],[48.07412,42.35971],[48.12967,42.30008],[48.19394,42.22068],[48.24705,42.15797],[48.28041,42.1244],[48.30022,42.10269],[48.31153,42.08186],[48.32226,42.05567],[48.34444,42.01422],[48.38026,41.96317],[48.42155,41.92432],[48.46439,41.90424],[48.50791,41.89011],[48.54538,41.87298],[48.56957,41.85621],[48.5833,41.84492],[48.59873,41.83547],[48.62726,41.81677],[48.67312,41.77931],[48.72645,41.73059],[48.76743,41.69098],[48.79249,41.66319],[48.81976,41.63027],[48.85847,41.58577],[48.89626,41.54442],[48.92262,41.51899],[48.94013,41.50404],[48.95399,41.48965],[48.96742,41.47328],[48.98026,41.45774],[48.99075,41.447],[49.00161,41.44087],[49.01541,41.43543],[49.03122,41.42454],[49.05157,41.39964],[49.07791,41.36088],[49.10364,41.32251],[49.12242,41.29492],[49.13495,41.26993],[49.14477,41.23313],[49.15397,41.18893],[49.16295,41.15648],[49.17218,41.13629],[49.18514,41.10722],[49.21331,41.05559],[49.26641,40.98807],[49.32738,40.92614],[49.36763,40.88744],[49.389,40.86733],[49.41236,40.85242],[49.44185,40.84034],[49.46877,40.83156],[49.49016,40.82176],[49.50881,40.80976],[49.52456,40.79762],[49.53276,40.78269],[49.53047,40.76068],[49.52195,40.73499],[49.51481,40.71377],[49.51226,40.69966],[49.51382,40.68951],[49.51905,40.68038],[49.52594,40.67206],[49.53126,40.6658],[49.53589,40.66043],[49.54442,40.65277],[49.55844,40.6427],[49.57649,40.63352],[49.59938,40.62745],[49.62608,40.62338],[49.65146,40.61777],[49.67531,40.60748],[49.70188,40.59431],[49.73419,40.58323],[49.77215,40.57534],[49.80887,40.56956],[49.8394,40.56788],[49.87006,40.57251],[49.91006,40.58035],[49.96329,40.58494],[50.0182,40.58351],[50.05303,40.57813],[50.06526,40.57134],[50.07037,40.56373],[50.0787,40.55404],[50.09258,40.54192],[50.11498,40.52943],[50.15199,40.51777],[50.19727,40.50639],[50.23147,40.494],[50.24983,40.47832],[50.26329,40.45947],[50.27887,40.4421],[50.29728,40.42942],[50.31688,40.41839],[50.33495,40.40414],[50.34973,40.3819],[50.36136,40.34685],[50.37088,40.3062],[50.37904,40.27524],[50.38558,40.25498],[50.38792,40.2404],[50.38233,40.23768],[50.36786,40.25131],[50.34574,40.27437],[50.31627,40.29897],[50.2834,40.32033],[50.25296,40.33477],[50.22244,40.34319],[50.18797,40.34965],[50.15549,40.35522],[50.13195,40.35811],[50.1162,40.35758],[50.10226,40.35526],[50.084,40.35298],[50.05984,40.34941],[50.03323,40.34172],[50.00846,40.33248],[49.98931,40.32885],[49.97628,40.33357],[49.96592,40.34254],[49.95489,40.35041],[49.93988,40.35592],[49.91911,40.36065],[49.89479,40.36221],[49.8708,40.35465],[49.85133,40.33723],[49.83475,40.3156],[49.80972,40.29537],[49.76783,40.27794],[49.71173,40.26041],[49.65048,40.24073],[49.59611,40.22079],[49.55579,40.20121],[49.52715,40.18205],[49.50756,40.1655],[49.49731,40.14967],[49.49452,40.13073],[49.49181,40.111],[49.47858,40.09409],[49.4565,40.07853],[49.44136,40.06154],[49.44081,40.04356],[49.44905,40.02772],[49.45992,40.01612],[49.47058,40.00723],[49.4783,39.99868],[49.48027,39.99044],[49.47537,39.98315],[49.46511,39.97592],[49.45314,39.96865],[49.44298,39.96233],[49.43549,39.95564],[49.43002,39.94667],[49.42679,39.93575],[49.42713,39.92251],[49.43169,39.90604],[49.43765,39.88881],[49.43984,39.87452],[49.43618,39.86391],[49.42929,39.85601],[49.42286,39.8494],[49.41877,39.84257],[49.4174,39.8355],[49.41838,39.82912],[49.42055,39.82321],[49.42187,39.81713],[49.41978,39.81102],[49.41299,39.80424],[49.40425,39.79533],[49.39875,39.78529],[49.39805,39.7762],[49.39926,39.76702],[49.4018,39.75511],[49.40858,39.73978],[49.41656,39.72387],[49.41636,39.71108],[49.40383,39.70017],[49.38282,39.68625],[49.3595,39.66737],[49.33925,39.64562],[49.3253,39.62409],[49.31611,39.60453],[49.30758,39.58552],[49.29894,39.56492],[49.29212,39.5429],[49.28887,39.52036],[49.29585,39.49526],[49.32342,39.46337],[49.36435,39.42878],[49.39466,39.40327],[49.40568,39.38997],[49.40638,39.38123],[49.40382,39.36888],[49.40145,39.352],[49.40111,39.33733],[49.40015,39.33033],[49.39516,39.33089],[49.38752,39.33621],[49.38027,39.34298],[49.37461,39.34737],[49.372,39.34508],[49.37441,39.33509],[49.38213,39.32129],[49.39287,39.30844],[49.40067,39.29915],[49.39861,39.29523],[49.3869,39.29836],[49.36978,39.30867],[49.34506,39.32331],[49.31132,39.33346],[49.27764,39.32865],[49.25409,39.30307],[49.24243,39.25561],[49.23794,39.20044],[49.23427,39.15961],[49.22787,39.13372],[49.21984,39.11025],[49.21322,39.0851],[49.20819,39.05956],[49.19788,39.03495],[49.1711,39.01011],[49.12851,38.98735],[49.08803,38.97663],[49.06442,38.98085],[49.05642,38.99106],[49.05588,39.00028],[49.06099,39.00816],[49.07669,39.01559],[49.10054,39.02306],[49.12187,39.03245],[49.13592,39.0461],[49.14351,39.0638],[49.14308,39.08259],[49.13144,39.0983],[49.10897,39.1083],[49.08505,39.11657],[49.07048,39.13138],[49.06338,39.15258],[49.05469,39.17104],[49.03894,39.18196],[49.01532,39.18665],[48.98983,39.1865],[48.97197,39.18224],[48.96322,39.17444],[48.95789,39.16427],[48.95339,39.15391],[48.95059,39.1447],[48.94864,39.13658],[48.94569,39.13042],[48.94181,39.12719],[48.93837,39.12292],[48.93632,39.10888],[48.93694,39.08347],[48.94149,39.05562],[48.94561,39.02782],[48.94128,38.99328],[48.92851,38.9551],[48.91432,38.92431],[48.90157,38.90272],[48.88624,38.88638],[48.86505,38.87315],[48.84509,38.85898],[48.83611,38.84049],[48.83797,38.81896],[48.84669,38.78539],[48.85862,38.71375],[48.86831,38.60108],[48.87344,38.49093],[48.87519,38.41535],[48.87424,38.36317],[48.8726,38.32158],[48.87423,38.28531],[48.88157,38.2415],[48.89566,38.17527],[48.91561,38.08651],[48.93378,38.00364],[48.94206,37.95256],[48.94384,37.92565],[48.94881,37.90411],[48.96152,37.87958],[48.97684,37.8541],[48.98543,37.83501],[48.98685,37.82191],[48.98944,37.80429],[49.00114,37.77423],[49.02828,37.73148],[49.07444,37.68066],[49.14189,37.62793],[49.23417,37.5768],[49.35972,37.53034],[49.53119,37.49355],[49.71641,37.47083],[49.84305,37.46418],[49.90051,37.46725],[49.93228,37.46833],[49.95296,37.46453],[49.95713,37.46135],[49.9507,37.4607],[49.94837,37.45784],[49.97244,37.44721],[50.03701,37.42871],[50.11994,37.40765],[50.18309,37.38624],[50.2146,37.36201],[50.22709,37.3357],[50.23521,37.31004],[50.24518,37.28609],[50.25747,37.26295],[50.27374,37.23438],[50.29642,37.19721],[50.32765,37.15843],[50.37082,37.12132],[50.42179,37.08341],[50.46551,37.05079],[50.49972,37.02853],[50.54276,37.00685],[50.59607,36.98151],[50.63807,36.96188],[50.66378,36.94816],[50.69324,36.93014],[50.75545,36.89726],[50.86132,36.8449],[50.99399,36.78592],[51.15211,36.73597],[51.34284,36.69448],[51.54206,36.65659],[51.72943,36.62426],[51.90996,36.60738],[52.08713,36.61697],[52.26024,36.64773],[52.43261,36.68247],[52.60605,36.71384],[52.77843,36.74609],[52.95844,36.7841],[53.15965,36.82673],[53.37197,36.86451],[53.58497,36.88956],[53.78548,36.907],[53.92561,36.92288],[53.98226,36.92929],[53.9794,36.91971],[53.94001,36.90388],[53.88689,36.89178],[53.84444,36.88361],[53.81874,36.87928],[53.79989,36.87953],[53.77996,36.88116],[53.75871,36.87993],[53.73535,36.87641],[53.70395,36.87476],[53.66412,36.87521],[53.63221,36.87354],[53.62438,36.86885],[53.63538,36.86464],[53.64615,36.86207],[53.64738,36.85822],[53.65029,36.84921],[53.67609,36.8347],[53.73664,36.8196],[53.81152,36.80815],[53.8708,36.80232],[53.92263,36.8054],[53.97787,36.817],[54.01611,36.83697],[54.02916,36.87363],[54.02989,36.92174],[54.02414,36.95732],[54.01304,36.97321],[54.00375,36.98398],[54.00285,37.00156],[54.0039,37.0279],[53.99561,37.06279],[53.9774,37.11115],[53.95535,37.17094],[53.93557,37.22766],[53.92252,37.27586],[53.91506,37.32323],[53.9081,37.37918],[53.89788,37.44374],[53.88452,37.50083],[53.87164,37.541],[53.86052,37.58018],[53.84606,37.65554],[53.82689,37.79087],[53.81266,37.94122],[53.81128,38.03923],[53.82021,38.09084],[53.83357,38.13915],[53.84595,38.19063],[53.85426,38.23334],[53.85922,38.27184],[53.8611,38.31605],[53.85943,38.35871],[53.85528,38.38635],[53.85002,38.40088],[53.8452,38.4122],[53.84099,38.42821],[53.83534,38.45564],[53.82919,38.4949],[53.82776,38.54263],[53.83376,38.59468],[53.84715,38.64363],[53.86929,38.68825],[53.89507,38.73164],[53.9125,38.7695],[53.92023,38.79685],[53.92685,38.81615],[53.93491,38.83331],[53.94291,38.85102],[53.95179,38.86831],[53.96188,38.8848],[53.97031,38.89957],[53.97334,38.91041],[53.97084,38.91968],[53.96405,38.9318],[53.95106,38.94458],[53.93418,38.95314],[53.92202,38.95817],[53.91772,38.96316],[53.91591,38.96842],[53.91139,38.97243],[53.90439,38.975],[53.89711,38.97733],[53.89014,38.9814],[53.88434,38.98845],[53.88049,38.9985],[53.87691,39.01154],[53.86893,39.02525],[53.85137,39.03516],[53.82635,39.04041],[53.80328,39.04317],[53.78738,39.04348],[53.77722,39.04083],[53.77092,39.03758],[53.76557,39.03779],[53.75655,39.04573],[53.74319,39.06464],[53.72994,39.08872],[53.72004,39.10312],[53.71432,39.10064],[53.71449,39.08781],[53.72,39.07413],[53.72561,39.06536],[53.72499,39.06359],[53.71573,39.06888],[53.70357,39.08119],[53.6969,39.09982],[53.69581,39.12082],[53.6957,39.13876],[53.69819,39.15181],[53.70588,39.16187],[53.71165,39.17126],[53.70988,39.18412],[53.70758,39.20419],[53.70623,39.22354],[53.69615,39.22824],[53.67876,39.21815],[53.66808,39.19801],[53.66939,39.16326],[53.67288,39.12502],[53.66729,39.11066],[53.6526,39.12169],[53.63786,39.13939],[53.62953,39.157],[53.62537,39.17447],[53.61932,39.18842],[53.611,39.19842],[53.60572,39.20867],[53.6044,39.22106],[53.60234,39.23234],[53.5964,39.23624],[53.58708,39.22795],[53.57718,39.21358],[53.56938,39.20883],[53.56611,39.22356],[53.56861,39.25246],[53.57203,39.27976],[53.57231,39.29782],[53.5727,39.31234],[53.57274,39.32383],[53.5677,39.32869],[53.56111,39.33303],[53.55863,39.34203],[53.55566,39.34878],[53.54664,39.34687],[53.53499,39.34122],[53.52246,39.33802],[53.50338,39.33557],[53.47785,39.33053],[53.45596,39.32529],[53.44394,39.32581],[53.43827,39.33163],[53.43297,39.33427],[53.42523,39.32964],[53.41518,39.32214],[53.40442,39.31688],[53.39639,39.31682],[53.39406,39.32318],[53.39457,39.33257],[53.39156,39.3389],[53.38409,39.34064],[53.37631,39.34008],[53.37022,39.33822],[53.36565,39.33585],[53.36263,39.33508],[53.35957,39.33752],[53.35395,39.34185],[53.34411,39.34395],[53.32929,39.34149],[53.31231,39.33734],[53.29933,39.33632],[53.29412,39.3398],[53.2944,39.34541],[53.2936,39.35027],[53.28736,39.35314],[53.27701,39.35507],[53.26503,39.35827],[53.25164,39.36276],[53.23411,39.36536],[53.20836,39.36272],[53.18086,39.35435],[53.16964,39.34294],[53.17694,39.3314],[53.18324,39.31915],[53.17869,39.30453],[53.17141,39.28839],[53.16872,39.27034],[53.17112,39.24694],[53.17479,39.21958],[53.17426,39.19688],[53.16686,39.19331],[53.15408,39.22526],[53.13902,39.28419],[53.12148,39.33835],[53.10243,39.3747],[53.09092,39.3998],[53.09347,39.41849],[53.10639,39.43423],[53.12143,39.44879],[53.13182,39.46169],[53.13842,39.47371],[53.14727,39.48642],[53.16163,39.50453],[53.18234,39.53747],[53.2094,39.5847],[53.24126,39.62858],[53.27295,39.6532],[53.29201,39.65793],[53.28907,39.6501],[53.27143,39.63488],[53.25305,39.61561],[53.2406,39.59623],[53.23233,39.57947],[53.22432,39.56482],[53.22026,39.54948],[53.23465,39.53617],[53.28047,39.53206],[53.34819,39.53525],[53.40762,39.53592],[53.44076,39.52896],[53.45573,39.51646],[53.46701,39.50312],[53.48032,39.49246],[53.49652,39.48521],[53.51815,39.48038],[53.54323,39.47641],[53.56276,39.47341],[53.5724,39.47392],[53.57597,39.47926],[53.57741,39.48743],[53.57614,39.4952],[53.57103,39.50184],[53.56778,39.51027],[53.57386,39.51891],[53.5876,39.51967],[53.6028,39.51144],[53.61837,39.50409],[53.6371,39.50597],[53.65887,39.51466],[53.67965,39.5208],[53.69732,39.51982],[53.71197,39.51587],[53.72246,39.51518],[53.72779,39.51983],[53.72771,39.52814],[53.72169,39.53754],[53.70769,39.54612],[53.68392,39.55386],[53.65696,39.56174],[53.64119,39.56973],[53.64138,39.5772],[53.64735,39.58501],[53.64935,39.59527],[53.6448,39.60742],[53.63204,39.61704],[53.60994,39.62112],[53.5852,39.62283],[53.56904,39.62848],[53.56314,39.63959],[53.56059,39.65264],[53.55558,39.66478],[53.54654,39.67193],[53.53798,39.66744],[53.5349,39.65275],[53.53334,39.64241],[53.52342,39.64976],[53.50142,39.67135],[53.47482,39.69093],[53.45532,39.69692],[53.44874,39.69071],[53.44965,39.68254],[53.44748,39.68085],[53.4392,39.68276],[53.43201,39.67892],[53.43328,39.66624],[53.43883,39.65169],[53.43598,39.64672],[53.4243,39.66163],[53.41718,39.69727],[53.41716,39.7356],[53.41437,39.75604],[53.40577,39.76038],[53.39563,39.76189],[53.38922,39.76626],[53.39536,39.77674],[53.42052,39.79924],[53.45536,39.83072],[53.48048,39.85667],[53.4879,39.87062],[53.48622,39.87884],[53.48659,39.88583],[53.49324,39.89104],[53.50523,39.89423],[53.51883,39.89655],[53.52876,39.89966],[53.53211,39.90454],[53.53073,39.9106],[53.53044,39.91775],[53.53678,39.92721],[53.54872,39.93906],[53.56005,39.95177],[53.56612,39.96211],[53.56673,39.96704],[53.56474,39.96741],[53.56205,39.96691],[53.55635,39.96906],[53.54356,39.97396],[53.52286,39.978],[53.49862,39.98078],[53.47617,39.98638],[53.4566,39.99542],[53.43829,40.00359],[53.42013,40.00786],[53.40184,40.00794],[53.38221,40.00239],[53.35846,39.98884],[53.33301,39.9715],[53.31334,39.95895],[53.30069,39.9522],[53.29099,39.94753],[53.28237,39.94546],[53.27298,39.94761],[53.26166,39.95226],[53.24685,39.959],[53.22196,39.97122],[53.18793,39.98528],[53.15822,39.99032],[53.13539,39.98536],[53.10776,39.97881],[53.07775,39.97645],[53.06188,39.97942],[53.06285,39.98558],[53.06588,39.99071],[53.05281,39.99052],[53.01928,39.98547],[52.98098,39.98357],[52.95191,39.99196],[52.9309,40.0063],[52.91323,40.01406],[52.90071,40.00955],[52.89849,39.9976],[52.90523,39.98276],[52.91368,39.96413],[52.92067,39.93895],[52.9297,39.91017],[52.94436,39.88536],[52.96378,39.86431],[52.98701,39.83914],[53.01382,39.80932],[53.03784,39.78515],[53.04832,39.77387],[53.0412,39.77348],[53.02857,39.77534],[53.02724,39.76913],[53.03354,39.75777],[53.03028,39.7554],[53.0129,39.76774],[52.98991,39.79169],[52.96813,39.82067],[52.94696,39.84484],[52.92504,39.8614],[52.90673,39.87792],[52.89574,39.90035],[52.88427,39.92816],[52.8556,39.9609],[52.80883,39.99707],[52.76678,40.03059],[52.74627,40.06094],[52.74388,40.09112],[52.74976,40.11732],[52.75666,40.13721],[52.75873,40.15546],[52.75197,40.17535],[52.74201,40.19452],[52.73726,40.20993],[52.73244,40.22447],[52.71966,40.24528],[52.70753,40.28415],[52.71019,40.3542],[52.72715,40.44149],[52.75061,40.51207],[52.78161,40.56251],[52.81846,40.60986],[52.84719,40.65324],[52.85792,40.68356],[52.85269,40.69973],[52.83978,40.70742],[52.82982,40.71413],[52.8281,40.72382],[52.83059,40.73419],[52.83246,40.74189],[52.83593,40.74787],[52.84477,40.75343],[52.85571,40.75749],[52.86273,40.76094],[52.86474,40.76662],[52.86368,40.77477],[52.86273,40.78752],[52.86878,40.81655],[52.88651,40.86814],[52.90744,40.92849],[52.91769,40.98453],[52.91763,41.03359],[52.92023,41.06674],[52.93201,41.07651],[52.94655,41.07055],[52.95582,41.05997],[52.95879,41.04909],[52.95797,41.03819],[52.95654,41.02642],[52.96054,41.01084],[52.97556,40.98807],[52.99716,40.96008],[53.01541,40.93207],[53.03025,40.90743],[53.04743,40.88855],[53.06555,40.87652],[53.08132,40.87065],[53.09559,40.86944],[53.10667,40.86992],[53.10883,40.86807],[53.09911,40.8621],[53.08272,40.85322],[53.07104,40.84253],[53.07153,40.83172],[53.08122,40.82254],[53.09157,40.81365],[53.09738,40.80379],[53.10004,40.79385],[53.10381,40.78483],[53.1129,40.77786],[53.13096,40.77363],[53.15599,40.77219],[53.18212,40.77585],[53.20925,40.78786],[53.23511,40.80227],[53.24884,40.80511],[53.24902,40.79387],[53.25256,40.78106],[53.27496,40.77633],[53.30775,40.77876],[53.32965,40.7848],[53.3364,40.79355],[53.33898,40.80467],[53.34516,40.81696],[53.35621,40.82791],[53.36883,40.83345],[53.37698,40.83128],[53.37756,40.82242],[53.37469,40.80942],[53.37584,40.79454],[53.38515,40.77957],[53.40145,40.76679],[53.42025,40.7579],[53.43717,40.75214],[53.45065,40.74718],[53.46179,40.74251],[53.47174,40.74014],[53.48125,40.74124],[53.49298,40.74569],[53.51055,40.75352],[53.53132,40.76435],[53.54686,40.77947],[53.55385,40.8019],[53.5578,40.83017],[53.56595,40.85852],[53.57917,40.88102],[53.59296,40.89301],[53.60513,40.89547],[53.61586,40.89301],[53.62405,40.88776],[53.62942,40.88134],[53.63478,40.87648],[53.64229,40.87335],[53.64939,40.86969],[53.65259,40.86474],[53.65223,40.85945],[53.6502,40.85433],[53.64813,40.84829],[53.64822,40.83899],[53.6518,40.82697],[53.65722,40.8163],[53.66025,40.8079],[53.65815,40.79964],[53.65356,40.79062],[53.6527,40.778],[53.6596,40.75743],[53.67261,40.73253],[53.68736,40.71421],[53.70046,40.70622],[53.70996,40.70196],[53.71556,40.69595],[53.71719,40.68773],[53.71391,40.67681],[53.70892,40.66267],[53.71188,40.64758],[53.73042,40.63625],[53.76433,40.63188],[53.80709,40.63236],[53.84676,40.63535],[53.87591,40.64325],[53.90066,40.65621],[53.92564,40.66832],[53.94669,40.67373],[53.96516,40.67181],[53.98615,40.66688],[54.00833,40.66459],[54.02947,40.66719],[54.0507,40.67274],[54.06995,40.67879],[54.08237,40.68474],[54.08801,40.69074],[54.08868,40.69678],[54.08231,40.70335],[54.07347,40.7102],[54.07893,40.71533],[54.10513,40.71866],[54.14096,40.72303],[54.17844,40.72792],[54.21039,40.72915],[54.22547,40.72467],[54.22462,40.71469],[54.21955,40.70231],[54.22,40.6929],[54.2392,40.68707],[54.2891,40.68269],[54.34736,40.68133],[54.37429,40.68458],[54.37523,40.69172],[54.38391,40.70168],[54.39908,40.71212],[54.39108,40.71978],[54.35707,40.72364],[54.32554,40.72724],[54.31045,40.73599],[54.30311,40.75162],[54.29495,40.77237],[54.28448,40.79591],[54.27447,40.81833],[54.2675,40.83553],[54.26445,40.84705],[54.26509,40.85491],[54.26741,40.86071],[54.26902,40.86574],[54.26837,40.87073],[54.2642,40.87444],[54.25647,40.8761],[54.24869,40.87876],[54.24587,40.88465],[54.24949,40.89072],[54.25673,40.89386],[54.26537,40.89629],[54.27717,40.90298],[54.29359,40.9141],[54.31322,40.92319],[54.33808,40.92304],[54.372,40.91123],[54.40911,40.89376],[54.43802,40.87843],[54.45421,40.86524],[54.45763,40.8511],[54.453,40.8358],[54.46047,40.82358],[54.50112,40.82108],[54.56247,40.82794],[54.61087,40.83747],[54.63871,40.84843],[54.66212,40.86284],[54.6878,40.87951],[54.71251,40.89999],[54.73371,40.92486],[54.74768,40.94757],[54.75223,40.96491],[54.75014,40.97897],[54.7446,40.99035]]]}}]}