{"type":"FeatureCollection","meta":{"year":2024,"level_m":-29.18,"reference_year":2015,"reference_level_m":-27.85,"status":"semi","model":"cross-shore translation: retreat = Δlevel / tan(β)","source_id":"model","projected":false},"features":[{"type":"Feature","properties":{"year":2024,"level_m":-29.18},"geometry":{"type":"Polygon","coordinates":[[[54.73323,41.0027],[54.71473,41.02267],[54.69379,41.04552],[54.68211,41.06181],[54.6858,41.06866],[54.70316,41.06612],[54.72821,41.05643],[54.74831,41.04773],[54.75134,41.0472],[54.74099,41.05385],[54.72938,41.06283],[54.72132,41.07135],[54.71653,41.07881],[54.71492,41.0858],[54.71669,41.09288],[54.72118,41.09857],[54.72482,41.10128],[54.72181,41.10425],[54.70882,41.11178],[54.68718,41.12117],[54.66216,41.12928],[54.64007,41.1412],[54.60964,41.16762],[54.53991,41.21719],[54.43442,41.279],[54.34319,41.3259],[54.28932,41.35152],[54.25192,41.37073],[54.2186,41.38884],[54.195,41.40279],[54.18077,41.41518],[54.16826,41.43057],[54.1538,41.44728],[54.13584,41.45998],[54.11326,41.46809],[54.09049,41.47609],[54.07186,41.48845],[54.05574,41.50811],[54.04086,41.53617],[54.02971,41.57376],[54.02354,41.62334],[54.01946,41.67889],[54.01317,41.72664],[54.00056,41.76513],[53.979,41.80398],[53.95423,41.84194],[53.93702,41.86834],[53.92836,41.88149],[53.92093,41.88786],[53.91149,41.89178],[53.90267,41.89663],[53.89824,41.90483],[53.89898,41.91489],[53.90217,41.92453],[53.90433,41.93384],[53.90375,41.94477],[53.9022,41.95892],[53.9035,41.97561],[53.90785,41.99258],[53.91119,42.00855],[53.91107,42.02485],[53.90776,42.04262],[53.90035,42.06083],[53.88453,42.07947],[53.85574,42.0995],[53.81531,42.11813],[53.77005,42.13023],[53.70873,42.13426],[53.59809,42.12846],[53.45333,42.11182],[53.34222,42.0939],[53.27881,42.08646],[53.22515,42.08984],[53.17034,42.09349],[53.12377,42.08619],[53.08259,42.06554],[53.03478,42.03377],[52.97558,41.98528],[52.91003,41.90903],[52.84928,41.821],[52.80844,41.76137],[52.789,41.73692],[52.77885,41.72136],[52.77184,41.70103],[52.76932,41.68043],[52.77426,41.66949],[52.7885,41.67428],[52.81103,41.68831],[52.84013,41.6979],[52.87124,41.6964],[52.89532,41.68677],[52.90656,41.67374],[52.90618,41.65925],[52.89989,41.64428],[52.89496,41.63016],[52.89461,41.61634],[52.89642,41.60151],[52.89296,41.57846],[52.87522,41.53301],[52.84741,41.47184],[52.82525,41.42296],[52.81441,41.39592],[52.81119,41.37938],[52.81419,41.36213],[52.82192,41.33524],[52.83083,41.29613],[52.84174,41.25111],[52.86043,41.20436],[52.88354,41.15957],[52.89657,41.12501],[52.89391,41.09979],[52.8849,41.07737],[52.87862,41.06107],[52.87401,41.05635],[52.86653,41.06115],[52.85653,41.06986],[52.84824,41.08037],[52.84537,41.09597],[52.84676,41.1177],[52.84736,41.14082],[52.84424,41.16178],[52.83805,41.18013],[52.83059,41.19476],[52.82278,41.20534],[52.81525,41.21399],[52.8098,41.22357],[52.80764,41.23586],[52.80633,41.25251],[52.8012,41.27659],[52.79195,41.30468],[52.78179,41.32772],[52.7708,41.34724],[52.75854,41.36787],[52.74618,41.38371],[52.73392,41.39114],[52.72327,41.39629],[52.71676,41.40462],[52.71364,41.41493],[52.71054,41.42442],[52.70467,41.43376],[52.69438,41.4435],[52.67907,41.45111],[52.65965,41.45704],[52.63763,41.46766],[52.61524,41.48472],[52.59518,41.50076],[52.57803,41.51227],[52.56513,41.52404],[52.56059,41.53848],[52.56562,41.55422],[52.57499,41.56984],[52.5817,41.58398],[52.58394,41.59769],[52.58478,41.61178],[52.58675,41.62385],[52.58929,41.63263],[52.59046,41.63923],[52.58996,41.64494],[52.58806,41.64983],[52.58373,41.65383],[52.57703,41.65978],[52.5702,41.6695],[52.56486,41.67984],[52.55924,41.68722],[52.55038,41.69058],[52.53869,41.69145],[52.52772,41.69389],[52.51945,41.70012],[52.51155,41.70833],[52.50079,41.71692],[52.48726,41.72526],[52.47162,41.73242],[52.45451,41.74009],[52.44102,41.75223],[52.43852,41.77339],[52.44996,41.80853],[52.46801,41.85471],[52.47918,41.89934],[52.47808,41.93385],[52.46954,41.95792],[52.45904,41.9735],[52.44882,41.98345],[52.43958,41.99166],[52.43274,42.0028],[52.43026,42.02002],[52.43094,42.03982],[52.4291,42.05635],[52.42078,42.0714],[52.41177,42.0891],[52.41092,42.10811],[52.41689,42.12679],[52.42302,42.14547],[52.42845,42.16331],[52.43677,42.17812],[52.44974,42.1887],[52.46748,42.20027],[52.49406,42.22598],[52.53117,42.26881],[52.56651,42.31006],[52.58675,42.33411],[52.59387,42.34692],[52.59597,42.35977],[52.5969,42.37451],[52.60014,42.38856],[52.60998,42.40237],[52.62446,42.41641],[52.63587,42.42876],[52.64123,42.43993],[52.6446,42.45339],[52.65078,42.47363],[52.66016,42.5031],[52.66747,42.53839],[52.66655,42.57532],[52.65532,42.61267],[52.63554,42.64718],[52.60994,42.67509],[52.58449,42.69816],[52.56871,42.71925],[52.56634,42.73537],[52.57201,42.74066],[52.5797,42.73327],[52.58873,42.71751],[52.60071,42.70117],[52.61581,42.68917],[52.63377,42.67961],[52.65148,42.66964],[52.66287,42.66039],[52.66757,42.65335],[52.67117,42.64656],[52.67769,42.63443],[52.68732,42.61566],[52.69822,42.5992],[52.70887,42.59389],[52.71907,42.60071],[52.72865,42.61659],[52.73567,42.63828],[52.73634,42.66525],[52.72675,42.69591],[52.70456,42.72274],[52.67282,42.74079],[52.64025,42.75548],[52.60539,42.77431],[52.55066,42.79683],[52.47378,42.8163],[52.40351,42.82763],[52.36295,42.83125],[52.34442,42.83005],[52.33203,42.82596],[52.32104,42.81956],[52.31184,42.81041],[52.30301,42.80049],[52.28772,42.79922],[52.25686,42.81756],[52.21412,42.84992],[52.17091,42.87565],[52.12306,42.88324],[52.06318,42.87614],[52.00417,42.86147],[51.96145,42.84707],[51.93094,42.8428],[51.89949,42.85616],[51.86568,42.88287],[51.83782,42.91125],[51.81788,42.93572],[51.80257,42.95754],[51.79036,42.98039],[51.77754,43.00664],[51.7579,43.03519],[51.73298,43.06231],[51.71184,43.08178],[51.69711,43.0911],[51.68522,43.09577],[51.676,43.10216],[51.67172,43.11141],[51.67262,43.1213],[51.67588,43.13135],[51.67716,43.14385],[51.67327,43.15952],[51.66237,43.1739],[51.64129,43.1805],[51.60884,43.17931],[51.57348,43.17603],[51.54712,43.17309],[51.53247,43.16903],[51.52438,43.16327],[51.51712,43.15764],[51.50666,43.15528],[51.49191,43.15757],[51.47054,43.16131],[51.43084,43.1611],[51.36778,43.15758],[51.30556,43.15855],[51.27401,43.17311],[51.27541,43.20797],[51.2919,43.26387],[51.30642,43.33539],[51.31066,43.40779],[51.30308,43.46245],[51.28923,43.49564],[51.2787,43.51577],[51.27435,43.5309],[51.27164,43.54527],[51.26425,43.55914],[51.24764,43.57388],[51.22658,43.5909],[51.21139,43.60716],[51.20355,43.61807],[51.19672,43.62189],[51.18725,43.62122],[51.17582,43.62031],[51.16412,43.62157],[51.15156,43.62689],[51.13062,43.64673],[51.09272,43.69568],[51.04821,43.7613],[51.01936,43.80977],[51.00915,43.83243],[51.00469,43.84394],[50.99936,43.85265],[50.99421,43.86023],[50.9918,43.86881],[50.99225,43.88061],[50.99184,43.89455],[50.98638,43.90774],[50.9741,43.92066],[50.95836,43.93459],[50.94485,43.94923],[50.93368,43.96515],[50.92196,43.98213],[50.91025,43.99712],[50.89907,44.00738],[50.88624,44.01371],[50.87196,44.01939],[50.86053,44.02713],[50.85554,44.0369],[50.85653,44.04706],[50.85971,44.062],[50.86071,44.09195],[50.85751,44.1332],[50.85016,44.16788],[50.83672,44.19147],[50.81016,44.21293],[50.74561,44.23791],[50.61171,44.26792],[50.44337,44.29833],[50.32598,44.32105],[50.27741,44.33653],[50.25583,44.3517],[50.24185,44.3715],[50.23685,44.39815],[50.23743,44.42847],[50.23787,44.45453],[50.23693,44.47292],[50.23506,44.48845],[50.23149,44.50851],[50.22858,44.53486],[50.23077,44.55878],[50.23958,44.56909],[50.25327,44.56988],[50.26856,44.5766],[50.28352,44.59143],[50.29745,44.60507],[50.30816,44.61626],[50.31398,44.62841],[50.3161,44.63925],[50.31616,44.64532],[50.31465,44.64697],[50.31443,44.64532],[50.32986,44.63958],[50.38192,44.62942],[50.46387,44.61975],[50.53796,44.61751],[50.58204,44.62083],[50.6041,44.62089],[50.6244,44.61516],[50.65926,44.60851],[50.7019,44.60323],[50.73508,44.59844],[50.75856,44.59706],[50.77793,44.60252],[50.79048,44.61148],[50.79502,44.61765],[50.79863,44.61938],[50.81236,44.61876],[50.83736,44.61695],[50.86439,44.6131],[50.89203,44.60498],[50.92294,44.59123],[50.95125,44.5763],[50.97267,44.56744],[50.9891,44.56471],[51.00064,44.56227],[51.0064,44.55729],[51.00614,44.55143],[51.00141,44.5461],[51.00016,44.53904],[51.01438,44.52701],[51.05003,44.5105],[51.09757,44.49488],[51.14006,44.4863],[51.17289,44.48586],[51.20293,44.49258],[51.2348,44.50737],[51.26346,44.52564],[51.27996,44.53823],[51.28567,44.54383],[51.28902,44.54707],[51.29485,44.54957],[51.30565,44.5508],[51.32221,44.5516],[51.34217,44.5536],[51.36045,44.55455],[51.37288,44.54807],[51.38689,44.53534],[51.4187,44.52567],[51.46973,44.5202],[51.52034,44.51539],[51.55249,44.51572],[51.56425,44.52427],[51.56197,44.53639],[51.54885,44.54875],[51.52157,44.56283],[51.48148,44.5786],[51.44165,44.59024],[51.40707,44.59337],[51.36793,44.59308],[51.32192,44.60151],[51.27848,44.62848],[51.2438,44.66844],[51.21231,44.70509],[51.17323,44.7334],[51.13083,44.75653],[51.10232,44.77224],[51.0898,44.77967],[51.07826,44.78322],[51.05993,44.78708],[51.04158,44.7928],[51.02592,44.80097],[51.00314,44.81454],[50.97528,44.8355],[50.96297,44.85983],[50.97124,44.88101],[50.98435,44.8953],[50.99474,44.90418],[51.00161,44.91271],[50.99833,44.92263],[50.98598,44.93036],[50.97561,44.93363],[50.9685,44.93484],[50.96005,44.93826],[50.95662,44.94659],[50.96428,44.95796],[50.97809,44.96797],[50.9939,44.97503],[51.0118,44.97952],[51.03133,44.9815],[51.05226,44.98274],[51.07304,44.9866],[51.09049,44.99431],[51.10347,45.00415],[51.1151,45.01428],[51.13196,45.02515],[51.15523,45.0366],[51.17672,45.04513],[51.19108,45.04728],[51.20307,45.04185],[51.22048,45.03046],[51.24368,45.02072],[51.26089,45.02215],[51.26243,45.03512],[51.25342,45.05205],[51.24211,45.06842],[51.2347,45.08393],[51.23982,45.0977],[51.25634,45.10938],[51.26829,45.12017],[51.26337,45.1303],[51.24931,45.13982],[51.24558,45.14975],[51.25675,45.16026],[51.27201,45.1729],[51.28781,45.19107],[51.30467,45.21324],[51.32297,45.23695],[51.35199,45.26822],[51.39047,45.30751],[51.41835,45.34163],[51.42673,45.36244],[51.42537,45.36949],[51.42944,45.36132],[51.45197,45.34303],[51.49404,45.32818],[51.5455,45.32565],[51.59541,45.33497],[51.63562,45.35101],[51.66173,45.36569],[51.67803,45.37339],[51.69448,45.37803],[51.71379,45.38746],[51.73127,45.40319],[51.74435,45.42026],[51.75267,45.43296],[51.7562,45.43813],[51.75801,45.43545],[51.76275,45.42612],[51.77675,45.41178],[51.80779,45.39617],[51.84919,45.38372],[51.88398,45.3736],[51.91132,45.36384],[51.93979,45.35907],[51.969,45.36353],[51.99353,45.37236],[52.0131,45.37728],[52.03516,45.37579],[52.08156,45.37306],[52.18349,45.37608],[52.32392,45.38362],[52.43909,45.38874],[52.51668,45.38627],[52.60117,45.37111],[52.70742,45.34597],[52.80398,45.32315],[52.87169,45.30912],[52.92686,45.30307],[52.98132,45.30136],[53.02963,45.2978],[53.07091,45.29173],[53.10801,45.28964],[53.14197,45.29516],[53.17252,45.30431],[53.19655,45.31217],[53.21204,45.31842],[53.22,45.32302],[53.22565,45.32401],[53.23572,45.32245],[53.25011,45.32253],[53.26185,45.32738],[53.26346,45.3368],[53.25585,45.34657],[53.24144,45.35318],[53.21024,45.35943],[53.16422,45.36859],[53.12844,45.37841],[53.11365,45.38557],[53.1074,45.38962],[53.09509,45.39257],[53.06291,45.39953],[53.00365,45.4157],[52.93527,45.43666],[52.88642,45.45288],[52.86095,45.46423],[52.84677,45.47402],[52.83688,45.48051],[52.82152,45.4846],[52.79176,45.49168],[52.75592,45.50433],[52.73109,45.51963],[52.72119,45.53278],[52.71745,45.54303],[52.71528,45.5538],[52.7164,45.56555],[52.71943,45.57466],[52.7206,45.58072],[52.71954,45.58843],[52.71892,45.60228],[52.72336,45.62042],[52.73826,45.6346],[52.76197,45.64104],[52.78354,45.64701],[52.79625,45.66142],[52.81001,45.6858],[52.83628,45.71618],[52.86631,45.74458],[52.887,45.76276],[52.90193,45.77158],[52.9198,45.78009],[52.93983,45.79641],[52.95376,45.82272],[52.96243,45.8538],[52.98053,45.8808],[53.01122,45.90016],[53.03683,45.91577],[53.0434,45.93213],[53.04022,45.94949],[53.04614,45.96595],[53.05933,45.98305],[53.06534,46.00246],[53.06399,46.01904],[53.06186,46.02872],[53.06258,46.03565],[53.07305,46.04522],[53.09246,46.05925],[53.10455,46.07776],[53.10311,46.10133],[53.0995,46.13765],[53.0975,46.19553],[53.09201,46.26477],[53.08061,46.32437],[53.05887,46.36868],[53.02828,46.40306],[53.00892,46.42379],[53.01907,46.42451],[53.0481,46.41425],[53.06507,46.41038],[53.05441,46.41989],[53.03125,46.43993],[53.01585,46.46453],[53.01873,46.48153],[53.04321,46.48124],[53.06982,46.46828],[53.06417,46.4541],[53.01968,46.45175],[52.9764,46.46927],[52.98343,46.49637],[53.02681,46.51811],[53.04328,46.52936],[53.02976,46.52656],[53.04059,46.51493],[53.07718,46.51404],[53.08789,46.53567],[53.06561,46.56783],[53.05369,46.58628],[53.07029,46.58442],[53.10711,46.58038],[53.15343,46.58694],[53.18345,46.5965],[53.1828,46.59838],[53.17267,46.59358],[53.17908,46.59029],[53.19607,46.59616],[53.19279,46.61568],[53.16518,46.64264],[53.14289,46.66461],[53.13795,46.67732],[53.13652,46.6827],[53.12543,46.68511],[53.09933,46.69319],[53.06589,46.71384],[53.04088,46.74665],[53.02714,46.78693],[53.01587,46.82643],[53.00827,46.85296],[53.01254,46.86036],[53.01773,46.85576],[53.00106,46.85306],[52.96245,46.86247],[52.92352,46.8832],[52.90122,46.90268],[52.88785,46.90958],[52.85567,46.90631],[52.79234,46.90198],[52.71165,46.90136],[52.6331,46.90512],[52.57104,46.91441],[52.52958,46.92895],[52.50415,46.94239],[52.48627,46.94953],[52.47383,46.95375],[52.46543,46.96036],[52.4404,46.96817],[52.40287,46.96761],[52.39759,46.94925],[52.42035,46.91597],[52.41559,46.88019],[52.36476,46.85147],[52.29218,46.83443],[52.2309,46.83119],[52.19885,46.83938],[52.17699,46.85236],[52.14904,46.85758],[52.13805,46.84515],[52.15451,46.82498],[52.17263,46.81389],[52.17629,46.81337],[52.17342,46.815],[52.17277,46.81457],[52.17809,46.81064],[52.18618,46.79792],[52.17295,46.77974],[52.12458,46.77172],[52.07014,46.77823],[52.03555,46.79161],[52.01604,46.8079],[52.00713,46.82148],[52.00943,46.82423],[52.01092,46.82162],[51.99834,46.82682],[51.97688,46.84005],[51.95712,46.85646],[51.94966,46.87515],[51.97327,46.88795],[52.01434,46.89201],[52.02276,46.89925],[51.99842,46.90845],[51.99274,46.90794],[52.01421,46.90005],[52.02465,46.88647],[52.00185,46.86451],[51.95473,46.84455],[51.90925,46.84038],[51.89319,46.85398],[51.90267,46.87553],[51.90098,46.89117],[51.8822,46.895],[51.87135,46.89016],[51.86036,46.88084],[51.82637,46.87162],[51.77721,46.86947],[51.73302,46.87745],[51.70007,46.8917],[51.67149,46.91083],[51.65202,46.93915],[51.65966,46.97433],[51.67496,47.0036],[51.66642,47.01742],[51.65655,47.01895],[51.66905,47.01794],[51.68579,47.01719],[51.68993,47.00921],[51.67547,46.98941],[51.63457,46.96825],[51.57535,46.96408],[51.52453,46.98058],[51.49728,47.0013],[51.48355,47.01259],[51.4614,47.0179],[51.4143,47.02598],[51.34157,47.03955],[51.26599,47.05555],[51.21912,47.06672],[51.19769,47.06591],[51.16434,47.053],[51.10209,47.03562],[51.03693,47.02132],[50.99411,47.00887],[50.95929,46.99427],[50.913,46.98396],[50.8682,46.98504],[50.84949,46.9915],[50.86117,46.99678],[50.87605,47.00273],[50.86702,47.00928],[50.85632,47.0113],[50.86782,46.99932],[50.86246,46.96305],[50.80783,46.91615],[50.74313,46.89317],[50.72768,46.90122],[50.7557,46.91926],[50.76502,46.93527],[50.74732,46.94295],[50.74637,46.93773],[50.75631,46.92464],[50.74133,46.90846],[50.70112,46.89355],[50.66092,46.88734],[50.64574,46.89201],[50.65744,46.89843],[50.67154,46.8911],[50.67089,46.86585],[50.6553,46.83453],[50.63007,46.81132],[50.61193,46.80645],[50.61508,46.81867],[50.62304,46.83441],[50.60797,46.843],[50.57607,46.84213],[50.55604,46.83657],[50.55172,46.83244],[50.54344,46.83031],[50.5184,46.83148],[50.48366,46.8394],[50.45445,46.85164],[50.4367,46.86177],[50.43073,46.86675],[50.4364,46.86887],[50.4478,46.87112],[50.45373,46.86865],[50.44319,46.85023],[50.41759,46.82006],[50.39381,46.80426],[50.37992,46.81405],[50.37448,46.82855],[50.38007,46.82989],[50.38755,46.8214],[50.38329,46.80937],[50.36756,46.79631],[50.34793,46.78629],[50.33402,46.78191],[50.32999,46.78142],[50.32815,46.77858],[50.31595,46.76346],[50.28642,46.73629],[50.24908,46.71528],[50.2299,46.71439],[50.23416,46.72703],[50.23185,46.7392],[50.21518,46.74328],[50.20731,46.74003],[50.20297,46.73062],[50.17656,46.70867],[50.13161,46.67371],[50.0899,46.63953],[50.05484,46.61672],[50.02043,46.60539],[49.99424,46.60219],[49.98355,46.60186],[49.97892,46.59832],[49.96749,46.5892],[49.9479,46.57731],[49.92497,46.56582],[49.89931,46.5562],[49.87382,46.55128],[49.85992,46.55196],[49.85815,46.55085],[49.84901,46.54056],[49.81905,46.52881],[49.78192,46.52826],[49.76366,46.53609],[49.77202,46.54281],[49.78877,46.543],[49.78962,46.53332],[49.76569,46.52151],[49.73083,46.52039],[49.70899,46.52777],[49.71079,46.53497],[49.72627,46.54018],[49.73509,46.53893],[49.71782,46.52978],[49.67712,46.52829],[49.64632,46.54274],[49.64616,46.55481],[49.65512,46.54668],[49.64825,46.52455],[49.63284,46.50678],[49.62152,46.49855],[49.60179,46.49341],[49.5684,46.49328],[49.53872,46.50106],[49.51317,46.51076],[49.48671,46.52261],[49.48056,46.54371],[49.50118,46.56773],[49.51452,46.57578],[49.49411,46.56154],[49.45777,46.53789],[49.44479,46.51705],[49.46643,46.50024],[49.48965,46.48492],[49.48434,46.47277],[49.46099,46.46905],[49.44465,46.47596],[49.45309,46.49022],[49.48408,46.50641],[49.50395,46.51951],[49.48526,46.5243],[49.44487,46.52108],[49.42331,46.51845],[49.43571,46.52213],[49.45678,46.52714],[49.45383,46.52381],[49.42075,46.51391],[49.37423,46.51133],[49.33406,46.52167],[49.31309,46.53665],[49.30641,46.54187],[49.31351,46.52721],[49.34725,46.49909],[49.38068,46.47244],[49.37271,46.45548],[49.33579,46.45139],[49.3006,46.45987],[49.27701,46.47427],[49.26834,46.48526],[49.2704,46.48942],[49.26661,46.491],[49.25934,46.49284],[49.27118,46.49035],[49.2903,46.47632],[49.29342,46.45187],[49.30324,46.4294],[49.34355,46.41907],[49.39336,46.41603],[49.41719,46.40665],[49.39997,46.38806],[49.35311,46.37506],[49.30299,46.37992],[49.26771,46.39671],[49.24683,46.41383],[49.23568,46.42571],[49.23351,46.43098],[49.23463,46.43231],[49.22724,46.43345],[49.21761,46.43634],[49.23287,46.44166],[49.26535,46.44319],[49.27158,46.43019],[49.25625,46.40441],[49.26176,46.37957],[49.27937,46.3638],[49.27007,46.35802],[49.2342,46.36175],[49.20401,46.37138],[49.19399,46.382],[49.18194,46.38705],[49.15943,46.38012],[49.15196,46.366],[49.16245,46.35647],[49.17645,46.35572],[49.20376,46.35878],[49.24503,46.3577],[49.2743,46.34991],[49.27649,46.33882],[49.25414,46.32351],[49.22778,46.30015],[49.23217,46.27503],[49.27373,46.25854],[49.31404,46.24648],[49.31354,46.23147],[49.27804,46.22186],[49.24228,46.2242],[49.22121,46.23078],[49.20206,46.23669],[49.17741,46.24747],[49.16772,46.2684],[49.18157,46.2923],[49.18926,46.30493],[49.17903,46.30368],[49.16724,46.29458],[49.1537,46.28164],[49.13796,46.27179],[49.1302,46.26704],[49.12637,46.25957],[49.11441,46.24817],[49.08998,46.23687],[49.0652,46.22633],[49.06293,46.22007],[49.09237,46.21667],[49.13202,46.20041],[49.14123,46.16662],[49.10903,46.13895],[49.06669,46.13665],[49.04077,46.1496],[49.03563,46.15935],[49.04655,46.16148],[49.06279,46.16159],[49.07113,46.16047],[49.06406,46.15412],[49.04423,46.14365],[49.01947,46.1325],[48.99732,46.12462],[48.97998,46.12387],[48.96444,46.12225],[48.96146,46.11086],[48.97812,46.09511],[48.98747,46.07934],[48.97319,46.06677],[48.96062,46.06972],[48.95967,46.0897],[48.94049,46.10902],[48.90108,46.11691],[48.88335,46.12052],[48.90103,46.12714],[48.92466,46.12928],[48.92522,46.11601],[48.89445,46.09886],[48.85164,46.09735],[48.83105,46.10887],[48.83868,46.12129],[48.8498,46.12586],[48.86308,46.11733],[48.88652,46.09784],[48.88842,46.0742],[48.85775,46.06285],[48.83503,46.07574],[48.83159,46.097],[48.8255,46.10748],[48.81791,46.10583],[48.82669,46.09574],[48.85143,46.07939],[48.86219,46.05797],[48.84353,46.04091],[48.82634,46.04452],[48.82648,46.06467],[48.81019,46.07897],[48.76635,46.08173],[48.7322,46.0837],[48.72275,46.0868],[48.71192,46.08669],[48.69167,46.0855],[48.68706,46.08709],[48.70312,46.09033],[48.71745,46.09285],[48.72074,46.09223],[48.71447,46.08349],[48.69694,46.06793],[48.67305,46.05559],[48.65232,46.04963],[48.6414,46.0449],[48.64279,46.03916],[48.65264,46.03037],[48.6714,46.01852],[48.70633,46.00943],[48.74553,46.00187],[48.76102,45.98873],[48.74863,45.97221],[48.72794,45.95981],[48.71236,45.95345],[48.70357,45.95203],[48.69408,45.95468],[48.67444,45.95417],[48.6588,45.94394],[48.66879,45.93286],[48.69213,45.93025],[48.70768,45.93238],[48.71954,45.93635],[48.74354,45.94174],[48.77751,45.94146],[48.79846,45.93245],[48.79447,45.92141],[48.77557,45.91129],[48.7673,45.90376],[48.77896,45.89877],[48.78599,45.88295],[48.78318,45.8529],[48.78249,45.82768],[48.77902,45.81701],[48.77255,45.81227],[48.76594,45.80867],[48.759,45.80765],[48.74659,45.80463],[48.72157,45.80225],[48.70561,45.81416],[48.71973,45.83722],[48.73932,45.85474],[48.7309,45.85928],[48.69382,45.85651],[48.65264,45.85829],[48.62777,45.86581],[48.61991,45.87054],[48.61918,45.87113],[48.62136,45.87473],[48.63428,45.88952],[48.6507,45.91073],[48.63913,45.92247],[48.59794,45.92423],[48.56587,45.92722],[48.56078,45.93057],[48.56505,45.92915],[48.56291,45.9245],[48.55092,45.91759],[48.52802,45.90897],[48.50236,45.90314],[48.48986,45.90278],[48.49132,45.90396],[48.49017,45.89943],[48.47424,45.88394],[48.44355,45.86104],[48.40779,45.84335],[48.38627,45.83955],[48.38369,45.84499],[48.37704,45.84615],[48.36241,45.83576],[48.36799,45.82342],[48.39813,45.81875],[48.41444,45.81518],[48.38819,45.80765],[48.3466,45.80448],[48.3304,45.80961],[48.33567,45.81393],[48.33975,45.80778],[48.33553,45.79093],[48.32259,45.76999],[48.30087,45.75133],[48.27524,45.73848],[48.25695,45.73409],[48.25588,45.74018],[48.26702,45.75167],[48.27647,45.75869],[48.28135,45.7574],[48.28365,45.74564],[48.27265,45.72158],[48.23934,45.69829],[48.19895,45.69236],[48.17186,45.6977],[48.15101,45.6999],[48.12025,45.70095],[48.0925,45.70674],[48.0864,45.71176],[48.08832,45.70916],[48.07925,45.70053],[48.06612,45.69333],[48.06024,45.69057],[48.0513,45.68695],[48.0279,45.68506],[48.00394,45.69475],[47.98695,45.70682],[47.96533,45.70625],[47.94651,45.69964],[47.94508,45.6963],[47.95716,45.69487],[47.97195,45.69418],[47.97824,45.69309],[47.97241,45.69035],[47.96251,45.68666],[47.95365,45.68363],[47.94576,45.6883],[47.93486,45.70191],[47.91108,45.70811],[47.8839,45.70024],[47.87809,45.69352],[47.89012,45.69427],[47.89866,45.69038],[47.8975,45.67696],[47.89265,45.66571],[47.89187,45.65995],[47.89512,45.64666],[47.89356,45.62328],[47.87871,45.60193],[47.84911,45.59475],[47.82207,45.61182],[47.8157,45.64687],[47.81388,45.67434],[47.78941,45.67891],[47.75148,45.67292],[47.72878,45.67787],[47.71779,45.68913],[47.70554,45.68751],[47.70603,45.67819],[47.71964,45.67417],[47.72253,45.67234],[47.70704,45.66862],[47.6857,45.66594],[47.66832,45.66633],[47.65796,45.67301],[47.66308,45.69158],[47.68364,45.71639],[47.69966,45.73503],[47.69422,45.74473],[47.66368,45.74453],[47.6215,45.73559],[47.59177,45.72856],[47.57992,45.72869],[47.57871,45.73289],[47.58692,45.74085],[47.5966,45.74738],[47.59526,45.73986],[47.5861,45.72105],[47.58372,45.71146],[47.59858,45.72006],[47.62083,45.73055],[47.6225,45.72251],[47.60294,45.70015],[47.5961,45.68558],[47.61917,45.68782],[47.65387,45.69541],[47.67518,45.6961],[47.67996,45.68902],[47.6761,45.67482],[47.6642,45.65534],[47.65067,45.64211],[47.64818,45.64529],[47.65537,45.65832],[47.662,45.66485],[47.66065,45.65667],[47.65182,45.63865],[47.65151,45.6227],[47.66144,45.61216],[47.6614,45.59797],[47.65201,45.57944],[47.64329,45.56629],[47.63455,45.56647],[47.63181,45.5844],[47.62735,45.613],[47.59615,45.63375],[47.54674,45.63774],[47.50731,45.63438],[47.47595,45.63582],[47.44441,45.64432],[47.42448,45.656],[47.43121,45.66807],[47.45843,45.67789],[47.47818,45.68217],[47.4826,45.68212],[47.4894,45.68301],[47.491,45.68716],[47.46884,45.69676],[47.44128,45.71503],[47.42509,45.72984],[47.41271,45.72747],[47.40954,45.7206],[47.41957,45.72542],[47.43021,45.73767],[47.43908,45.7434],[47.45161,45.73422],[47.46322,45.71711],[47.46779,45.706],[47.46279,45.70043],[47.44548,45.68621],[47.42818,45.6618],[47.42724,45.64345],[47.43672,45.64204],[47.45335,45.65568],[47.47698,45.669],[47.48832,45.66092],[47.48609,45.63563],[47.49587,45.61914],[47.52937,45.62087],[47.57152,45.62741],[47.59569,45.62619],[47.59254,45.61558],[47.57897,45.59852],[47.57234,45.58074],[47.57256,45.56786],[47.57158,45.55938],[47.56631,45.55231],[47.55862,45.54606],[47.55005,45.54194],[47.53934,45.5435],[47.5267,45.55413],[47.51566,45.57056],[47.50732,45.58215],[47.50082,45.58195],[47.49774,45.57416],[47.50028,45.56416],[47.5095,45.54974],[47.52302,45.5307],[47.53375,45.51483],[47.53548,45.50571],[47.52656,45.49684],[47.51229,45.48421],[47.50229,45.47074],[47.49946,45.45709],[47.49807,45.44267],[47.48884,45.43104],[47.4644,45.42509],[47.43033,45.42251],[47.40319,45.41859],[47.39521,45.41196],[47.40859,45.40551],[47.43348,45.40108],[47.45264,45.39669],[47.45843,45.39003],[47.4549,45.38193],[47.44673,45.37474],[47.43747,45.36962],[47.43076,45.36598],[47.42563,45.36015],[47.41641,45.34624],[47.40224,45.32418],[47.38984,45.29752],[47.38301,45.26274],[47.37773,45.22287],[47.36865,45.19539],[47.35424,45.18762],[47.3361,45.18947],[47.3174,45.18935],[47.30137,45.17962],[47.28848,45.15637],[47.27653,45.12343],[47.26363,45.0904],[47.24864,45.0605],[47.23183,45.02929],[47.21528,44.99909],[47.19938,44.97948],[47.1835,44.97055],[47.16918,44.96168],[47.15778,44.94872],[47.14839,44.93962],[47.13871,44.94105],[47.12666,44.9485],[47.11386,44.95346],[47.1056,44.94804],[47.10352,44.92212],[47.10073,44.87669],[47.09247,44.83193],[47.08383,44.80383],[47.07791,44.792],[47.0694,44.79455],[47.05366,44.81149],[47.03478,44.8374],[47.02074,44.8663],[47.01184,44.8936],[47.00307,44.90984],[46.99466,44.9079],[46.99161,44.89208],[46.99592,44.87101],[47.00319,44.85026],[47.00522,44.83098],[46.99623,44.81037],[46.97901,44.78904],[46.96056,44.7748],[46.94183,44.76957],[46.91942,44.76403],[46.89459,44.75271],[46.87314,44.73863],[46.85738,44.72421],[46.84282,44.711],[46.82276,44.7018],[46.79661,44.69322],[46.77023,44.67892],[46.74763,44.66246],[46.73009,44.64631],[46.71898,44.6217],[46.71439,44.5909],[46.71539,44.56906],[46.71925,44.55828],[46.72074,44.55117],[46.71637,44.54607],[46.70719,44.54319],[46.69689,44.54031],[46.68895,44.53458],[46.68614,44.52224],[46.68953,44.50046],[46.6968,44.47355],[46.70564,44.45004],[46.71829,44.43219],[46.73646,44.41709],[46.75793,44.40458],[46.78284,44.39697],[46.81071,44.3947],[46.84337,44.39339],[46.89515,44.38622],[46.96319,44.37291],[47.01633,44.35883],[47.04285,44.34307],[47.0575,44.32012],[47.06963,44.2925],[47.08074,44.26894],[47.09279,44.25188],[47.10693,44.23792],[47.12164,44.22634],[47.13546,44.21819],[47.14956,44.21185],[47.1647,44.20645],[47.17978,44.20551],[47.1946,44.21177],[47.21006,44.22046],[47.2272,44.22018],[47.24694,44.19998],[47.26897,44.15809],[47.29223,44.10784],[47.31466,44.06817],[47.33357,44.04522],[47.34932,44.02863],[47.36653,44.00329],[47.38776,43.96717],[47.40817,43.93296],[47.42186,43.90807],[47.43033,43.89055],[47.4398,43.87875],[47.45133,43.87002],[47.45855,43.8602],[47.45711,43.8474],[47.45121,43.83392],[47.44935,43.82499],[47.45593,43.82274],[47.46829,43.82342],[47.48128,43.82015],[47.49229,43.80759],[47.49974,43.78898],[47.49989,43.77353],[47.4903,43.76449],[47.47521,43.75845],[47.46194,43.75233],[47.45273,43.74446],[47.44673,43.73232],[47.4459,43.7147],[47.44919,43.69633],[47.44953,43.68361],[47.44413,43.67674],[47.43582,43.67046],[47.425,43.65767],[47.41079,43.63749],[47.39549,43.62107],[47.38283,43.61696],[47.37457,43.61825],[47.37057,43.61373],[47.37083,43.60013],[47.37521,43.58165],[47.38294,43.56493],[47.39269,43.55253],[47.40115,43.54116],[47.40644,43.52792],[47.41348,43.51596],[47.42791,43.51329],[47.44701,43.52668],[47.46335,43.55535],[47.47312,43.59037],[47.47773,43.6205],[47.48076,43.64012],[47.48519,43.65191],[47.49213,43.66156],[47.49992,43.67356],[47.50509,43.69025],[47.5079,43.70979],[47.51334,43.72947],[47.52328,43.75101],[47.53373,43.77645],[47.54082,43.80387],[47.54405,43.82944],[47.5457,43.8498],[47.55085,43.86512],[47.56376,43.87874],[47.58231,43.89062],[47.60272,43.89705],[47.62586,43.89747],[47.65192,43.89374],[47.673,43.88399],[47.67342,43.86123],[47.64537,43.81549],[47.60073,43.7381],[47.55714,43.63711],[47.5233,43.54144],[47.50076,43.47168],[47.48991,43.42285],[47.48921,43.384],[47.49185,43.35302],[47.49216,43.33017],[47.49282,43.31308],[47.4997,43.30243],[47.51454,43.30286],[47.53406,43.31285],[47.55296,43.32332],[47.56761,43.32833],[47.57735,43.32717],[47.58319,43.32075],[47.58593,43.31121],[47.58543,43.3013],[47.5816,43.29227],[47.57461,43.2822],[47.56301,43.26949],[47.54534,43.25609],[47.52471,43.24348],[47.50643,43.23019],[47.49361,43.2152],[47.48791,43.19946],[47.48709,43.18442],[47.48574,43.17129],[47.48308,43.15984],[47.48219,43.14893],[47.48284,43.13809],[47.48112,43.12724],[47.47447,43.11642],[47.46538,43.10598],[47.45924,43.09209],[47.4628,43.06476],[47.48597,43.02181],[47.52893,42.97841],[47.57163,42.94912],[47.59706,42.93202],[47.61433,42.91725],[47.64175,42.89865],[47.67618,42.8775],[47.69968,42.85861],[47.70873,42.84365],[47.712,42.82957],[47.71428,42.80966],[47.71658,42.78449],[47.71885,42.76498],[47.72003,42.75456],[47.71943,42.74441],[47.71886,42.72582],[47.72267,42.69778],[47.73832,42.66638],[47.77353,42.63677],[47.82447,42.60475],[47.88001,42.55772],[47.93508,42.49473],[47.98613,42.43604],[48.03043,42.39593],[48.07439,42.35989],[48.12996,42.30024],[48.19424,42.22083],[48.24733,42.15813],[48.28071,42.12456],[48.30054,42.10281],[48.31187,42.08194],[48.32261,42.05574],[48.34477,42.01432],[48.38054,41.96332],[48.42175,41.92452],[48.46453,41.90446],[48.50804,41.89032],[48.54555,41.87315],[48.56977,41.85636],[48.58349,41.84508],[48.59891,41.83563],[48.62744,41.81694],[48.67333,41.77945],[48.72667,41.73072],[48.76767,41.69111],[48.79273,41.6633],[48.82,41.63038],[48.8587,41.5859],[48.89648,41.54456],[48.92283,41.51914],[48.94036,41.50417],[48.95423,41.48977],[48.96767,41.47339],[48.9805,41.45786],[48.99095,41.44715],[49.00176,41.44104],[49.01556,41.43561],[49.03142,41.42469],[49.05181,41.39975],[49.07816,41.36098],[49.1039,41.32261],[49.12268,41.29501],[49.13522,41.26999],[49.14505,41.23318],[49.15425,41.18899],[49.16321,41.15656],[49.17243,41.13637],[49.1854,41.1073],[49.21357,41.05568],[49.26665,40.98819],[49.32762,40.92626],[49.36786,40.88757],[49.38922,40.86748],[49.41252,40.8526],[49.44196,40.84053],[49.46889,40.83175],[49.49033,40.82194],[49.509,40.80991],[49.52477,40.79774],[49.53301,40.78274],[49.53074,40.76066],[49.52223,40.73495],[49.51509,40.71374],[49.51253,40.69966],[49.51407,40.68956],[49.51928,40.68048],[49.52617,40.67216],[49.5315,40.6659],[49.53613,40.66054],[49.54463,40.65291],[49.55862,40.64286],[49.57661,40.6337],[49.59945,40.62765],[49.62615,40.62358],[49.65157,40.61797],[49.67545,40.60767],[49.70202,40.5945],[49.73429,40.58343],[49.77222,40.57555],[49.80891,40.56976],[49.83939,40.56809],[49.87,40.57271],[49.90999,40.58056],[49.96327,40.58515],[50.01827,40.5837],[50.05321,40.57827],[50.0655,40.57144],[50.07062,40.56383],[50.07892,40.55416],[50.09278,40.54207],[50.11513,40.52961],[50.1521,40.51796],[50.19739,40.50657],[50.23165,40.49415],[50.25006,40.47844],[50.26353,40.45959],[50.27907,40.44224],[50.29745,40.42958],[50.31706,40.41855],[50.33517,40.40427],[50.34998,40.38198],[50.36163,40.34691],[50.37115,40.30625],[50.37931,40.2753],[50.38584,40.25503],[50.38818,40.24047],[50.38257,40.23778],[50.36809,40.25143],[50.34596,40.27451],[50.31647,40.29914],[50.28356,40.32051],[50.25307,40.33497],[50.22252,40.34341],[50.18803,40.34987],[50.15554,40.35544],[50.13195,40.35833],[50.11615,40.35779],[50.1022,40.35547],[50.08395,40.35319],[50.05977,40.34962],[50.03313,40.34191],[50.00839,40.33266],[49.98936,40.32903],[49.97644,40.33372],[49.96612,40.34269],[49.95505,40.35058],[49.93999,40.35611],[49.91917,40.36085],[49.89477,40.3624],[49.87067,40.35481],[49.85112,40.33735],[49.83453,40.31572],[49.80955,40.29552],[49.7677,40.27813],[49.71163,40.26061],[49.65037,40.24092],[49.59597,40.22097],[49.55562,40.20137],[49.52699,40.18219],[49.50751,40.16559],[49.49744,40.1497],[49.49474,40.13075],[49.49196,40.11107],[49.47859,40.09421],[49.45651,40.07863],[49.4415,40.06161],[49.44104,40.04362],[49.44928,40.02782],[49.46013,40.01626],[49.47079,40.00736],[49.47851,39.99877],[49.4804,39.99052],[49.47533,39.98326],[49.46496,39.97607],[49.45297,39.96881],[49.44283,39.96248],[49.43544,39.95573],[49.43014,39.94667],[49.42703,39.93573],[49.4274,39.92253],[49.43195,39.90609],[49.43789,39.88887],[49.43996,39.87457],[49.43612,39.86399],[49.42914,39.85612],[49.4228,39.84948],[49.4189,39.8426],[49.41764,39.83552],[49.41864,39.82916],[49.42082,39.82327],[49.42211,39.81716],[49.41991,39.81105],[49.41296,39.80431],[49.40421,39.79541],[49.39886,39.78533],[49.39828,39.77622],[49.39952,39.76705],[49.40207,39.75515],[49.40881,39.73985],[49.41667,39.72398],[49.41631,39.71122],[49.40367,39.70033],[49.38263,39.68641],[49.35932,39.6675],[49.33919,39.64569],[49.32538,39.6241],[49.31621,39.60452],[49.30765,39.58552],[49.29907,39.56489],[49.29235,39.54286],[49.28914,39.52036],[49.2961,39.49531],[49.32364,39.46348],[49.36456,39.42891],[49.39485,39.40339],[49.40581,39.39006],[49.40646,39.38128],[49.40397,39.36889],[49.40166,39.35202],[49.40125,39.33739],[49.40019,39.33043],[49.39525,39.33103],[49.38769,39.33635],[49.38049,39.3431],[49.37484,39.34746],[49.37225,39.34514],[49.37467,39.33515],[49.38237,39.32138],[49.39307,39.30857],[49.40082,39.29931],[49.39871,39.29541],[49.38702,39.29852],[49.36994,39.30883],[49.34519,39.32348],[49.31135,39.33364],[49.27756,39.32881],[49.25405,39.30316],[49.24255,39.25564],[49.23818,39.20043],[49.23454,39.15958],[49.22814,39.13367],[49.22011,39.1102],[49.2135,39.08507],[49.20843,39.05954],[49.19802,39.03498],[49.17109,39.01022],[49.12844,38.98752],[49.08807,38.9768],[49.06459,38.98095],[49.05664,38.9911],[49.056,39.00031],[49.06096,39.00827],[49.07658,39.01577],[49.1004,39.02324],[49.12173,39.0326],[49.13586,39.04619],[49.14362,39.06385],[49.14329,39.08266],[49.13163,39.09844],[49.10909,39.10848],[49.08519,39.11672],[49.07068,39.13147],[49.06362,39.15266],[49.05489,39.17117],[49.03906,39.18214],[49.01535,39.18685],[48.9898,39.1867],[48.97198,39.18235],[48.96335,39.17445],[48.95813,39.16421],[48.95365,39.15385],[48.95082,39.14467],[48.94876,39.13661],[48.94565,39.13052],[48.94174,39.12734],[48.9384,39.12305],[48.93649,39.10895],[48.9372,39.08349],[48.94176,39.05565],[48.94588,39.02784],[48.94152,38.99326],[48.92862,38.95509],[48.91424,38.92435],[48.90137,38.90281],[48.88605,38.88651],[48.86492,38.87329],[48.84507,38.85909],[48.83624,38.84055],[48.83821,38.819],[48.84695,38.78543],[48.85889,38.71378],[48.86857,38.60109],[48.87368,38.49094],[48.87542,38.41535],[48.87447,38.36316],[48.87282,38.32158],[48.87446,38.28531],[48.8818,38.24152],[48.89588,38.1753],[48.91583,38.08654],[48.934,38.00365],[48.94228,37.95257],[48.94407,37.92567],[48.94902,37.90416],[48.96173,37.87964],[48.97705,37.85414],[48.98564,37.83502],[48.98707,37.82191],[48.98967,37.80431],[49.00135,37.77429],[49.02848,37.73157],[49.07462,37.68077],[49.14203,37.62806],[49.23428,37.57695],[49.3598,37.5305],[49.53124,37.49372],[49.7164,37.471],[49.84302,37.46436],[49.90049,37.46743],[49.93231,37.4685],[49.95303,37.46469],[49.95717,37.46152],[49.9507,37.46087],[49.94837,37.45801],[49.97247,37.44737],[50.03707,37.42887],[50.12002,37.40781],[50.18322,37.38638],[50.21478,37.3621],[50.22731,37.33575],[50.23542,37.31009],[50.2454,37.28616],[50.25768,37.26303],[50.27395,37.23446],[50.29661,37.1973],[50.32782,37.15853],[50.37097,37.12145],[50.42194,37.08355],[50.46564,37.05093],[50.49984,37.02868],[50.54287,37.007],[50.59618,36.98167],[50.63818,36.96203],[50.66391,36.9483],[50.69338,36.93028],[50.75558,36.89741],[50.86144,36.84506],[50.99409,36.78608],[51.15219,36.73614],[51.34289,36.69466],[51.54211,36.65677],[51.72947,36.62444],[51.90997,36.60756],[52.08711,36.61715],[52.2602,36.6479],[52.43257,36.68264],[52.60601,36.71401],[52.77838,36.74626],[52.95839,36.78428],[53.1596,36.8269],[53.37193,36.86469],[53.58495,36.88974],[53.78545,36.90718],[53.92557,36.92305],[53.98221,36.92944],[53.97932,36.91986],[53.93994,36.90404],[53.88683,36.89195],[53.8444,36.88379],[53.81873,36.87946],[53.7999,36.87971],[53.77997,36.88134],[53.75868,36.8801],[53.73532,36.87658],[53.70394,36.87494],[53.66412,36.87539],[53.63223,36.87371],[53.62442,36.86902],[53.63544,36.86482],[53.6462,36.86224],[53.64744,36.85837],[53.65039,36.84934],[53.6762,36.83483],[53.73671,36.81977],[53.81157,36.80832],[53.87083,36.80248],[53.9226,36.80557],[53.97777,36.81714],[54.01595,36.83706],[54.02898,36.87367],[54.02978,36.92178],[54.02417,36.9574],[54.01314,36.97332],[54.00378,36.98407],[54.00278,37.00162],[54.00381,37.02794],[53.99554,37.0628],[53.97729,37.11113],[53.95516,37.1709],[53.93536,37.22762],[53.92231,37.27583],[53.91483,37.3232],[53.90783,37.37915],[53.89745,37.44366],[53.88385,37.50068],[53.8708,37.54082],[53.85963,37.58004],[53.84517,37.65544],[53.82599,37.79081],[53.81177,37.94124],[53.81038,38.03934],[53.81932,38.09099],[53.83267,38.13929],[53.84505,38.19074],[53.85335,38.23343],[53.85832,38.27189],[53.8602,38.31604],[53.85853,38.3586],[53.85441,38.38614],[53.84916,38.40064],[53.84432,38.412],[53.84009,38.42807],[53.83443,38.45553],[53.82828,38.49484],[53.82685,38.54265],[53.83286,38.59479],[53.84628,38.64384],[53.86844,38.68853],[53.89421,38.73189],[53.91162,38.76967],[53.91936,38.79703],[53.926,38.81639],[53.93406,38.83357],[53.94205,38.85129],[53.95095,38.8686],[53.96104,38.88506],[53.96946,38.89968],[53.97248,38.91031],[53.97007,38.91949],[53.9636,38.9318],[53.95099,38.94488],[53.93409,38.95346],[53.92163,38.95825],[53.91737,38.96321],[53.91599,38.96874],[53.91175,38.97299],[53.90476,38.97555],[53.89723,38.97762],[53.88976,38.98137],[53.88357,38.98827],[53.87971,38.99834],[53.87651,39.01154],[53.86899,39.02555],[53.85162,39.03574],[53.82653,39.04111],[53.80333,39.04387],[53.7872,39.04414],[53.77684,39.04143],[53.77067,39.03815],[53.76567,39.03827],[53.75663,39.04599],[53.74287,39.06468],[53.72944,39.08879],[53.71957,39.10334],[53.71371,39.10079],[53.71369,39.08772],[53.7192,39.07394],[53.72507,39.06538],[53.72484,39.06389],[53.71565,39.06916],[53.70313,39.08127],[53.69609,39.09979],[53.6949,39.1208],[53.69481,39.13881],[53.69737,39.152],[53.7052,39.16215],[53.71121,39.17155],[53.70958,39.18438],[53.70709,39.20443],[53.70553,39.22382],[53.69545,39.22862],[53.67804,39.21851],[53.66726,39.19818],[53.66859,39.1633],[53.67248,39.12513],[53.66742,39.1109],[53.65275,39.12188],[53.63749,39.13939],[53.62882,39.15693],[53.62491,39.17456],[53.61935,39.18873],[53.61106,39.19878],[53.60531,39.20888],[53.60366,39.22111],[53.60168,39.23244],[53.59585,39.23654],[53.58653,39.22833],[53.57678,39.21392],[53.56911,39.2091],[53.56562,39.22373],[53.56791,39.25254],[53.57155,39.27987],[53.57205,39.29799],[53.57226,39.31253],[53.5721,39.32402],[53.56704,39.32886],[53.56044,39.33316],[53.55807,39.34226],[53.55527,39.34923],[53.54628,39.34745],[53.53468,39.34185],[53.5223,39.3387],[53.50324,39.33627],[53.47755,39.33116],[53.45545,39.32568],[53.44322,39.32592],[53.43748,39.3317],[53.43223,39.33455],[53.42456,39.33011],[53.41468,39.3227],[53.40418,39.31748],[53.3962,39.31732],[53.39362,39.32353],[53.39403,39.33293],[53.39125,39.33942],[53.38396,39.34131],[53.37609,39.34076],[53.36986,39.33885],[53.3654,39.33646],[53.36277,39.33565],[53.36005,39.33803],[53.35439,39.34238],[53.34419,39.34456],[53.32913,39.34215],[53.31217,39.33797],[53.29913,39.33683],[53.2937,39.34016],[53.294,39.34577],[53.29354,39.35078],[53.28753,39.35379],[53.27724,39.35576],[53.26535,39.35894],[53.25194,39.36343],[53.23422,39.36605],[53.2082,39.36336],[53.18052,39.35479],[53.1693,39.3432],[53.1766,39.33166],[53.1827,39.31945],[53.1779,39.30479],[53.17052,39.28855],[53.16782,39.27038],[53.17021,39.2469],[53.17391,39.21961],[53.17346,39.19707],[53.16611,39.19354],[53.15338,39.22536],[53.13867,39.28427],[53.12164,39.33855],[53.10259,39.37495],[53.09057,39.40005],[53.09276,39.41881],[53.10564,39.43464],[53.12066,39.44918],[53.13099,39.46198],[53.13758,39.474],[53.14648,39.48677],[53.16085,39.50491],[53.18152,39.53781],[53.2086,39.58504],[53.24066,39.62902],[53.27272,39.65373],[53.29196,39.65848],[53.2888,39.65062],[53.27082,39.63533],[53.25226,39.61597],[53.23976,39.59651],[53.2315,39.57975],[53.2236,39.56515],[53.21985,39.54987],[53.23458,39.53668],[53.2805,39.5327],[53.34821,39.53594],[53.4077,39.53653],[53.44074,39.52929],[53.4554,39.51646],[53.46673,39.5031],[53.48043,39.49274],[53.49684,39.48578],[53.51841,39.48106],[53.54339,39.47711],[53.5627,39.47403],[53.57195,39.47434],[53.5753,39.47946],[53.57702,39.48757],[53.5762,39.49548],[53.57106,39.50221],[53.56745,39.51062],[53.5736,39.5193],[53.58781,39.52014],[53.60325,39.51198],[53.61858,39.50467],[53.63692,39.50659],[53.65857,39.5153],[53.67958,39.52146],[53.69749,39.52048],[53.71204,39.5165],[53.72214,39.51566],[53.7272,39.52006],[53.72734,39.52828],[53.72179,39.53786],[53.70804,39.54668],[53.6842,39.55448],[53.65693,39.56223],[53.64077,39.5701],[53.64072,39.57753],[53.64667,39.58525],[53.64899,39.59545],[53.64493,39.60774],[53.63235,39.61759],[53.61004,39.62174],[53.58496,39.62329],[53.56843,39.62864],[53.5624,39.63955],[53.56021,39.65265],[53.5557,39.66499],[53.54663,39.67224],[53.53755,39.66763],[53.53418,39.65286],[53.53295,39.64262],[53.52364,39.65012],[53.50195,39.67183],[53.47516,39.69147],[53.4552,39.6973],[53.44823,39.69085],[53.44924,39.68267],[53.44744,39.68121],[53.43917,39.68317],[53.43155,39.6791],[53.43255,39.6662],[53.43819,39.65169],[53.43547,39.64682],[53.42366,39.66167],[53.41638,39.6973],[53.41645,39.73582],[53.41399,39.75653],[53.40577,39.76101],[53.39589,39.7625],[53.3894,39.76681],[53.39514,39.77725],[53.41994,39.79974],[53.45463,39.83112],[53.4797,39.85686],[53.48708,39.87056],[53.48542,39.87879],[53.48591,39.88607],[53.4928,39.89157],[53.50495,39.8949],[53.5185,39.89715],[53.52829,39.90005],[53.53172,39.90477],[53.53046,39.91085],[53.53,39.91811],[53.53611,39.92762],[53.54798,39.93948],[53.55927,39.95211],[53.5654,39.96246],[53.56615,39.96753],[53.56431,39.968],[53.56186,39.96751],[53.55649,39.96967],[53.54384,39.9746],[53.52306,39.97868],[53.49884,39.98145],[53.47655,39.98701],[53.45706,39.99603],[53.43864,40.00424],[53.42025,40.00855],[53.40172,40.00863],[53.38184,40.00302],[53.35793,39.98941],[53.33245,39.97207],[53.31284,39.95955],[53.30023,39.95281],[53.29067,39.94816],[53.28235,39.94612],[53.27326,39.94826],[53.26208,39.9529],[53.24729,39.95963],[53.22236,39.97184],[53.18809,39.98589],[53.15802,39.99093],[53.13503,39.98599],[53.10747,39.97946],[53.07743,39.97705],[53.06134,39.97992],[53.0622,39.98606],[53.06534,39.99127],[53.05247,39.99117],[53.01915,39.98615],[52.98115,39.98421],[52.95236,39.99251],[52.9313,40.00681],[52.91318,40.01453],[52.90026,40.00988],[52.89809,39.99775],[52.90499,39.98279],[52.91322,39.96406],[52.91998,39.93886],[52.9293,39.91022],[52.94459,39.88563],[52.96444,39.8647],[52.98777,39.83956],[53.01456,39.80975],[53.03853,39.78563],[53.04893,39.77439],[53.0417,39.77406],[53.02898,39.77588],[53.02744,39.76948],[53.03359,39.758],[53.03041,39.75568],[53.01296,39.76795],[52.98962,39.79168],[52.96782,39.82069],[52.94698,39.8451],[52.92506,39.86169],[52.90628,39.87797],[52.89502,39.90028],[52.88383,39.92822],[52.85574,39.96122],[52.80928,39.99751],[52.76696,40.03092],[52.74585,40.06111],[52.74305,40.09125],[52.74884,40.11749],[52.75585,40.13738],[52.75825,40.15559],[52.7517,40.17546],[52.74164,40.19461],[52.73699,40.21012],[52.73258,40.22476],[52.71981,40.24552],[52.70714,40.28426],[52.70938,40.35428],[52.72624,40.44165],[52.74975,40.51233],[52.78078,40.56285],[52.81762,40.61017],[52.84639,40.65348],[52.8574,40.68383],[52.85257,40.70014],[52.83967,40.70781],[52.82931,40.71435],[52.82727,40.72392],[52.82971,40.73423],[52.83164,40.74195],[52.83525,40.74815],[52.84427,40.75395],[52.85524,40.75806],[52.86208,40.76132],[52.86389,40.76673],[52.86277,40.7747],[52.86181,40.78744],[52.86786,40.81661],[52.88559,40.86829],[52.90651,40.92862],[52.91676,40.98458],[52.91677,41.03365],[52.91974,41.06698],[52.93199,41.0769],[52.94655,41.07085],[52.95539,41.06003],[52.95797,41.04907],[52.95704,41.03824],[52.95562,41.02644],[52.95966,41.01069],[52.97472,40.98777],[52.99632,40.95975],[53.01463,40.93185],[53.02984,40.90744],[53.04755,40.88887],[53.06592,40.87707],[53.08154,40.87132],[53.09549,40.87012],[53.10628,40.87051],[53.10824,40.86858],[53.09851,40.86262],[53.08211,40.85367],[53.07039,40.84278],[53.07115,40.83187],[53.0813,40.82279],[53.09165,40.81388],[53.09696,40.80382],[53.09931,40.7938],[53.10335,40.78493],[53.11292,40.77824],[53.13113,40.77424],[53.15597,40.77288],[53.18185,40.7765],[53.20874,40.78842],[53.23441,40.80267],[53.248,40.80533],[53.24818,40.794],[53.25192,40.78129],[53.27457,40.77678],[53.30734,40.77928],[53.32898,40.78516],[53.33552,40.79373],[53.33807,40.80485],[53.34437,40.81728],[53.3557,40.82839],[53.36868,40.834],[53.37687,40.83174],[53.37707,40.82268],[53.37386,40.80948],[53.37503,40.79448],[53.38473,40.77959],[53.40154,40.76711],[53.4206,40.75847],[53.43757,40.75278],[53.45108,40.74781],[53.46211,40.74316],[53.47178,40.7408],[53.48099,40.7419],[53.49255,40.74633],[53.51004,40.75412],[53.53071,40.76485],[53.54609,40.77979],[53.55296,40.80204],[53.55688,40.83029],[53.5651,40.85876],[53.57856,40.88144],[53.5927,40.89361],[53.60521,40.89614],[53.61612,40.8936],[53.62413,40.88804],[53.62913,40.88131],[53.63447,40.87647],[53.64228,40.87361],[53.64934,40.87],[53.65211,40.86487],[53.65141,40.85954],[53.64932,40.85451],[53.64725,40.84845],[53.64733,40.83897],[53.65093,40.82677],[53.65638,40.81607],[53.6594,40.80785],[53.6573,40.79983],[53.65271,40.79082],[53.65183,40.77801],[53.65871,40.75725],[53.67184,40.7323],[53.68691,40.71417],[53.70039,40.70648],[53.70987,40.70224],[53.71508,40.696],[53.71639,40.68773],[53.71303,40.67694],[53.70812,40.66282],[53.71138,40.64779],[53.7303,40.63667],[53.76435,40.63252],[53.80703,40.63306],[53.8465,40.636],[53.87545,40.64384],[53.90016,40.6568],[53.92531,40.66897],[53.94666,40.67441],[53.96534,40.67249],[53.98632,40.66757],[54.0083,40.66528],[54.02924,40.66787],[54.05036,40.6734],[54.06947,40.67938],[54.08169,40.68515],[54.08726,40.69095],[54.0882,40.69699],[54.08229,40.70376],[54.07367,40.71081],[54.079,40.71602],[54.10504,40.71936],[54.14079,40.72374],[54.17826,40.72859],[54.21007,40.72969],[54.22485,40.72501],[54.22377,40.71491],[54.21872,40.70249],[54.21948,40.69315],[54.23909,40.68753],[54.28919,40.68334],[54.34743,40.68197],[54.37417,40.68503],[54.37485,40.69204],[54.38345,40.70211],[54.3988,40.71274],[54.39104,40.72048],[54.35716,40.72428],[54.32547,40.72764],[54.30995,40.73608],[54.30228,40.75149],[54.29405,40.77216],[54.28358,40.79568],[54.27357,40.81811],[54.26659,40.83538],[54.26354,40.84705],[54.26419,40.85506],[54.26652,40.86088],[54.2682,40.86581],[54.26779,40.87084],[54.26392,40.87477],[54.2562,40.87643],[54.24815,40.87888],[54.24519,40.88481],[54.24899,40.89116],[54.25645,40.8945],[54.26506,40.89694],[54.27669,40.90357],[54.29308,40.91468],[54.31294,40.92382],[54.33818,40.9237],[54.37237,40.91187],[54.40949,40.89432],[54.43808,40.87876],[54.45379,40.86534],[54.45687,40.85118],[54.45221,40.83593],[54.45987,40.82379],[54.50077,40.82152],[54.56221,40.82857],[54.61049,40.8381],[54.63818,40.84901],[54.66153,40.86339],[54.68717,40.88004],[54.71178,40.90043],[54.73288,40.92518],[54.74679,40.94775],[54.75132,40.96491],[54.74925,40.97879],[54.74376,40.99003]]]}}]}