{"type":"FeatureCollection","meta":{"year":2030,"level_m":-30.027,"reference_year":2015,"reference_level_m":-27.85,"status":"semi","model":"cross-shore translation: retreat = Δlevel / tan(β)","source_id":"model","projected":true},"features":[{"type":"Feature","properties":{"year":2030,"level_m":-30.027},"geometry":{"type":"Polygon","coordinates":[[[54.73042,41.00132],[54.712,41.02119],[54.69121,41.04425],[54.68017,41.06153],[54.68486,41.06958],[54.70286,41.06716],[54.72799,41.05684],[54.74775,41.04764],[54.74997,41.04641],[54.7388,41.05237],[54.72675,41.06128],[54.71844,41.0701],[54.71343,41.07806],[54.71174,41.08577],[54.71379,41.09368],[54.719,41.09992],[54.72313,41.10218],[54.72016,41.10407],[54.70764,41.11156],[54.68684,41.12203],[54.66163,41.13034],[54.63832,41.14117],[54.60714,41.16647],[54.53777,41.21573],[54.43321,41.2781],[54.34244,41.32551],[54.28808,41.35061],[54.25012,41.36901],[54.21672,41.38698],[54.19311,41.40129],[54.17873,41.41402],[54.16633,41.4297],[54.15261,41.44711],[54.13561,41.46066],[54.11312,41.4687],[54.08949,41.47575],[54.07003,41.48749],[54.05353,41.50721],[54.03849,41.53556],[54.02723,41.57341],[54.02102,41.62316],[54.01694,41.6787],[54.01068,41.72628],[53.99815,41.76455],[53.97667,41.80322],[53.95194,41.84111],[53.93501,41.86759],[53.9272,41.88133],[53.92072,41.88854],[53.91121,41.89258],[53.90134,41.89687],[53.89603,41.90487],[53.89653,41.91521],[53.8997,41.92494],[53.90183,41.93401],[53.90123,41.94469],[53.89969,41.95888],[53.90101,41.97582],[53.90535,41.99289],[53.90867,42.00869],[53.90854,42.02473],[53.90529,42.04223],[53.89805,42.06011],[53.88255,42.07836],[53.85423,42.09829],[53.81442,42.11763],[53.76977,42.13101],[53.70871,42.13593],[53.59789,42.13034],[53.45282,42.11368],[53.34171,42.09574],[53.27867,42.08832],[53.22529,42.0917],[53.17013,42.09527],[53.12279,42.08781],[53.08106,42.06701],[53.03302,42.03514],[52.97366,41.98651],[52.90792,41.91005],[52.84712,41.82199],[52.80635,41.76243],[52.78688,41.73792],[52.77656,41.72207],[52.76942,41.70133],[52.76702,41.68035],[52.7722,41.66945],[52.7867,41.6749],[52.80973,41.68964],[52.83949,41.6994],[52.8707,41.69726],[52.89405,41.68671],[52.90451,41.67351],[52.90383,41.65948],[52.89748,41.64474],[52.8925,41.63039],[52.89211,41.61628],[52.8939,41.60143],[52.89047,41.57862],[52.87278,41.53346],[52.84495,41.47241],[52.82256,41.42352],[52.81138,41.39631],[52.80794,41.37937],[52.8109,41.36172],[52.81862,41.33472],[52.82752,41.29566],[52.83848,41.25053],[52.85725,41.2036],[52.88037,41.15896],[52.89337,41.12496],[52.89071,41.10032],[52.88205,41.07818],[52.87684,41.06192],[52.8734,41.05694],[52.86636,41.06143],[52.85594,41.07006],[52.84644,41.08052],[52.84242,41.09607],[52.84342,41.11777],[52.84403,41.14068],[52.84096,41.1613],[52.8349,41.17931],[52.82761,41.19362],[52.81996,41.20399],[52.81238,41.21277],[52.80671,41.22284],[52.80436,41.2356],[52.803,41.25234],[52.79792,41.27616],[52.78878,41.3039],[52.77872,41.3267],[52.76806,41.34633],[52.75692,41.3678],[52.74598,41.38471],[52.73378,41.39215],[52.72187,41.39641],[52.71442,41.4042],[52.71119,41.41443],[52.7085,41.42387],[52.70368,41.43357],[52.69462,41.44425],[52.6797,41.45246],[52.65961,41.45788],[52.63674,41.46755],[52.61451,41.48456],[52.5953,41.50134],[52.57803,41.51304],[52.5639,41.52438],[52.55844,41.53875],[52.56328,41.55479],[52.57264,41.57049],[52.57926,41.58438],[52.58143,41.59786],[52.58227,41.61199],[52.58428,41.6242],[52.58685,41.63284],[52.58833,41.63912],[52.58889,41.64497],[52.58823,41.65043],[52.58386,41.65448],[52.5759,41.65977],[52.56837,41.66902],[52.56369,41.67975],[52.55915,41.68809],[52.55057,41.69202],[52.53827,41.69235],[52.52664,41.69383],[52.51865,41.7],[52.51194,41.70904],[52.50211,41.71827],[52.48871,41.7268],[52.47268,41.7339],[52.45461,41.74108],[52.43974,41.75262],[52.4363,41.77362],[52.44751,41.80894],[52.46554,41.85509],[52.47669,41.89939],[52.47564,41.93348],[52.46726,41.95716],[52.45697,41.97242],[52.44689,41.98222],[52.43756,41.99058],[52.43047,42.00216],[52.42779,42.01982],[52.42844,42.03969],[52.42671,42.0559],[52.41848,42.07076],[52.40946,42.08879],[52.40854,42.10835],[52.41444,42.12725],[52.42055,42.14591],[52.4261,42.16389],[52.43478,42.17913],[52.44813,42.19009],[52.46588,42.2017],[52.49218,42.2272],[52.52905,42.26986],[52.56431,42.31102],[52.58443,42.33488],[52.59141,42.34739],[52.59343,42.35998],[52.59437,42.37472],[52.59777,42.38909],[52.60782,42.40329],[52.62234,42.41743],[52.63359,42.42954],[52.63878,42.4404],[52.64208,42.45375],[52.64827,42.47403],[52.65764,42.50346],[52.66499,42.53854],[52.66428,42.57517],[52.65346,42.61227],[52.63403,42.64655],[52.60859,42.67433],[52.5831,42.69752],[52.56725,42.71888],[52.56502,42.73504],[52.57083,42.74013],[52.57839,42.73267],[52.58728,42.71692],[52.5994,42.70041],[52.61474,42.68821],[52.63274,42.67862],[52.65026,42.66882],[52.66142,42.65982],[52.66604,42.65286],[52.66968,42.64601],[52.67612,42.63386],[52.68566,42.61522],[52.69671,42.59925],[52.70753,42.5946],[52.71755,42.6016],[52.72693,42.61716],[52.73395,42.63849],[52.73468,42.66515],[52.72526,42.69545],[52.70338,42.72192],[52.67188,42.73978],[52.63929,42.75445],[52.6044,42.7733],[52.5499,42.79574],[52.47334,42.81526],[52.40323,42.82716],[52.3626,42.83169],[52.34383,42.83107],[52.33114,42.82703],[52.31987,42.82044],[52.31052,42.811],[52.30184,42.80054],[52.28674,42.79866],[52.25584,42.81667],[52.21308,42.8491],[52.17014,42.87534],[52.12256,42.88376],[52.06269,42.8772],[52.00355,42.86248],[51.96081,42.84747],[51.93025,42.84239],[51.89851,42.85533],[51.86438,42.88208],[51.83636,42.91056],[51.81637,42.9351],[51.80101,42.95701],[51.78876,42.97993],[51.77596,43.00615],[51.75641,43.03456],[51.73163,43.06154],[51.71075,43.08086],[51.69629,43.09005],[51.68434,43.09479],[51.67474,43.10153],[51.67015,43.11128],[51.67097,43.12152],[51.67421,43.1316],[51.67548,43.14385],[51.67174,43.15916],[51.66135,43.17315],[51.64095,43.17943],[51.60896,43.17809],[51.57368,43.17491],[51.547,43.17251],[51.53187,43.16909],[51.52382,43.16334],[51.51701,43.15709],[51.50659,43.15421],[51.49154,43.15637],[51.47017,43.16011],[51.43075,43.15987],[51.36771,43.15639],[51.30501,43.15764],[51.2728,43.17273],[51.27381,43.20805],[51.2902,43.26408],[51.3047,43.3355],[51.30896,43.40768],[51.30143,43.46212],[51.28758,43.49523],[51.27702,43.51546],[51.27264,43.53069],[51.26999,43.54497],[51.26277,43.55858],[51.2463,43.57312],[51.22519,43.59017],[51.20998,43.60654],[51.20256,43.61732],[51.19645,43.62086],[51.18739,43.62002],[51.17579,43.61908],[51.16363,43.6204],[51.15062,43.62587],[51.12934,43.6459],[51.09123,43.69503],[51.0466,43.76081],[51.01769,43.8094],[51.00747,43.83209],[51.00307,43.84349],[50.9978,43.85209],[50.99285,43.85971],[50.99124,43.86848],[50.99272,43.88045],[50.99234,43.89436],[50.9859,43.90731],[50.97288,43.91998],[50.95694,43.93387],[50.94333,43.94862],[50.93211,43.96458],[50.92043,43.98151],[50.90885,43.99638],[50.89794,44.00646],[50.88533,44.01265],[50.87097,44.01841],[50.85943,44.02642],[50.85501,44.03645],[50.85719,44.04677],[50.86123,44.06181],[50.86225,44.09187],[50.85819,44.13311],[50.8496,44.16759],[50.83545,44.19088],[50.80896,44.21206],[50.74477,44.23684],[50.61112,44.26674],[50.4428,44.29714],[50.3252,44.31994],[50.27634,44.33555],[50.25471,44.35092],[50.2414,44.37102],[50.23757,44.39795],[50.23899,44.42844],[50.23964,44.45457],[50.2387,44.473],[50.23683,44.48856],[50.23325,44.50862],[50.23018,44.53481],[50.23171,44.55835],[50.23968,44.5683],[50.25331,44.56905],[50.27004,44.57574],[50.28824,44.58978],[50.30622,44.60216],[50.31979,44.61318],[50.32666,44.62611],[50.32818,44.6365],[50.325,44.64026],[50.31726,44.63974],[50.31085,44.63736],[50.32408,44.63138],[50.37787,44.62064],[50.46276,44.61047],[50.53866,44.6082],[50.5814,44.61195],[50.59997,44.61266],[50.61896,44.60705],[50.65514,44.59991],[50.6983,44.59442],[50.73219,44.58993],[50.75995,44.58925],[50.78524,44.59611],[50.80103,44.60626],[50.80469,44.61192],[50.80457,44.61185],[50.81403,44.60982],[50.83561,44.60772],[50.86022,44.6048],[50.88732,44.59903],[50.91977,44.58816],[50.94989,44.5749],[50.97216,44.56631],[50.9886,44.5636],[50.99986,44.5614],[51.00587,44.55662],[51.00626,44.55074],[51.00144,44.54534],[50.99943,44.53828],[51.01328,44.52615],[51.04913,44.50944],[51.09702,44.4937],[51.1399,44.48506],[51.17314,44.48463],[51.20359,44.49144],[51.23584,44.50638],[51.26477,44.52482],[51.28145,44.53756],[51.28715,44.54316],[51.29023,44.54623],[51.2956,44.5485],[51.30597,44.54959],[51.3224,44.55034],[51.34231,44.55241],[51.36014,44.55361],[51.37193,44.5474],[51.38586,44.53464],[51.41813,44.52467],[51.46948,44.519],[51.5202,44.51428],[51.55213,44.51495],[51.56331,44.52381],[51.56062,44.53588],[51.54756,44.54796],[51.52011,44.56141],[51.47915,44.57527],[51.43945,44.58394],[51.40684,44.58534],[51.36834,44.58615],[51.31884,44.59688],[51.27025,44.6248],[51.23295,44.66406],[51.20203,44.69931],[51.16432,44.72643],[51.12221,44.74927],[51.09348,44.76521],[51.0821,44.77226],[51.07269,44.77493],[51.05462,44.77868],[51.03425,44.78524],[51.01705,44.794],[50.99396,44.80781],[50.96688,44.83002],[50.95941,44.85648],[50.97589,44.87834],[50.99396,44.8911],[51.00494,44.89854],[51.01074,44.90779],[51.00244,44.9194],[50.98209,44.92706],[50.96799,44.92809],[50.96217,44.92711],[50.95559,44.93049],[50.95575,44.9407],[50.96937,44.95326],[50.98619,44.96214],[51.00026,44.9672],[51.01509,44.97049],[51.03273,44.97212],[51.05436,44.97361],[51.07824,44.97836],[51.09902,44.98735],[51.11368,44.99808],[51.1251,45.00805],[51.14052,45.01798],[51.16165,45.02846],[51.1796,45.03646],[51.18883,45.0389],[51.19627,45.03431],[51.2129,45.02322],[51.23883,45.0135],[51.25683,45.01636],[51.25467,45.03147],[51.24205,45.04888],[51.22988,45.06473],[51.2239,45.08071],[51.23503,45.09537],[51.26105,45.10715],[51.27799,45.11787],[51.2684,45.12808],[51.24637,45.13737],[51.24266,45.14711],[51.26168,45.15752],[51.28287,45.16947],[51.29987,45.18688],[51.31667,45.20893],[51.33482,45.23253],[51.3635,45.26342],[51.40216,45.30309],[51.4305,45.33816],[51.43693,45.35865],[51.42901,45.36424],[51.42541,45.35497],[51.44547,45.33574],[51.49074,45.31972],[51.54686,45.31668],[51.60059,45.32649],[51.64297,45.34324],[51.6685,45.35785],[51.68276,45.36494],[51.69949,45.36988],[51.72199,45.38087],[51.74225,45.39807],[51.75531,45.41519],[51.7599,45.42668],[51.75628,45.43115],[51.75077,45.42943],[51.75185,45.42142],[51.76671,45.40665],[51.80074,45.38912],[51.84356,45.37544],[51.87789,45.36533],[51.90655,45.35557],[51.93962,45.35058],[51.97324,45.35507],[51.99822,45.3638],[52.01471,45.3683],[52.03383,45.36651],[52.07993,45.36369],[52.18324,45.36662],[52.32445,45.37409],[52.4391,45.37921],[52.51521,45.3769],[52.59798,45.36195],[52.70329,45.3369],[52.79986,45.31409],[52.86853,45.29998],[52.92524,45.29376],[52.98,45.29198],[53.02736,45.28851],[53.06918,45.2825],[53.10919,45.28053],[53.14605,45.28626],[53.17778,45.29559],[53.2026,45.30382],[53.21898,45.3106],[53.22536,45.31515],[53.22705,45.31545],[53.23554,45.31346],[53.25288,45.31396],[53.26741,45.32033],[53.26581,45.33223],[53.25114,45.34328],[53.23364,45.34821],[53.20392,45.35194],[53.15813,45.36058],[53.12016,45.37139],[53.10431,45.37897],[53.09974,45.38219],[53.08991,45.38402],[53.05868,45.39051],[52.99893,45.40676],[52.92992,45.42794],[52.87995,45.44474],[52.85265,45.457],[52.83783,45.46709],[52.82961,45.47282],[52.81635,45.47598],[52.78661,45.4831],[52.7483,45.49741],[52.72035,45.51533],[52.70868,45.53014],[52.70458,45.54099],[52.70241,45.55322],[52.70347,45.56691],[52.70638,45.57617],[52.70733,45.58079],[52.70611,45.5877],[52.70547,45.60225],[52.71141,45.62113],[52.73171,45.63376],[52.76319,45.6366],[52.7889,45.64082],[52.79984,45.65714],[52.81208,45.6837],[52.84187,45.71343],[52.87567,45.73962],[52.89607,45.75597],[52.90947,45.76381],[52.92764,45.77253],[52.94791,45.79049],[52.9572,45.81991],[52.95874,45.85404],[52.97671,45.88092],[53.0147,45.89728],[53.04484,45.91125],[53.04711,45.92942],[53.0365,45.94954],[53.04102,45.96667],[53.05583,45.98329],[53.0586,46.00281],[53.05236,46.01885],[53.04863,46.02717],[53.05092,46.03352],[53.06761,46.04285],[53.09487,46.05632],[53.107,46.07556],[53.09763,46.10123],[53.08571,46.13909],[53.07455,46.19724],[53.05808,46.26455],[53.04075,46.31866],[53.02003,46.35616],[52.99249,46.38591],[52.9767,46.40374],[52.99269,46.40131],[53.02877,46.38865],[53.04716,46.38539],[53.02869,46.39889],[52.99573,46.42536],[52.97527,46.45648],[52.98185,46.47442],[53.02457,46.4677],[53.07599,46.44737],[53.07921,46.42979],[53.01934,46.42971],[52.95745,46.45514],[52.97011,46.48823],[53.03416,46.50795],[53.05107,46.51454],[53.02048,46.50816],[53.03032,46.49253],[53.08109,46.49161],[53.09007,46.52165],[53.04744,46.56285],[53.02332,46.57971],[53.04573,46.56925],[53.10068,46.5619],[53.17115,46.57091],[53.21496,46.58061],[53.20777,46.57763],[53.18316,46.56698],[53.18437,46.56113],[53.20391,46.57014],[53.19247,46.60002],[53.14314,46.63905],[53.10473,46.66414],[53.09941,46.66934],[53.1073,46.66407],[53.10537,46.65953],[53.07929,46.668],[53.03641,46.69611],[53.00172,46.73762],[52.98411,46.78128],[52.97308,46.81884],[52.96901,46.84128],[52.98382,46.84254],[53.0033,46.831],[52.99119,46.82534],[52.94358,46.83724],[52.89533,46.86134],[52.87584,46.88013],[52.87539,46.88304],[52.85437,46.87669],[52.79381,46.87147],[52.71031,46.87091],[52.62577,46.87559],[52.55454,46.88719],[52.50572,46.90399],[52.48163,46.91708],[52.47369,46.9219],[52.47609,46.92589],[52.47939,46.93776],[52.4469,46.95549],[52.38887,46.96316],[52.3837,46.94444],[52.42994,46.9036],[52.44004,46.85977],[52.38441,46.82577],[52.29843,46.80621],[52.22621,46.80276],[52.1922,46.81393],[52.16708,46.83485],[52.12603,46.84726],[52.10722,46.83235],[52.12805,46.80386],[52.14867,46.78924],[52.1469,46.79183],[52.13702,46.79882],[52.13208,46.80376],[52.13807,46.80367],[52.15566,46.78794],[52.15597,46.75991],[52.11214,46.74481],[52.05108,46.75175],[52.00689,46.76998],[51.97959,46.79283],[51.96758,46.81024],[51.97375,46.81001],[51.98105,46.80151],[51.96986,46.80407],[51.94655,46.81807],[51.92348,46.83845],[51.91598,46.86386],[51.95531,46.87946],[52.01975,46.88076],[52.02896,46.88738],[51.98662,46.89692],[51.98034,46.89184],[52.02415,46.8802],[52.05285,46.86734],[52.02838,46.84388],[51.96619,46.81888],[51.90936,46.81292],[51.89916,46.83133],[51.92122,46.85872],[51.91512,46.8746],[51.88223,46.87394],[51.87237,46.86465],[51.87102,46.85319],[51.83474,46.84339],[51.77139,46.84171],[51.71301,46.85166],[51.67213,46.86827],[51.63986,46.89026],[51.62188,46.92455],[51.64121,46.96655],[51.66596,46.99685],[51.65296,47.00456],[51.64439,46.99843],[51.67655,46.99539],[51.71478,46.99971],[51.72911,46.99719],[51.71137,46.97657],[51.65188,46.95019],[51.56549,46.94336],[51.49541,46.96105],[51.46496,46.98144],[51.45842,46.98887],[51.44463,46.99028],[51.4017,46.99669],[51.32938,47.01007],[51.25532,47.02635],[51.21691,47.03822],[51.20831,47.03833],[51.1817,47.02552],[51.11913,47.00774],[51.05617,46.9947],[51.01846,46.98457],[50.98001,46.97005],[50.91701,46.95816],[50.85512,46.95873],[50.83504,46.96516],[50.8629,46.97139],[50.89349,46.98226],[50.88229,46.99638],[50.86596,47.0036],[50.88826,46.99144],[50.89369,46.95044],[50.82732,46.89858],[50.74,46.87539],[50.72174,46.88706],[50.76583,46.90773],[50.77584,46.92427],[50.74396,46.92924],[50.74569,46.91818],[50.77241,46.90109],[50.76379,46.88332],[50.71534,46.86621],[50.66526,46.85879],[50.65318,46.86673],[50.68127,46.88124],[50.70978,46.88173],[50.7129,46.85795],[50.6929,46.82149],[50.65949,46.79257],[50.63819,46.78802],[50.64731,46.80516],[50.6578,46.82327],[50.62963,46.82875],[50.58056,46.82131],[50.55888,46.81026],[50.56524,46.80505],[50.56188,46.80454],[50.52786,46.80859],[50.47779,46.82068],[50.43931,46.83591],[50.42164,46.84604],[50.42137,46.84968],[50.43651,46.85164],[50.45917,46.85605],[50.47391,46.85714],[50.46564,46.84082],[50.43551,46.80996],[50.4051,46.79405],[50.3853,46.80612],[50.37822,46.82161],[50.39153,46.82193],[50.40889,46.81295],[50.40651,46.79989],[50.38559,46.7836],[50.35985,46.77012],[50.34459,46.76475],[50.34457,46.76588],[50.34776,46.76569],[50.33795,46.75224],[50.30478,46.72436],[50.25839,46.70217],[50.23596,46.703],[50.24539,46.71928],[50.24056,46.73271],[50.21351,46.73377],[50.20551,46.7261],[50.21153,46.71498],[50.19366,46.69438],[50.15218,46.6611],[50.10968,46.62682],[50.06906,46.60181],[50.02782,46.588],[50.00036,46.58428],[49.99516,46.58571],[49.99648,46.58437],[49.9864,46.57567],[49.96531,46.56277],[49.9405,46.55054],[49.91044,46.54011],[49.88032,46.53447],[49.86944,46.53718],[49.87567,46.54019],[49.8666,46.53074],[49.82443,46.51618],[49.77305,46.51389],[49.75211,46.52196],[49.7724,46.53057],[49.80425,46.5342],[49.80858,46.52533],[49.77307,46.51053],[49.72277,46.50687],[49.69621,46.5132],[49.70782,46.52076],[49.73883,46.53],[49.75548,46.53406],[49.72994,46.52533],[49.67418,46.51968],[49.64194,46.53161],[49.65588,46.54592],[49.67586,46.54075],[49.66736,46.51696],[49.64755,46.49529],[49.63585,46.48611],[49.6099,46.4819],[49.56136,46.48212],[49.52123,46.48874],[49.49441,46.49513],[49.47093,46.50546],[49.47681,46.53181],[49.51844,46.56402],[49.54274,46.57555],[49.50879,46.55902],[49.44595,46.53129],[49.41892,46.50832],[49.44878,46.49107],[49.48527,46.47265],[49.4808,46.4543],[49.45013,46.44685],[49.43033,46.45614],[49.44824,46.47669],[49.49994,46.49909],[49.53179,46.51583],[49.50178,46.5192],[49.43987,46.50923],[49.41163,46.50025],[49.43845,46.50384],[49.47684,46.51311],[49.47504,46.51028],[49.42799,46.4952],[49.36647,46.48875],[49.31993,46.49978],[49.30242,46.51705],[49.29821,46.52435],[49.30098,46.51228],[49.33832,46.48678],[49.38318,46.45908],[49.37579,46.43692],[49.32793,46.42988],[49.28063,46.44091],[49.24953,46.45865],[49.2427,46.46918],[49.2541,46.47034],[49.25422,46.47151],[49.24318,46.47792],[49.25869,46.48163],[49.28468,46.46936],[49.28162,46.44059],[49.28432,46.41484],[49.33631,46.40859],[49.40965,46.41259],[49.44649,46.40441],[49.42053,46.37944],[49.35236,46.35888],[49.28459,46.36114],[49.24108,46.3796],[49.21776,46.39837],[49.20841,46.40935],[49.21403,46.41147],[49.22592,46.41011],[49.22111,46.4116],[49.20601,46.41869],[49.22725,46.43189],[49.27678,46.44071],[49.28309,46.42751],[49.2507,46.39491],[49.25123,46.36351],[49.27713,46.34353],[49.26884,46.33496],[49.22826,46.33753],[49.20237,46.34839],[49.20258,46.3638],[49.18842,46.37429],[49.15066,46.36719],[49.13428,46.3479],[49.14529,46.33492],[49.16084,46.33675],[49.19846,46.34786],[49.26107,46.35541],[49.30647,46.35217],[49.30882,46.34078],[49.27014,46.32059],[49.21965,46.28984],[49.21254,46.26064],[49.26574,46.24589],[49.3246,46.23516],[49.32597,46.21587],[49.27589,46.20127],[49.22745,46.20227],[49.20409,46.20854],[49.18695,46.21372],[49.16502,46.2259],[49.16631,46.25216],[49.19721,46.28138],[49.21122,46.29334],[49.19796,46.28775],[49.18757,46.27656],[49.17795,46.26386],[49.16492,46.25635],[49.16065,46.25566],[49.15826,46.24934],[49.14166,46.23535],[49.10403,46.22105],[49.06103,46.20805],[49.04879,46.2025],[49.08722,46.20564],[49.14559,46.19561],[49.15871,46.15948],[49.10948,46.12453],[49.04782,46.11947],[49.01396,46.13354],[49.01369,46.14194],[49.03977,46.14106],[49.0742,46.14134],[49.09424,46.14267],[49.08826,46.13627],[49.06446,46.12334],[49.03855,46.11106],[49.0193,46.10588],[49.00235,46.11212],[48.97884,46.11693],[48.97033,46.10625],[48.99533,46.0874],[49.01261,46.06713],[48.99378,46.05082],[48.97775,46.05669],[48.97986,46.08495],[48.9525,46.10701],[48.89426,46.10863],[48.87355,46.10582],[48.9094,46.11431],[48.95052,46.12295],[48.95118,46.10986],[48.9028,46.08658],[48.83948,46.08084],[48.81533,46.09209],[48.83543,46.10815],[48.85476,46.11881],[48.87073,46.11458],[48.90186,46.09533],[48.90297,46.06671],[48.85765,46.0507],[48.82876,46.06619],[48.83217,46.09127],[48.83103,46.10099],[48.82289,46.09851],[48.83418,46.09],[48.87001,46.07456],[48.88735,46.04965],[48.86045,46.02782],[48.83719,46.03439],[48.84217,46.06303],[48.82176,46.07817],[48.76146,46.07176],[48.72221,46.06494],[48.72295,46.06543],[48.71614,46.06581],[48.68962,46.06466],[48.68753,46.06694],[48.71919,46.07381],[48.74711,46.0821],[48.75505,46.08576],[48.74611,46.07547],[48.72047,46.05307],[48.68773,46.03493],[48.65834,46.02714],[48.63603,46.02257],[48.62583,46.01848],[48.62754,46.01297],[48.64604,46.00451],[48.69595,45.99826],[48.75876,45.99179],[48.78744,45.97613],[48.77327,45.95482],[48.74681,45.93863],[48.72985,45.93143],[48.72521,45.9334],[48.71791,45.94319],[48.68925,45.94706],[48.66237,45.93279],[48.673,45.91416],[48.70006,45.90717],[48.70961,45.90854],[48.71289,45.91571],[48.74163,45.92823],[48.79397,45.93412],[48.82974,45.92771],[48.82569,45.91824],[48.79492,45.9086],[48.77876,45.90145],[48.79386,45.89935],[48.79944,45.88332],[48.7877,45.84605],[48.78346,45.8126],[48.78172,45.79698],[48.77991,45.78989],[48.78014,45.78673],[48.77891,45.78919],[48.76521,45.78901],[48.72952,45.78749],[48.70962,45.8026],[48.73655,45.83012],[48.76742,45.84809],[48.75207,45.84834],[48.69545,45.83978],[48.63736,45.83845],[48.60642,45.84547],[48.60054,45.84923],[48.60395,45.84823],[48.61144,45.85304],[48.63616,45.87581],[48.66599,45.90753],[48.65033,45.92141],[48.58926,45.91603],[48.54756,45.91094],[48.55263,45.90973],[48.57373,45.90754],[48.58293,45.90457],[48.57234,45.89822],[48.54215,45.88733],[48.50875,45.87911],[48.49732,45.87908],[48.50769,45.88298],[48.51494,45.88166],[48.5016,45.86784],[48.46508,45.84346],[48.4174,45.82228],[48.39073,45.81759],[48.39357,45.82723],[48.38607,45.83245],[48.35943,45.81994],[48.35968,45.80335],[48.39858,45.7989],[48.42404,45.79666],[48.39785,45.78701],[48.35715,45.78312],[48.35076,45.79382],[48.36662,45.80613],[48.37494,45.80376],[48.36982,45.78469],[48.3524,45.75796],[48.32356,45.73316],[48.29076,45.71613],[48.26979,45.71141],[48.2741,45.72328],[48.29477,45.74552],[48.30958,45.76256],[48.31468,45.76659],[48.31466,45.75336],[48.29465,45.71968],[48.24432,45.68399],[48.19124,45.67096],[48.16544,45.67454],[48.14972,45.67635],[48.1165,45.67743],[48.08727,45.68372],[48.09074,45.68975],[48.10498,45.68849],[48.10087,45.68047],[48.08882,45.67392],[48.08575,45.67336],[48.07558,45.67146],[48.04141,45.67116],[48.00687,45.68606],[47.98365,45.7021],[47.9519,45.69762],[47.92426,45.68407],[47.92561,45.67625],[47.94967,45.67237],[47.97819,45.67112],[47.99294,45.67053],[47.98945,45.66813],[47.98174,45.66558],[47.97706,45.66621],[47.97313,45.67909],[47.96193,45.70164],[47.92842,45.70695],[47.89056,45.68893],[47.88864,45.6766],[47.91442,45.68149],[47.93196,45.68373],[47.93268,45.67373],[47.92662,45.66671],[47.92445,45.66558],[47.92729,45.65011],[47.92504,45.61781],[47.9048,45.58864],[47.86346,45.5799],[47.83044,45.60335],[47.83322,45.64863],[47.84024,45.68062],[47.8075,45.67866],[47.7547,45.66257],[47.72805,45.66647],[47.71776,45.68154],[47.70229,45.67594],[47.70653,45.65907],[47.73179,45.65268],[47.73918,45.65083],[47.71673,45.64567],[47.68554,45.64143],[47.66157,45.64162],[47.64917,45.65169],[47.66193,45.6803],[47.69965,45.71754],[47.72937,45.74296],[47.72373,45.75276],[47.678,45.74647],[47.61523,45.7263],[47.57514,45.70978],[47.56661,45.70587],[47.57681,45.71031],[47.60063,45.72428],[47.6217,45.73994],[47.61865,45.73377],[47.59835,45.70627],[47.58741,45.69101],[47.60557,45.70612],[47.63731,45.72764],[47.63589,45.72072],[47.60001,45.68868],[47.58499,45.66702],[47.61904,45.67265],[47.67355,45.68858],[47.70797,45.69503],[47.71566,45.6894],[47.70917,45.67154],[47.69105,45.6437],[47.67244,45.6246],[47.672,45.63162],[47.68531,45.65501],[47.69574,45.66872],[47.69231,45.66014],[47.67419,45.63706],[47.66524,45.61828],[47.67285,45.61033],[47.66977,45.5988],[47.65521,45.57985],[47.6441,45.56594],[47.63717,45.56667],[47.64257,45.58742],[47.64608,45.61899],[47.60887,45.63568],[47.54523,45.62765],[47.49899,45.61401],[47.46462,45.61308],[47.42675,45.62341],[47.40512,45.63708],[47.42386,45.65109],[47.47003,45.66182],[47.49856,45.66417],[47.49904,45.66095],[47.50094,45.66063],[47.49813,45.66501],[47.46981,45.67647],[47.44195,45.70103],[47.42921,45.72031],[47.41662,45.71324],[47.4177,45.70136],[47.4398,45.71128],[47.45919,45.73584],[47.46967,45.75194],[47.48287,45.74464],[47.4968,45.72366],[47.50248,45.7112],[47.49267,45.70694],[47.46129,45.68785],[47.42897,45.65101],[47.42292,45.62241],[47.43372,45.62042],[47.45656,45.64386],[47.49099,45.66891],[47.50349,45.66031],[47.4886,45.6232],[47.48848,45.60025],[47.52852,45.60831],[47.58891,45.62551],[47.62481,45.63012],[47.61688,45.6199],[47.59065,45.60098],[47.5757,45.58146],[47.57386,45.56787],[47.5728,45.55912],[47.56739,45.55181],[47.55952,45.5454],[47.55066,45.54129],[47.53983,45.54311],[47.52746,45.55416],[47.51676,45.57082],[47.50852,45.58234],[47.50204,45.58197],[47.49901,45.57422],[47.50155,45.5644],[47.51074,45.55012],[47.52423,45.53104],[47.5349,45.51492],[47.53655,45.5054],[47.5276,45.4963],[47.51342,45.48374],[47.50354,45.4705],[47.50077,45.45699],[47.49924,45.44244],[47.48965,45.4305],[47.46481,45.42427],[47.43067,45.42166],[47.40378,45.41793],[47.39582,45.41142],[47.40889,45.40492],[47.43375,45.40066],[47.45336,45.39657],[47.45951,45.38991],[47.456,45.38152],[47.44765,45.37408],[47.43832,45.3689],[47.43174,45.36537],[47.42679,45.35969],[47.41764,45.34585],[47.40349,45.32384],[47.39113,45.29728],[47.38431,45.26258],[47.37888,45.2226],[47.36932,45.19484],[47.35432,45.18682],[47.33601,45.18859],[47.31771,45.18857],[47.30223,45.17906],[47.28968,45.15603],[47.27782,45.12317],[47.26491,45.0901],[47.24991,45.06016],[47.23307,45.02893],[47.21634,44.99862],[47.20015,44.97881],[47.18417,44.96982],[47.17006,44.96107],[47.15884,44.94826],[47.14947,44.93942],[47.13966,44.94116],[47.12732,44.94857],[47.11436,44.95317],[47.10637,44.94764],[47.10467,44.92191],[47.10203,44.87656],[47.09377,44.83175],[47.0851,44.80366],[47.07912,44.79199],[47.07056,44.79482],[47.05482,44.81191],[47.036,44.83778],[47.02199,44.86657],[47.01303,44.89387],[47.00419,44.91005],[46.99582,44.90797],[46.99286,44.89213],[46.99721,44.87118],[47.00447,44.85041],[47.00648,44.83091],[46.99741,44.81003],[46.97994,44.78846],[46.96109,44.77404],[46.94214,44.76872],[46.91989,44.76321],[46.89537,44.75196],[46.87412,44.738],[46.85842,44.72365],[46.84367,44.71037],[46.82335,44.70104],[46.7972,44.69245],[46.77103,44.67822],[46.74854,44.6618],[46.73108,44.64577],[46.72013,44.62144],[46.71562,44.59097],[46.71661,44.56934],[46.72043,44.5585],[46.72175,44.55101],[46.71704,44.54546],[46.70767,44.54236],[46.69752,44.53954],[46.68992,44.5341],[46.68735,44.52209],[46.69083,44.50055],[46.69809,44.47376],[46.70685,44.45039],[46.71937,44.43271],[46.73732,44.41765],[46.75847,44.40479],[46.78306,44.39655],[46.81077,44.39386],[46.84333,44.39245],[46.89503,44.3854],[46.96323,44.3725],[47.01685,44.35899],[47.04383,44.34349],[47.0587,44.32048],[47.07088,44.29282],[47.08194,44.26933],[47.09389,44.25239],[47.10783,44.23844],[47.12218,44.22664],[47.13566,44.21823],[47.14962,44.2117],[47.16478,44.206],[47.18013,44.2048],[47.1953,44.21113],[47.21092,44.22022],[47.22812,44.2204],[47.24801,44.20039],[47.27018,44.15846],[47.29344,44.10821],[47.31579,44.06865],[47.33462,44.04578],[47.35039,44.02916],[47.36768,44.00374],[47.38896,43.96756],[47.40939,43.93332],[47.42307,43.9084],[47.43143,43.89097],[47.44076,43.87932],[47.45229,43.87054],[47.45966,43.86039],[47.45831,43.84731],[47.45235,43.83379],[47.45024,43.8248],[47.45651,43.82234],[47.46877,43.82309],[47.48201,43.82024],[47.49335,43.80787],[47.50093,43.78905],[47.50092,43.77321],[47.49107,43.76383],[47.4759,43.75767],[47.46279,43.75164],[47.4538,43.74396],[47.44793,43.73207],[47.44714,43.71467],[47.45036,43.69627],[47.45055,43.68323],[47.44503,43.67611],[47.43675,43.66981],[47.42605,43.65713],[47.41186,43.63707],[47.39646,43.62091],[47.3837,43.61722],[47.37548,43.61865],[47.37167,43.61394],[47.37206,43.60024],[47.37644,43.58189],[47.38408,43.56535],[47.39378,43.55301],[47.4023,43.54153],[47.40759,43.52812],[47.41444,43.51591],[47.42873,43.51292],[47.44796,43.52622],[47.46453,43.55505],[47.47441,43.59022],[47.47902,43.62038],[47.48202,43.6399],[47.48638,43.65155],[47.49328,43.66113],[47.5011,43.67321],[47.50634,43.69006],[47.50917,43.70963],[47.51459,43.72922],[47.52453,43.75071],[47.535,43.77622],[47.54212,43.80374],[47.54536,43.82937],[47.54697,43.84966],[47.552,43.86477],[47.56471,43.87816],[47.58295,43.88986],[47.60295,43.89618],[47.62582,43.89665],[47.65199,43.89328],[47.67353,43.88387],[47.67437,43.86108],[47.64651,43.81515],[47.60195,43.73775],[47.55839,43.63684],[47.52457,43.54121],[47.50204,43.47151],[47.4912,43.42278],[47.4905,43.38402],[47.49314,43.35304],[47.49343,43.33019],[47.494,43.31319],[47.50073,43.30245],[47.51544,43.30253],[47.53485,43.31218],[47.55361,43.32259],[47.56828,43.32789],[47.57827,43.32718],[47.58435,43.32097],[47.58719,43.31129],[47.58666,43.30112],[47.58278,43.2919],[47.57573,43.28173],[47.56402,43.26892],[47.54622,43.25542],[47.52558,43.24279],[47.50742,43.22961],[47.49475,43.21486],[47.48915,43.19933],[47.48836,43.18435],[47.487,43.17115],[47.48435,43.15973],[47.48347,43.14892],[47.48411,43.13806],[47.48233,43.12701],[47.47559,43.11599],[47.4665,43.10554],[47.46044,43.09187],[47.46402,43.06485],[47.48706,43.0222],[47.52986,42.97902],[47.57253,42.94977],[47.59805,42.93259],[47.61532,42.91783],[47.64266,42.8993],[47.67712,42.87809],[47.70079,42.859],[47.70996,42.84387],[47.71328,42.82969],[47.71557,42.80974],[47.71787,42.78459],[47.72013,42.76509],[47.72131,42.7546],[47.72071,42.74437],[47.72014,42.72581],[47.7239,42.69795],[47.7394,42.6668],[47.77443,42.63741],[47.82533,42.60543],[47.88099,42.55831],[47.93614,42.49526],[47.98714,42.43663],[48.03135,42.39659],[48.07532,42.36053],[48.13097,42.3008],[48.19529,42.22137],[48.24835,42.15871],[48.28173,42.12511],[48.30166,42.10323],[48.31308,42.08223],[48.32382,42.05602],[48.34593,42.0147],[48.38153,41.96386],[48.42248,41.92523],[48.46505,41.90525],[48.50854,41.89103],[48.54619,41.87374],[48.5705,41.85688],[48.58419,41.84563],[48.59955,41.83622],[48.62811,41.81751],[48.67407,41.77998],[48.72747,41.73121],[48.7685,41.69154],[48.79359,41.6637],[48.82087,41.63077],[48.85954,41.58633],[48.89726,41.54504],[48.92356,41.51964],[48.94113,41.50465],[48.95507,41.49019],[48.96852,41.47379],[48.98132,41.45829],[48.99165,41.44766],[49.00231,41.44165],[49.01609,41.43623],[49.0321,41.42521],[49.05264,41.40016],[49.07906,41.36134],[49.1048,41.32297],[49.1236,41.29534],[49.13617,41.27024],[49.14603,41.23335],[49.15521,41.18918],[49.16413,41.15684],[49.17334,41.13669],[49.18632,41.10759],[49.21447,41.05599],[49.26749,40.98859],[49.32843,40.9267],[49.36867,40.88801],[49.38995,40.86797],[49.41308,40.8532],[49.44238,40.84121],[49.46932,40.83242],[49.49088,40.82255],[49.50966,40.81046],[49.52552,40.79816],[49.53387,40.78291],[49.53169,40.76058],[49.52321,40.73478],[49.51608,40.71363],[49.51351,40.69968],[49.51501,40.68975],[49.52017,40.68081],[49.52703,40.67255],[49.53236,40.66628],[49.53696,40.66096],[49.54538,40.6534],[49.55925,40.64344],[49.57708,40.63436],[49.59974,40.62837],[49.6264,40.62431],[49.65194,40.61866],[49.67595,40.60832],[49.70249,40.59515],[49.73463,40.58414],[49.77245,40.5763],[49.80903,40.57052],[49.83934,40.56884],[49.86979,40.57345],[49.90979,40.58129],[49.96325,40.58588],[50.01855,40.58435],[50.05383,40.57877],[50.06633,40.57182],[50.07149,40.56419],[50.07973,40.55459],[50.09348,40.5426],[50.11567,40.53023],[50.15251,40.51864],[50.19783,40.50722],[50.23229,40.49468],[50.25087,40.47885],[50.26436,40.45999],[50.27978,40.44274],[50.29805,40.43017],[50.3177,40.41913],[50.33593,40.40472],[50.35087,40.38229],[50.36258,40.34711],[50.37211,40.30643],[50.38027,40.2755],[50.38679,40.25523],[50.38907,40.24072],[50.38339,40.23815],[50.36888,40.25187],[50.34672,40.27499],[50.31714,40.29968],[50.28412,40.32114],[50.25349,40.33566],[50.22281,40.34413],[50.18827,40.35061],[50.1557,40.35619],[50.13196,40.35908],[50.11599,40.35853],[50.10198,40.35621],[50.08376,40.35393],[50.05951,40.35034],[50.03278,40.34261],[50.00818,40.33334],[49.98954,40.32966],[49.977,40.33427],[49.96679,40.34322],[49.9556,40.35119],[49.94035,40.3568],[49.91937,40.36158],[49.89468,40.36309],[49.87019,40.35537],[49.85036,40.33777],[49.83374,40.31613],[49.80893,40.29607],[49.76725,40.2788],[49.71124,40.26131],[49.64996,40.24162],[49.59547,40.22163],[49.55502,40.20198],[49.52642,40.18271],[49.50734,40.16592],[49.49789,40.14981],[49.49552,40.13081],[49.49246,40.1113],[49.47862,40.09463],[49.45654,40.07903],[49.44199,40.06185],[49.44186,40.04386],[49.4501,40.02821],[49.46087,40.01675],[49.47154,40.00782],[49.47926,39.99911],[49.48082,39.9908],[49.47518,39.98367],[49.46442,39.97662],[49.45235,39.96942],[49.4423,39.96302],[49.43527,39.95603],[49.43056,39.94669],[49.42788,39.93567],[49.42836,39.92258],[49.43292,39.90624],[49.43873,39.88903],[49.44037,39.87476],[49.43588,39.86431],[49.42861,39.85654],[49.4226,39.84978],[49.41933,39.84269],[49.41849,39.83557],[49.41959,39.82932],[49.42176,39.82344],[49.42296,39.81725],[49.42035,39.81116],[49.41288,39.80457],[49.40411,39.79568],[49.39928,39.78549],[49.39914,39.77632],[49.40049,39.76715],[49.40302,39.75531],[49.40961,39.74012],[49.41703,39.72436],[49.4161,39.71168],[49.40311,39.70087],[49.38196,39.68696],[49.35869,39.66796],[49.33895,39.64594],[49.32567,39.62412],[49.31659,39.60448],[49.30791,39.5855],[49.29957,39.56484],[49.29321,39.54277],[49.2901,39.52036],[49.29699,39.49551],[49.32444,39.46387],[49.36532,39.42937],[49.39556,39.40379],[49.40625,39.39036],[49.40672,39.38145],[49.40447,39.36893],[49.40239,39.35206],[49.40171,39.33758],[49.40033,39.3308],[49.39552,39.33152],[49.38829,39.33686],[49.38124,39.34355],[49.37566,39.3478],[49.37313,39.34535],[49.37557,39.33536],[49.38322,39.32173],[49.39381,39.30904],[49.40133,39.29988],[49.39906,39.29604],[49.38744,39.29915],[49.37051,39.30942],[49.34567,39.32409],[49.31143,39.33427],[49.27728,39.32933],[49.25389,39.30346],[49.24297,39.25572],[49.23904,39.20038],[49.2355,39.15944],[49.22909,39.13349],[49.22105,39.11003],[49.21445,39.08493],[49.2093,39.05945],[49.19848,39.03505],[49.17102,39.01059],[49.12823,38.98811],[49.08821,38.97738],[49.06519,38.98132],[49.0574,38.99123],[49.05642,39.00044],[49.06085,39.00862],[49.0762,39.01635],[49.09995,39.02388],[49.12123,39.03311],[49.13564,39.04647],[49.14401,39.06398],[49.14403,39.08288],[49.13226,39.09889],[49.10952,39.10909],[49.08567,39.11724],[49.07141,39.13179],[49.06448,39.15292],[49.05562,39.17158],[49.0395,39.18275],[49.01547,39.18756],[48.98971,39.18734],[48.97201,39.18272],[48.96381,39.17445],[48.95894,39.16401],[48.95459,39.15366],[48.95167,39.14459],[48.9492,39.1367],[48.94557,39.13088],[48.94151,39.1279],[48.93853,39.12353],[48.9371,39.10918],[48.93809,39.0836],[48.94272,39.05576],[48.94683,39.0279],[48.94235,38.99321],[48.92899,38.95507],[48.91392,38.9245],[48.90066,38.90316],[48.88535,38.88701],[48.86443,38.87385],[48.84498,38.85952],[48.83671,38.8408],[48.83906,38.81916],[48.8479,38.78559],[48.85984,38.71389],[48.86949,38.60114],[48.87454,38.49095],[48.87624,38.41535],[48.87527,38.36315],[48.87362,38.32158],[48.87526,38.28536],[48.8826,38.24161],[48.89668,38.17541],[48.91663,38.08665],[48.93479,38.00371],[48.94308,37.95259],[48.94486,37.92572],[48.94979,37.90432],[48.96247,37.87987],[48.97779,37.85431],[48.98641,37.83505],[48.98785,37.82189],[48.99044,37.80438],[49.0021,37.77448],[49.02916,37.73187],[49.07522,37.68117],[49.14255,37.62853],[49.23469,37.57748],[49.3601,37.53108],[49.53141,37.49433],[49.71643,37.47162],[49.84292,37.46498],[49.90042,37.46804],[49.93242,37.46909],[49.95325,37.46527],[49.95734,37.46212],[49.95073,37.46147],[49.94837,37.45858],[49.97259,37.44795],[50.0373,37.42947],[50.12033,37.40839],[50.18368,37.38683],[50.21542,37.36238],[50.22804,37.33593],[50.23618,37.31027],[50.24613,37.28639],[50.2584,37.26329],[50.27466,37.23474],[50.2973,37.1976],[50.32845,37.15891],[50.37154,37.12189],[50.42248,37.08402],[50.46613,37.05143],[50.50026,37.02922],[50.54326,37.00756],[50.59655,36.98223],[50.63857,36.96258],[50.66436,36.94881],[50.69387,36.93079],[50.75604,36.89793],[50.86184,36.84561],[50.99442,36.78665],[51.15245,36.73674],[51.34309,36.69528],[51.54228,36.6574],[51.72959,36.62507],[51.90999,36.60819],[52.08699,36.61778],[52.26002,36.64852],[52.43239,36.68326],[52.60583,36.71464],[52.77819,36.74688],[52.95819,36.78489],[53.15941,36.82752],[53.37178,36.86531],[53.58483,36.89037],[53.78531,36.9078],[53.9254,36.92365],[53.98199,36.93001],[53.97905,36.92041],[53.93968,36.90461],[53.88662,36.89256],[53.84423,36.88441],[53.81866,36.88008],[53.79994,36.88033],[53.77998,36.88196],[53.75858,36.88072],[53.7352,36.8772],[53.70388,36.87557],[53.66411,36.87601],[53.63228,36.87429],[53.62459,36.86959],[53.63563,36.8654],[53.64634,36.86281],[53.64764,36.85889],[53.65075,36.84981],[53.67659,36.83534],[53.73698,36.82035],[53.81175,36.80894],[53.87093,36.8031],[53.92253,36.80616],[53.97745,36.81765],[54.01538,36.83739],[54.02835,36.87382],[54.02944,36.92193],[54.02431,36.9577],[54.01351,36.97373],[54.00393,36.98443],[54.00254,37.00185],[54.00351,37.02808],[53.99533,37.06287],[53.97689,37.11109],[53.95449,37.17075],[53.93458,37.22747],[53.92153,37.27572],[53.91405,37.32313],[53.9069,37.37904],[53.89595,37.44339],[53.8815,37.50017],[53.86786,37.54023],[53.85651,37.57953],[53.84201,37.65506],[53.82281,37.79059],[53.80859,37.94131],[53.80723,38.03972],[53.81618,38.09153],[53.82952,38.1398],[53.84187,38.19116],[53.85015,38.23375],[53.8551,38.27209],[53.85698,38.31602],[53.85537,38.35826],[53.85133,38.38546],[53.84612,38.39982],[53.84123,38.41131],[53.83692,38.42757],[53.83123,38.45515],[53.82506,38.49462],[53.82364,38.5427],[53.82968,38.59518],[53.8432,38.64458],[53.86547,38.68949],[53.89121,38.73275],[53.90853,38.77028],[53.91628,38.79764],[53.92299,38.81721],[53.93104,38.83445],[53.93903,38.8522],[53.94798,38.86964],[53.95809,38.88604],[53.96646,38.90015],[53.96946,38.91],[53.96734,38.91885],[53.96198,38.93185],[53.95074,38.94598],[53.93379,38.95459],[53.92026,38.95856],[53.91619,38.96341],[53.91626,38.96989],[53.91302,38.97499],[53.90608,38.97749],[53.89762,38.97862],[53.88841,38.98124],[53.88086,38.98759],[53.87696,38.99777],[53.87508,39.01158],[53.86923,39.02664],[53.85251,39.03777],[53.82718,39.04355],[53.8035,39.04635],[53.78655,39.04647],[53.77548,39.04354],[53.76978,39.04011],[53.76599,39.03998],[53.75692,39.04693],[53.74177,39.06478],[53.72767,39.08899],[53.71789,39.1041],[53.71153,39.10133],[53.71085,39.0874],[53.71638,39.07328],[53.72318,39.06544],[53.72432,39.06493],[53.71539,39.07018],[53.70157,39.08152],[53.69326,39.09968],[53.69168,39.12073],[53.69169,39.13898],[53.69449,39.15266],[53.7028,39.16314],[53.70967,39.17252],[53.70851,39.1853],[53.70534,39.20527],[53.70306,39.22477],[53.69298,39.22995],[53.67552,39.21976],[53.66435,39.19875],[53.66577,39.16341],[53.67108,39.12552],[53.66788,39.11175],[53.65324,39.12256],[53.63617,39.1394],[53.62632,39.1567],[53.62335,39.17488],[53.61949,39.18984],[53.61126,39.20006],[53.60384,39.20962],[53.60103,39.22129],[53.59931,39.2328],[53.5939,39.23754],[53.5846,39.22965],[53.57536,39.21513],[53.56815,39.21005],[53.56386,39.2243],[53.56542,39.25282],[53.56983,39.28023],[53.5711,39.2986],[53.57072,39.31317],[53.56985,39.32467],[53.5647,39.32949],[53.55811,39.33365],[53.55612,39.34308],[53.55391,39.35081],[53.54504,39.34948],[53.53363,39.34408],[53.52174,39.3411],[53.50271,39.33874],[53.47651,39.33338],[53.45362,39.32706],[53.44067,39.3263],[53.4347,39.33198],[53.42963,39.33556],[53.42222,39.33174],[53.41293,39.32465],[53.40336,39.31955],[53.39554,39.31909],[53.39204,39.32477],[53.39211,39.33416],[53.39015,39.34128],[53.38351,39.34368],[53.37536,39.34314],[53.36861,39.34108],[53.36453,39.33863],[53.36329,39.3377],[53.36176,39.33986],[53.35592,39.34423],[53.34448,39.34671],[53.32855,39.3445],[53.31166,39.34023],[53.29845,39.33865],[53.29219,39.34146],[53.29259,39.34704],[53.29332,39.35259],[53.2881,39.3561],[53.27808,39.35819],[53.26647,39.3613],[53.25298,39.36578],[53.23457,39.36847],[53.20763,39.3656],[53.17928,39.35634],[53.16804,39.34415],[53.17539,39.33258],[53.18077,39.32047],[53.17511,39.30566],[53.16738,39.28909],[53.1646,39.27049],[53.16697,39.24674],[53.17077,39.21968],[53.17061,39.19772],[53.16345,39.19435],[53.15091,39.22575],[53.13742,39.28455],[53.1222,39.33923],[53.10318,39.37586],[53.08937,39.40095],[53.09028,39.41994],[53.10299,39.43607],[53.11796,39.45053],[53.12808,39.46303],[53.13464,39.47501],[53.14368,39.48803],[53.15809,39.50624],[53.17863,39.53899],[53.20576,39.58624],[53.23852,39.63054],[53.27188,39.65557],[53.29178,39.66041],[53.28782,39.65246],[53.26866,39.63696],[53.24948,39.61724],[53.23677,39.59749],[53.22853,39.58075],[53.22103,39.56631],[53.21837,39.55125],[53.23433,39.53848],[53.28064,39.53497],[53.34833,39.53842],[53.40804,39.53872],[53.44064,39.53047],[53.45427,39.51647],[53.46576,39.50304],[53.48085,39.49372],[53.49799,39.48777],[53.51932,39.48346],[53.54393,39.47954],[53.56248,39.4762],[53.57036,39.47585],[53.57293,39.48017],[53.57563,39.48808],[53.5764,39.49647],[53.57114,39.50352],[53.5663,39.51188],[53.57269,39.52068],[53.58859,39.5218],[53.60488,39.51385],[53.61935,39.50672],[53.6363,39.50877],[53.65755,39.51755],[53.67935,39.52378],[53.6981,39.52282],[53.71231,39.51871],[53.72102,39.51736],[53.72514,39.52089],[53.72603,39.52878],[53.72215,39.53903],[53.7093,39.54869],[53.68519,39.55665],[53.65683,39.56394],[53.63933,39.57137],[53.63842,39.57867],[53.6443,39.58612],[53.64772,39.59612],[53.64538,39.60891],[53.63345,39.61953],[53.61043,39.62396],[53.58408,39.62493],[53.56623,39.6292],[53.55977,39.6394],[53.55886,39.65269],[53.5561,39.66577],[53.54693,39.67333],[53.53604,39.66833],[53.53166,39.65329],[53.53158,39.64337],[53.52441,39.6514],[53.50382,39.67355],[53.47638,39.69335],[53.45473,39.69865],[53.44643,39.69131],[53.44777,39.68313],[53.44729,39.68246],[53.43903,39.68463],[53.42993,39.67974],[53.42997,39.66605],[53.43597,39.65166],[53.43367,39.64715],[53.42141,39.66184],[53.41354,39.69742],[53.41393,39.73662],[53.41261,39.75827],[53.40574,39.76328],[53.39679,39.7647],[53.39002,39.76876],[53.39436,39.77909],[53.41788,39.80148],[53.45205,39.83254],[53.47694,39.8575],[53.4842,39.87033],[53.48257,39.87859],[53.4835,39.88689],[53.4912,39.89345],[53.50395,39.89724],[53.51728,39.89927],[53.5266,39.90142],[53.53033,39.90556],[53.5295,39.91174],[53.52847,39.91934],[53.53377,39.92909],[53.54531,39.94092],[53.55649,39.95331],[53.56282,39.96368],[53.56412,39.96923],[53.5628,39.97008],[53.56119,39.96963],[53.55701,39.9718],[53.54486,39.97686],[53.5238,39.98108],[53.49962,39.98383],[53.4779,39.98925],[53.45868,39.99821],[53.43987,40.00653],[53.42071,40.01098],[53.40128,40.01105],[53.38053,40.00526],[53.35605,39.99145],[53.33049,39.97409],[53.31102,39.96165],[53.29856,39.95498],[53.28952,39.9504],[53.28229,39.94843],[53.27426,39.95056],[53.26355,39.95516],[53.24887,39.96186],[53.2238,39.97404],[53.18868,39.98805],[53.15731,39.99308],[53.13377,39.98821],[53.10647,39.98176],[53.07632,39.97917],[53.05947,39.9817],[53.05991,39.98776],[53.06343,39.99323],[53.05126,39.99345],[53.0187,39.98857],[52.98174,39.98647],[52.95394,39.99446],[52.93272,40.00861],[52.91301,40.0162],[52.89866,40.01101],[52.89668,39.99825],[52.90414,39.98289],[52.91161,39.96381],[52.91754,39.93854],[52.9279,39.91041],[52.94538,39.88656],[52.96673,39.86608],[52.99044,39.84104],[53.01716,39.8113],[53.04097,39.78728],[53.05107,39.77621],[53.04348,39.7761],[53.03039,39.77778],[53.02815,39.7707],[53.03375,39.75881],[53.03089,39.75669],[53.0132,39.76873],[52.9886,39.79169],[52.9667,39.82075],[52.94705,39.84598],[52.92511,39.86264],[52.90473,39.87811],[52.89248,39.9],[52.88229,39.92846],[52.85625,39.96236],[52.81088,39.99905],[52.7676,40.03208],[52.74439,40.06169],[52.74018,40.0917],[52.74564,40.11806],[52.75303,40.13793],[52.75653,40.15606],[52.75075,40.17583],[52.74032,40.19495],[52.73603,40.21077],[52.73311,40.22578],[52.72033,40.24634],[52.70577,40.28463],[52.70648,40.35457],[52.72303,40.44221],[52.74668,40.51327],[52.77785,40.56405],[52.81467,40.61131],[52.84357,40.65434],[52.85558,40.68479],[52.85216,40.70159],[52.83929,40.70919],[52.8275,40.71513],[52.82433,40.7243],[52.82659,40.73438],[52.82876,40.74216],[52.83287,40.74912],[52.84249,40.75581],[52.85355,40.76005],[52.85977,40.76266],[52.86092,40.76713],[52.85954,40.77444],[52.85858,40.78717],[52.86463,40.81677],[52.88236,40.86883],[52.90326,40.92909],[52.91345,40.98475],[52.91376,41.03385],[52.91802,41.06779],[52.93192,41.07829],[52.94656,41.07189],[52.95383,41.06022],[52.95507,41.049],[52.95375,41.03839],[52.95235,41.02649],[52.95652,41.01017],[52.97175,40.98672],[52.99336,40.95862],[53.01189,40.93109],[53.02837,40.90749],[53.04799,40.88998],[53.06722,40.87901],[53.08229,40.87366],[53.09518,40.87248],[53.10489,40.87257],[53.10619,40.87038],[53.0964,40.86445],[53.07995,40.85529],[53.06813,40.84366],[53.06984,40.83242],[53.08158,40.82368],[53.09193,40.8147],[53.0955,40.80393],[53.09678,40.7936],[53.10177,40.78526],[53.113,40.77954],[53.13174,40.77636],[53.15594,40.7753],[53.18088,40.77883],[53.20694,40.79041],[53.23195,40.80409],[53.24508,40.80614],[53.24521,40.79449],[53.24965,40.78209],[53.2732,40.77834],[53.30594,40.78112],[53.32666,40.78643],[53.33247,40.79438],[53.33491,40.80548],[53.34158,40.81842],[53.3539,40.83011],[53.36814,40.83596],[53.37649,40.83332],[53.37538,40.82358],[53.37095,40.80971],[53.37218,40.79427],[53.38327,40.77966],[53.40186,40.76821],[53.42185,40.76048],[53.43899,40.75505],[53.45257,40.75005],[53.46324,40.74542],[53.47193,40.74316],[53.48008,40.74423],[53.49103,40.74857],[53.50825,40.75623],[53.52853,40.76661],[53.54333,40.78088],[53.54979,40.80256],[53.55364,40.83073],[53.56213,40.85961],[53.57639,40.88294],[53.59178,40.89571],[53.60552,40.89852],[53.61703,40.89568],[53.6244,40.88909],[53.6281,40.88122],[53.63336,40.87645],[53.64221,40.87455],[53.64916,40.87112],[53.65039,40.86539],[53.64852,40.85992],[53.64617,40.85519],[53.6441,40.84902],[53.64417,40.8389],[53.64787,40.82606],[53.65342,40.81526],[53.65641,40.8077],[53.65431,40.80046],[53.64971,40.79152],[53.64873,40.77806],[53.6556,40.7566],[53.66911,40.73145],[53.68536,40.71401],[53.70012,40.70741],[53.70955,40.70324],[53.7134,40.69617],[53.71358,40.68771],[53.70991,40.67736],[53.7053,40.6634],[53.70961,40.64855],[53.72984,40.63818],[53.76441,40.63478],[53.8068,40.63553],[53.84562,40.63831],[53.87385,40.64593],[53.89838,40.65888],[53.92415,40.67122],[53.94653,40.6768],[53.966,40.67491],[53.98694,40.67],[54.00819,40.66773],[54.02841,40.6703],[54.04912,40.67574],[54.06775,40.68143],[54.07929,40.68661],[54.08459,40.69174],[54.08648,40.69772],[54.0822,40.70519],[54.07433,40.71295],[54.07926,40.71844],[54.10468,40.72185],[54.14019,40.72623],[54.17763,40.73096],[54.20894,40.73157],[54.22265,40.72622],[54.22078,40.71568],[54.21581,40.70313],[54.21764,40.69405],[54.23869,40.68917],[54.28952,40.68563],[54.34768,40.68423],[54.37378,40.68662],[54.37354,40.69316],[54.38185,40.70361],[54.39782,40.71489],[54.39092,40.7229],[54.35748,40.72649],[54.32518,40.72905],[54.30817,40.73639],[54.29937,40.75106],[54.29086,40.77143],[54.28041,40.79487],[54.27038,40.81734],[54.26337,40.83485],[54.26032,40.84704],[54.26101,40.85562],[54.26338,40.86148],[54.26529,40.86604],[54.26576,40.87126],[54.26295,40.87596],[54.25524,40.8776],[54.24621,40.87934],[54.24279,40.8854],[54.24724,40.89273],[54.25545,40.89675],[54.26396,40.89922],[54.27498,40.90563],[54.29126,40.9167],[54.31197,40.92601],[54.33851,40.926],[54.37369,40.91412],[54.41083,40.8963],[54.43827,40.87994],[54.45226,40.86568],[54.45421,40.85141],[54.44945,40.83637],[54.45776,40.82451],[54.4995,40.82302],[54.56126,40.83078],[54.60917,40.84037],[54.63632,40.85106],[54.65943,40.86535],[54.68494,40.88188],[54.70924,40.90199],[54.72997,40.92633],[54.74364,40.94839],[54.74809,40.96491],[54.74609,40.97816],[54.74079,40.98892]]]}}]}