{"type":"FeatureCollection","meta":{"year":2035,"level_m":-30.828,"reference_year":2015,"reference_level_m":-27.85,"status":"semi","model":"cross-shore translation: retreat = Δlevel / tan(β)","source_id":"model","projected":true},"features":[{"type":"Feature","properties":{"year":2035,"level_m":-30.828},"geometry":{"type":"Polygon","coordinates":[[[54.72777,41.00001],[54.70941,41.01978],[54.68878,41.04305],[54.67832,41.06126],[54.68397,41.07044],[54.70258,41.06814],[54.72777,41.05723],[54.74722,41.04755],[54.74867,41.04565],[54.73671,41.05097],[54.72425,41.05981],[54.71572,41.06894],[54.7105,41.07737],[54.70873,41.08575],[54.71106,41.09443],[54.71694,41.10119],[54.72153,41.10304],[54.7186,41.1039],[54.70653,41.11135],[54.68653,41.12284],[54.66113,41.13135],[54.63667,41.14113],[54.60478,41.16539],[54.53576,41.21435],[54.43207,41.27726],[54.34172,41.32515],[54.28692,41.34977],[54.24842,41.36739],[54.21495,41.38522],[54.19132,41.39988],[54.17681,41.41293],[54.1645,41.42889],[54.15149,41.44695],[54.1354,41.46132],[54.11298,41.4693],[54.08854,41.47544],[54.0683,41.4866],[54.05145,41.50637],[54.03624,41.53498],[54.02489,41.57308],[54.01863,41.62299],[54.01455,41.67853],[54.00833,41.72595],[53.99588,41.764],[53.97447,41.80251],[53.94979,41.84032],[53.93311,41.86689],[53.92609,41.88118],[53.92051,41.8892],[53.91095,41.89334],[53.90006,41.89709],[53.89393,41.90491],[53.8942,41.9155],[53.89736,41.92532],[53.89946,41.93416],[53.89885,41.94461],[53.89731,41.95884],[53.89865,41.97602],[53.90299,41.99318],[53.90628,42.00881],[53.90614,42.02461],[53.90295,42.04185],[53.89588,42.05943],[53.88068,42.0773],[53.8528,42.09714],[53.81357,42.11715],[53.7695,42.13175],[53.70869,42.13751],[53.59769,42.13212],[53.45233,42.11543],[53.34121,42.09747],[53.27854,42.09006],[53.22543,42.09346],[53.16994,42.09696],[53.12187,42.08934],[53.0796,42.0684],[53.03136,42.03645],[52.97184,41.98766],[52.90592,41.91102],[52.84508,41.82292],[52.80437,41.76344],[52.78487,41.73886],[52.77439,41.72275],[52.76714,41.70161],[52.76483,41.68025],[52.77024,41.66941],[52.785,41.67547],[52.8085,41.69089],[52.83889,41.70081],[52.87019,41.69808],[52.89285,41.68667],[52.90258,41.67329],[52.90162,41.65971],[52.89521,41.64518],[52.89017,41.6306],[52.88973,41.61621],[52.89152,41.60134],[52.88811,41.57877],[52.87047,41.53388],[52.84261,41.47296],[52.82001,41.42404],[52.80852,41.39666],[52.80488,41.37936],[52.80779,41.36135],[52.81551,41.33425],[52.8244,41.29522],[52.83541,41.24999],[52.85425,41.20289],[52.87738,41.15838],[52.89034,41.12493],[52.88768,41.10081],[52.87936,41.07893],[52.87516,41.06271],[52.87282,41.05749],[52.86621,41.06168],[52.85538,41.07023],[52.84474,41.08065],[52.83963,41.09615],[52.84027,41.11783],[52.84088,41.14054],[52.83787,41.16084],[52.8319,41.17854],[52.8248,41.19255],[52.81728,41.20272],[52.80966,41.21162],[52.80377,41.22214],[52.80124,41.23535],[52.79984,41.25218],[52.79482,41.27576],[52.78578,41.30316],[52.77583,41.32572],[52.76547,41.34546],[52.75539,41.36773],[52.74578,41.38564],[52.73364,41.3931],[52.72055,41.39652],[52.71221,41.40381],[52.70886,41.41395],[52.70657,41.42334],[52.70275,41.43339],[52.69484,41.44497],[52.6803,41.45374],[52.65957,41.45869],[52.6359,41.46745],[52.61382,41.4844],[52.5954,41.50187],[52.57802,41.51377],[52.56274,41.52472],[52.5564,41.53901],[52.56108,41.55535],[52.57043,41.5711],[52.57695,41.58475],[52.57906,41.59803],[52.5799,41.61219],[52.58194,41.62452],[52.58454,41.63303],[52.58631,41.63901],[52.58788,41.645],[52.5884,41.651],[52.58398,41.65511],[52.57483,41.65977],[52.56664,41.66857],[52.56259,41.67965],[52.55906,41.68891],[52.55075,41.69337],[52.53787,41.6932],[52.52561,41.69378],[52.5179,41.69988],[52.51231,41.7097],[52.50334,41.71954],[52.49008,41.72826],[52.47368,41.7353],[52.4547,41.74202],[52.43853,41.75297],[52.4342,41.77383],[52.44519,41.80931],[52.46321,41.85544],[52.47434,41.89944],[52.47333,41.93313],[52.46509,41.95643],[52.45502,41.9714],[52.44507,41.98106],[52.43566,41.98955],[52.42833,42.00155],[52.42546,42.01964],[52.42609,42.03956],[52.42445,42.05548],[52.41631,42.07015],[52.40727,42.08849],[52.40628,42.10856],[52.41212,42.12768],[52.4182,42.14633],[52.42387,42.16446],[52.4329,42.18008],[52.4466,42.19139],[52.46438,42.20304],[52.49039,42.22835],[52.52705,42.27087],[52.56222,42.31193],[52.58224,42.33561],[52.5891,42.34783],[52.59103,42.36018],[52.59199,42.37491],[52.59554,42.38957],[52.60578,42.40415],[52.62034,42.41841],[52.63144,42.43028],[52.63646,42.44084],[52.6397,42.45408],[52.6459,42.4744],[52.65526,42.50379],[52.66264,42.53867],[52.66215,42.57503],[52.65169,42.61187],[52.6326,42.64596],[52.60732,42.67362],[52.58179,42.69691],[52.56587,42.71852],[52.56376,42.73473],[52.56971,42.73963],[52.57715,42.73211],[52.58591,42.71636],[52.59817,42.6997],[52.61373,42.6873],[52.63178,42.67767],[52.64911,42.66804],[52.66004,42.65927],[52.66459,42.65238],[52.66824,42.64548],[52.67462,42.63332],[52.68408,42.6148],[52.69528,42.5993],[52.70625,42.59529],[52.71613,42.60245],[52.72532,42.6177],[52.73233,42.63869],[52.73311,42.66506],[52.72385,42.69503],[52.70228,42.72117],[52.67099,42.73882],[52.63838,42.75349],[52.60347,42.77234],[52.54917,42.79469],[52.47291,42.81426],[52.40296,42.82671],[52.36227,42.83212],[52.34328,42.83204],[52.33031,42.82804],[52.31876,42.82129],[52.30927,42.81157],[52.30073,42.8006],[52.28583,42.79813],[52.25489,42.81583],[52.21212,42.84833],[52.16942,42.87506],[52.12209,42.88425],[52.06221,42.8782],[52.00295,42.86344],[51.96021,42.84785],[51.9296,42.84201],[51.8976,42.85455],[51.86316,42.88132],[51.83498,42.90991],[51.81493,42.93451],[51.79953,42.9565],[51.78724,42.97951],[51.77447,43.0057],[51.75501,43.03397],[51.73036,43.06081],[51.70972,43.07999],[51.69552,43.08905],[51.68351,43.09385],[51.67355,43.10095],[51.66868,43.11116],[51.66941,43.12172],[51.67264,43.13183],[51.67391,43.14385],[51.67031,43.15882],[51.66038,43.17244],[51.64064,43.17843],[51.60908,43.17694],[51.57387,43.17386],[51.54688,43.17196],[51.53129,43.16915],[51.52328,43.16342],[51.5169,43.15658],[51.50652,43.15321],[51.49118,43.15525],[51.46981,43.15897],[51.43066,43.1587],[51.36764,43.15526],[51.30449,43.15677],[51.27166,43.17236],[51.27231,43.20812],[51.2886,43.2643],[51.30309,43.33561],[51.30736,43.40758],[51.29986,43.46181],[51.28603,43.49484],[51.27544,43.51516],[51.27102,43.53048],[51.26843,43.54468],[51.26136,43.55804],[51.24503,43.5724],[51.22388,43.58949],[51.20866,43.60594],[51.20162,43.61661],[51.19621,43.61989],[51.18752,43.61889],[51.17575,43.61791],[51.16318,43.61929],[51.14974,43.62491],[51.12814,43.64512],[51.08982,43.69443],[51.04508,43.76035],[51.0161,43.80906],[51.00588,43.83177],[51.00154,43.84306],[50.99634,43.85156],[50.99157,43.85922],[50.99071,43.86817],[50.99317,43.8803],[50.9928,43.89418],[50.98544,43.90691],[50.97172,43.91935],[50.9556,43.93319],[50.9419,43.94803],[50.93062,43.96405],[50.91897,43.98094],[50.90753,43.9957],[50.89688,44.00559],[50.88448,44.01165],[50.87004,44.01748],[50.85839,44.02575],[50.85451,44.03604],[50.85781,44.0465],[50.86266,44.06163],[50.86369,44.09179],[50.85882,44.13303],[50.84906,44.16733],[50.83424,44.19033],[50.80783,44.21123],[50.74396,44.23582],[50.61057,44.26562],[50.44226,44.29602],[50.32445,44.31888],[50.27533,44.33462],[50.25366,44.3502],[50.24098,44.37058],[50.23827,44.39777],[50.24046,44.42841],[50.24131,44.4546],[50.24037,44.47306],[50.23849,44.48868],[50.23491,44.50874],[50.2317,44.53477],[50.23261,44.55795],[50.23977,44.56756],[50.25335,44.56826],[50.27144,44.57493],[50.2927,44.58822],[50.31452,44.59942],[50.33079,44.61027],[50.33864,44.62394],[50.3396,44.63389],[50.33336,44.63548],[50.31973,44.63292],[50.30748,44.62984],[50.31861,44.62364],[50.37405,44.61235],[50.46172,44.60171],[50.53932,44.59941],[50.5808,44.60356],[50.59607,44.60488],[50.61382,44.59939],[50.65126,44.59179],[50.69489,44.58611],[50.72945,44.58189],[50.76126,44.58186],[50.79214,44.59005],[50.81099,44.60132],[50.81384,44.60651],[50.8102,44.60474],[50.81561,44.60137],[50.83395,44.59901],[50.85628,44.59696],[50.88287,44.59341],[50.91678,44.58526],[50.9486,44.57357],[50.97168,44.56525],[50.98814,44.56255],[50.99913,44.56058],[51.00537,44.55599],[51.00637,44.55007],[51.00147,44.54461],[50.99875,44.53757],[51.01225,44.52535],[51.04828,44.50845],[51.09651,44.49257],[51.13974,44.48389],[51.17337,44.48348],[51.20422,44.49037],[51.23681,44.50544],[51.26602,44.52405],[51.28285,44.53692],[51.28853,44.54252],[51.29138,44.54542],[51.2963,44.54749],[51.30627,44.54844],[51.32258,44.54915],[51.34245,44.55128],[51.35985,44.55271],[51.37102,44.54677],[51.38489,44.53397],[51.41759,44.52373],[51.46927,44.51788],[51.52007,44.51323],[51.5518,44.51423],[51.56242,44.52339],[51.55934,44.5354],[51.54635,44.54721],[51.51872,44.56005],[51.47696,44.57212],[51.43737,44.57798],[51.40662,44.57774],[51.36871,44.57961],[51.31594,44.5925],[51.26248,44.62133],[51.2227,44.65993],[51.19233,44.69386],[51.15591,44.71985],[51.11407,44.74243],[51.08512,44.75857],[51.07483,44.76526],[51.06743,44.7671],[51.04959,44.77073],[51.02733,44.77809],[51.00868,44.78742],[50.98529,44.80144],[50.95893,44.82483],[50.95604,44.85331],[50.98027,44.87582],[51.00303,44.88712],[51.01458,44.89321],[51.01935,44.90315],[51.00632,44.91634],[50.97843,44.92395],[50.96079,44.92285],[50.95618,44.9198],[50.95137,44.92316],[50.95493,44.93513],[50.97418,44.94881],[50.99385,44.95663],[51.00627,44.9598],[51.01818,44.96196],[51.03405,44.96326],[51.05633,44.96499],[51.08316,44.97058],[51.10707,44.98078],[51.12334,44.99235],[51.13455,45.00217],[51.14862,45.0112],[51.16771,45.02077],[51.18232,45.02827],[51.1867,45.03098],[51.18984,45.02719],[51.20573,45.01638],[51.23423,45.00668],[51.25299,45.0109],[51.24734,45.02803],[51.23131,45.0459],[51.21833,45.06125],[51.21371,45.07767],[51.23049,45.09317],[51.2655,45.10504],[51.28715,45.11569],[51.27316,45.12599],[51.24358,45.13504],[51.2399,45.1446],[51.26634,45.15492],[51.29312,45.16623],[51.31124,45.18292],[51.328,45.20485],[51.34602,45.22835],[51.37437,45.25888],[51.4132,45.29891],[51.44198,45.33488],[51.44657,45.35508],[51.43244,45.35928],[51.4216,45.34896],[51.43933,45.32885],[51.48761,45.31174],[51.54814,45.30821],[51.60548,45.31849],[51.64992,45.3359],[51.6749,45.35044],[51.68724,45.35696],[51.70424,45.36218],[51.72974,45.37465],[51.75262,45.39323],[51.76566,45.41038],[51.76673,45.42075],[51.75635,45.42455],[51.74393,45.42375],[51.74155,45.41699],[51.75722,45.4018],[51.79408,45.38245],[51.83826,45.36761],[51.87214,45.35751],[51.90205,45.34776],[51.93946,45.34255],[51.97724,45.34707],[52.00264,45.35571],[52.01625,45.35981],[52.03258,45.35774],[52.07839,45.35484],[52.183,45.35768],[52.32495,45.36507],[52.43911,45.37022],[52.51381,45.36805],[52.59496,45.35328],[52.69938,45.32832],[52.79595,45.30552],[52.86554,45.29134],[52.92372,45.28497],[52.97875,45.28312],[53.02522,45.27972],[53.06754,45.27377],[53.11029,45.27192],[53.14989,45.27785],[53.18276,45.28734],[53.20833,45.29591],[53.22554,45.30321],[53.23042,45.30772],[53.22837,45.30736],[53.23538,45.30497],[53.25549,45.30586],[53.27266,45.31369],[53.26802,45.32793],[53.24668,45.34018],[53.22626,45.34351],[53.19795,45.34486],[53.15237,45.35301],[53.11235,45.36476],[53.09549,45.37273],[53.09251,45.37515],[53.08502,45.37593],[53.05467,45.382],[52.99447,45.39832],[52.92485,45.4197],[52.87384,45.43705],[52.84482,45.45018],[52.82938,45.46055],[52.82275,45.46555],[52.81147,45.46783],[52.78175,45.475],[52.74111,45.49089],[52.71019,45.51128],[52.69685,45.52766],[52.69242,45.53907],[52.69024,45.55268],[52.69125,45.56819],[52.69405,45.57759],[52.6948,45.58086],[52.69342,45.58702],[52.69277,45.60221],[52.70012,45.6218],[52.72553,45.63297],[52.76434,45.63242],[52.79396,45.63497],[52.80323,45.65311],[52.81404,45.68171],[52.84717,45.71083],[52.88453,45.73493],[52.90467,45.74955],[52.91661,45.75648],[52.93506,45.7654],[52.95555,45.78489],[52.96047,45.81726],[52.95527,45.85427],[52.97311,45.88103],[53.01797,45.89456],[53.05239,45.90697],[53.05061,45.92684],[53.03299,45.94957],[53.03618,45.96734],[53.05253,45.98352],[53.05224,46.00315],[53.04138,46.01868],[53.03612,46.02571],[53.03991,46.03152],[53.06247,46.04061],[53.09715,46.05355],[53.10931,46.07348],[53.09246,46.10115],[53.0727,46.14044],[53.05286,46.19885],[53.02603,46.26433],[53.00309,46.31326],[52.98333,46.34433],[52.95869,46.36972],[52.94627,46.3848],[52.96778,46.3794],[53.01051,46.36445],[53.03023,46.36176],[53.0044,46.37903],[52.96216,46.41159],[52.93693,46.44886],[52.94701,46.46769],[53.00697,46.45489],[53.08183,46.42759],[53.09342,46.40682],[53.01902,46.40887],[52.93955,46.44178],[52.95752,46.48053],[53.0411,46.49835],[53.05842,46.50053],[53.01171,46.49079],[53.02062,46.47138],[53.08478,46.47043],[53.09212,46.5084],[53.03028,46.55815],[52.99463,46.57349],[53.02252,46.55493],[53.09459,46.54445],[53.18789,46.55578],[53.24473,46.5656],[53.23137,46.55804],[53.19307,46.54186],[53.18937,46.53358],[53.21131,46.54556],[53.19217,46.58523],[53.12232,46.63565],[53.06867,46.66369],[53.06299,46.66181],[53.07969,46.64647],[53.08642,46.63537],[53.06035,46.64422],[53.00856,46.67937],[52.96473,46.7291],[52.94345,46.77593],[52.93265,46.81166],[52.93192,46.83024],[52.9567,46.82569],[52.98968,46.80761],[52.98187,46.79915],[52.92576,46.81341],[52.86869,46.84069],[52.85187,46.85883],[52.86362,46.85796],[52.85315,46.84871],[52.79521,46.84266],[52.70906,46.84215],[52.61885,46.84769],[52.53894,46.86148],[52.48317,46.88041],[52.46035,46.89317],[52.4618,46.8958],[52.47822,46.89959],[52.49257,46.9164],[52.45304,46.94352],[52.37565,46.95894],[52.37059,46.93988],[52.43901,46.89191],[52.46314,46.84048],[52.40298,46.80147],[52.30433,46.77956],[52.22178,46.77592],[52.18591,46.7899],[52.15771,46.81831],[52.1043,46.83752],[52.07811,46.82025],[52.10304,46.7839],[52.12603,46.76596],[52.11914,46.77149],[52.10264,46.78352],[52.09364,46.79355],[52.10026,46.7971],[52.12682,46.77853],[52.13992,46.74119],[52.10038,46.7194],[52.03307,46.72674],[51.97982,46.74955],[51.94515,46.77858],[51.93023,46.79963],[51.94004,46.79657],[51.95282,46.7825],[51.94295,46.78257],[51.9179,46.79731],[51.89171,46.82144],[51.88416,46.85319],[51.93835,46.87144],[52.02486,46.87013],[52.03482,46.87616],[51.97547,46.88603],[51.96863,46.87664],[52.03354,46.86146],[52.07949,46.84927],[52.05345,46.8244],[51.97702,46.79461],[51.90947,46.78699],[51.90479,46.80994],[51.93873,46.84286],[51.92846,46.85896],[51.88227,46.85405],[51.87335,46.84056],[51.8811,46.82707],[51.84265,46.81672],[51.7659,46.81548],[51.6941,46.82728],[51.64572,46.84613],[51.60998,46.87083],[51.5934,46.91077],[51.62379,46.95921],[51.65747,46.99047],[51.64027,46.99241],[51.63289,46.97905],[51.68363,46.97408],[51.74217,46.9832],[51.76613,46.98583],[51.74528,46.96444],[51.66823,46.93312],[51.55619,46.92379],[51.46791,46.94261],[51.43442,46.96267],[51.43468,46.96646],[51.4288,46.96418],[51.38981,46.96902],[51.31786,46.98221],[51.24524,46.99875],[51.21481,47.0113],[51.21835,47.01226],[51.1981,46.99954],[51.13523,46.98139],[51.07436,46.96954],[51.04147,46.96161],[50.99958,46.94717],[50.92079,46.93378],[50.84275,46.93387],[50.8214,46.94027],[50.86455,46.9474],[50.90997,46.96292],[50.89671,46.98419],[50.87506,46.99633],[50.90758,46.984],[50.92319,46.93853],[50.84573,46.88199],[50.73704,46.8586],[50.71613,46.87368],[50.7754,46.89684],[50.78606,46.91388],[50.74079,46.91629],[50.74506,46.8997],[50.78762,46.87884],[50.785,46.85957],[50.72878,46.84038],[50.66936,46.83181],[50.66019,46.84285],[50.70377,46.86499],[50.74591,46.87288],[50.7526,46.85049],[50.72841,46.80918],[50.68729,46.77488],[50.663,46.77061],[50.67777,46.79241],[50.69064,46.81273],[50.65009,46.81529],[50.58479,46.80162],[50.56156,46.78539],[50.57801,46.77917],[50.5793,46.78019],[50.53681,46.78695],[50.47224,46.80298],[50.42501,46.82104],[50.4074,46.83118],[50.41252,46.83356],[50.4366,46.83535],[50.46991,46.8418],[50.49297,46.84627],[50.48685,46.83194],[50.45244,46.80041],[50.41578,46.7844],[50.39038,46.79862],[50.38175,46.81505],[50.40235,46.8144],[50.42905,46.80496],[50.42845,46.79094],[50.40262,46.77159],[50.3711,46.75485],[50.35456,46.74854],[50.35833,46.75119],[50.36627,46.75351],[50.35872,46.74164],[50.32212,46.71309],[50.26717,46.68978],[50.24168,46.69223],[50.25599,46.71197],[50.24879,46.72658],[50.21194,46.7248],[50.20383,46.71293],[50.21962,46.7002],[50.2098,46.68088],[50.17162,46.6492],[50.12837,46.6148],[50.0825,46.58772],[50.03481,46.57158],[50.00614,46.56737],[50.00613,46.57047],[50.01307,46.57119],[50.00427,46.56288],[49.98177,46.54903],[49.95518,46.5361],[49.92096,46.52492],[49.88646,46.51859],[49.87844,46.52323],[49.89222,46.53012],[49.88321,46.52147],[49.8295,46.50426],[49.76468,46.50032],[49.74121,46.50861],[49.77278,46.519],[49.81889,46.52588],[49.82649,46.51778],[49.78005,46.50015],[49.71516,46.49409],[49.68415,46.49943],[49.70501,46.50734],[49.7507,46.52038],[49.77473,46.52946],[49.7414,46.52114],[49.67142,46.51154],[49.63781,46.52109],[49.66507,46.53753],[49.69545,46.53516],[49.68541,46.50981],[49.66144,46.48446],[49.64939,46.47435],[49.61755,46.47104],[49.55471,46.47158],[49.5047,46.47711],[49.47668,46.48036],[49.45602,46.48927],[49.47327,46.52057],[49.53476,46.5605],[49.56941,46.57532],[49.52267,46.55664],[49.43479,46.52504],[49.39448,46.50007],[49.43212,46.4824],[49.48115,46.46106],[49.47747,46.43684],[49.43988,46.42589],[49.4168,46.43742],[49.44368,46.46392],[49.51494,46.49219],[49.5581,46.51236],[49.51739,46.51437],[49.43515,46.49803],[49.40061,46.48304],[49.44103,46.48657],[49.4958,46.49986],[49.49509,46.49751],[49.43483,46.47755],[49.35914,46.46742],[49.30658,46.47909],[49.29235,46.49851],[49.29047,46.50779],[49.28914,46.49817],[49.32989,46.47515],[49.38554,46.44647],[49.3787,46.41939],[49.3205,46.40958],[49.26176,46.42299],[49.22358,46.4439],[49.21849,46.45399],[49.23871,46.45231],[49.24252,46.45311],[49.22791,46.46381],[49.24688,46.47338],[49.27935,46.46279],[49.27047,46.42993],[49.26645,46.40106],[49.32946,46.39867],[49.42504,46.40933],[49.47416,46.4023],[49.43994,46.37131],[49.35165,46.3436],[49.2672,46.34341],[49.21591,46.36344],[49.1903,46.38376],[49.18265,46.3939],[49.19563,46.39303],[49.21769,46.38912],[49.21533,46.39093],[49.19506,46.40202],[49.22195,46.42267],[49.28759,46.43837],[49.29397,46.42497],[49.24547,46.38594],[49.24128,46.34835],[49.27501,46.32438],[49.26767,46.31318],[49.22264,46.31466],[49.20081,46.32666],[49.2107,46.34661],[49.19454,46.36223],[49.14236,46.35496],[49.11757,46.33081],[49.12906,46.31457],[49.1461,46.31883],[49.19345,46.33754],[49.27623,46.35324],[49.33686,46.35429],[49.33937,46.34262],[49.28525,46.31783],[49.21197,46.28012],[49.19398,46.24705],[49.25819,46.23396],[49.33457,46.22447],[49.33772,46.20114],[49.27385,46.18181],[49.21344,46.18155],[49.18791,46.18753],[49.17268,46.19201],[49.15332,46.20551],[49.16497,46.2368],[49.21199,46.27106],[49.23198,46.2824],[49.21586,46.27269],[49.20677,46.25953],[49.20085,46.24705],[49.19039,46.24176],[49.18942,46.24491],[49.18839,46.23967],[49.1674,46.22324],[49.1173,46.2061],[49.0571,46.19078],[49.03544,46.18591],[49.08235,46.19521],[49.15842,46.19108],[49.17522,46.15272],[49.10991,46.1109],[49.03002,46.10325],[48.98865,46.11838],[48.99299,46.12551],[49.03336,46.12177],[49.08498,46.12221],[49.11608,46.12586],[49.11113,46.11941],[49.08358,46.10415],[49.05658,46.09079],[49.04006,46.08817],[49.02349,46.10103],[48.99242,46.11192],[48.97869,46.10188],[49.01159,46.08012],[49.03637,46.0556],[49.01322,46.03575],[48.99394,46.04438],[48.99894,46.08046],[48.96384,46.10511],[48.8878,46.10081],[48.86429,46.09193],[48.91731,46.10219],[48.97494,46.11697],[48.97571,46.10406],[48.91069,46.07498],[48.828,46.06524],[48.80049,46.07623],[48.83236,46.09573],[48.85945,46.11214],[48.87794,46.11199],[48.91633,46.09296],[48.91673,46.05963],[48.85757,46.03921],[48.82283,46.05716],[48.83272,46.08585],[48.83627,46.09486],[48.8276,46.09159],[48.84127,46.08458],[48.88757,46.06999],[48.91111,46.04178],[48.87643,46.01546],[48.84743,46.0248],[48.857,46.06148],[48.83272,46.07741],[48.75685,46.06234],[48.71278,46.04722],[48.72315,46.04523],[48.72015,46.04608],[48.68771,46.04497],[48.68798,46.0479],[48.73437,46.0582],[48.77513,46.07194],[48.78746,46.07965],[48.77601,46.06788],[48.7427,46.03903],[48.70159,46.0154],[48.66402,46.00589],[48.63096,46.00148],[48.60982,45.99896],[48.60384,45.99654],[48.6221,45.99129],[48.68614,45.98771],[48.77126,45.98227],[48.8124,45.96424],[48.79655,45.93839],[48.76463,45.91861],[48.74637,45.91062],[48.74565,45.9158],[48.74043,45.93234],[48.70325,45.94034],[48.66574,45.92224],[48.67697,45.89648],[48.70753,45.88537],[48.71143,45.88602],[48.70663,45.89623],[48.73983,45.91547],[48.80951,45.9272],[48.85929,45.92324],[48.85519,45.91525],[48.81321,45.90605],[48.78959,45.89927],[48.80791,45.89991],[48.81214,45.88367],[48.79197,45.83958],[48.78438,45.79836],[48.78427,45.77805],[48.78687,45.76875],[48.79356,45.766],[48.79772,45.77176],[48.7828,45.77425],[48.73703,45.77355],[48.71341,45.79168],[48.75245,45.8234],[48.79397,45.84179],[48.77207,45.83801],[48.69698,45.82397],[48.62292,45.81969],[48.58625,45.82626],[48.58225,45.82909],[48.58956,45.82657],[48.60206,45.83253],[48.63793,45.86286],[48.68044,45.90452],[48.66091,45.92042],[48.58107,45.90828],[48.53027,45.89555],[48.54492,45.89004],[48.58194,45.88712],[48.60182,45.88573],[48.59256,45.87991],[48.55549,45.86688],[48.51479,45.85641],[48.50436,45.85669],[48.52313,45.86317],[48.53833,45.86489],[48.52745,45.85263],[48.48541,45.82684],[48.42648,45.80238],[48.39494,45.79685],[48.4029,45.81044],[48.3946,45.8195],[48.3566,45.80498],[48.35182,45.78438],[48.39899,45.78016],[48.4331,45.77916],[48.40698,45.76751],[48.36711,45.76294],[48.36997,45.77891],[48.39587,45.79877],[48.4082,45.79996],[48.40223,45.7788],[48.38059,45.7466],[48.34501,45.71599],[48.30544,45.69503],[48.28192,45.68999],[48.29131,45.70733],[48.32099,45.73972],[48.34087,45.76622],[48.34617,45.77527],[48.34397,45.76066],[48.31544,45.71788],[48.24902,45.67049],[48.18397,45.65074],[48.15937,45.65266],[48.14851,45.65411],[48.11296,45.65521],[48.08234,45.66197],[48.09484,45.66895],[48.12071,45.66897],[48.12129,45.66151],[48.11027,45.65559],[48.10985,45.65711],[48.09853,45.65682],[48.05418,45.65803],[48.00964,45.67786],[47.98054,45.69764],[47.93922,45.68946],[47.90324,45.66935],[47.90721,45.65731],[47.94259,45.65113],[47.98409,45.64935],[48.00683,45.64923],[48.00557,45.64716],[47.99993,45.64566],[47.99918,45.64975],[47.99899,45.67039],[47.98749,45.70138],[47.94481,45.70585],[47.89686,45.67825],[47.89862,45.66062],[47.93739,45.6694],[47.96342,45.67746],[47.96592,45.67068],[47.95873,45.66767],[47.95523,45.67091],[47.95768,45.65336],[47.95478,45.61264],[47.92944,45.57608],[47.87702,45.56588],[47.83834,45.59533],[47.84978,45.65029],[47.86513,45.68655],[47.82458,45.67842],[47.75774,45.65279],[47.72737,45.6557],[47.71773,45.67437],[47.69921,45.66499],[47.70699,45.641],[47.74326,45.63238],[47.75491,45.6305],[47.72588,45.62399],[47.68539,45.61827],[47.65519,45.61827],[47.64088,45.63155],[47.66084,45.66964],[47.71478,45.71864],[47.75744,45.75044],[47.75162,45.76034],[47.69153,45.7483],[47.60931,45.71752],[47.55943,45.69204],[47.55404,45.68431],[47.57501,45.68899],[47.61359,45.70862],[47.64541,45.73292],[47.64075,45.72802],[47.60993,45.69232],[47.5909,45.67168],[47.61218,45.69295],[47.65287,45.72489],[47.64853,45.71903],[47.59724,45.67785],[47.5745,45.64951],[47.61892,45.65832],[47.69214,45.68213],[47.73894,45.69403],[47.7494,45.68976],[47.74041,45.66842],[47.71641,45.63269],[47.69299,45.60805],[47.69451,45.6187],[47.71361,45.65188],[47.72762,45.67237],[47.72221,45.66341],[47.69533,45.63556],[47.6782,45.61411],[47.68363,45.60861],[47.67768,45.59958],[47.65823,45.58025],[47.64486,45.5656],[47.63965,45.56686],[47.65275,45.59027],[47.66378,45.62464],[47.6209,45.63752],[47.5438,45.61812],[47.49112,45.59478],[47.45391,45.5916],[47.41006,45.60366],[47.38683,45.61921],[47.41692,45.63504],[47.48098,45.64664],[47.5178,45.64716],[47.51457,45.64094],[47.51184,45.63948],[47.50488,45.64408],[47.47074,45.65729],[47.4426,45.68781],[47.43309,45.71131],[47.4203,45.69977],[47.42542,45.68318],[47.45891,45.69792],[47.48657,45.73412],[47.49858,45.76],[47.5124,45.75447],[47.52853,45.72984],[47.53524,45.71612],[47.52088,45.71308],[47.47621,45.68939],[47.42972,45.64082],[47.41884,45.60252],[47.43088,45.6],[47.45958,45.63269],[47.50422,45.66881],[47.51781,45.65973],[47.49097,45.61146],[47.4815,45.58239],[47.52771,45.59644],[47.60534,45.62371],[47.65232,45.63382],[47.63988,45.62398],[47.60169,45.60329],[47.57888,45.58214],[47.5751,45.56789],[47.57396,45.55888],[47.56843,45.55133],[47.56038,45.54478],[47.55125,45.54068],[47.54029,45.54273],[47.52819,45.55418],[47.51779,45.57108],[47.50965,45.58252],[47.5032,45.582],[47.50021,45.57427],[47.50275,45.56464],[47.5119,45.55049],[47.52537,45.53138],[47.53598,45.51499],[47.53755,45.50509],[47.52859,45.49578],[47.51449,45.48329],[47.50473,45.47026],[47.502,45.45688],[47.50035,45.44224],[47.49041,45.42999],[47.46519,45.4235],[47.43098,45.42086],[47.40433,45.41732],[47.39638,45.41091],[47.40917,45.40437],[47.43401,45.40024],[47.45403,45.39645],[47.46054,45.38979],[47.45703,45.38112],[47.44851,45.37345],[47.43911,45.36822],[47.43267,45.3648],[47.42788,45.35925],[47.4188,45.34548],[47.40468,45.32351],[47.39235,45.29705],[47.38555,45.26243],[47.37997,45.22235],[47.36996,45.19433],[47.3544,45.18608],[47.33593,45.18776],[47.31799,45.18784],[47.30304,45.17854],[47.29081,45.15571],[47.27903,45.12292],[47.26611,45.08983],[47.25109,45.05985],[47.23422,45.02859],[47.21735,44.99817],[47.20088,44.97819],[47.18481,44.96913],[47.17089,44.96049],[47.15985,44.94783],[47.15048,44.93923],[47.14055,44.94127],[47.12795,44.94864],[47.11485,44.9529],[47.1071,44.94727],[47.10576,44.92172],[47.10326,44.87644],[47.09501,44.83158],[47.08632,44.80349],[47.08029,44.79199],[47.07165,44.79509],[47.0559,44.81233],[47.03714,44.83813],[47.02317,44.86684],[47.01416,44.89413],[47.00525,44.91026],[46.99692,44.90803],[46.99405,44.89218],[46.99843,44.87134],[47.00569,44.85055],[47.00768,44.83084],[46.99852,44.8097],[46.98081,44.78791],[46.96159,44.77333],[46.94243,44.76792],[46.92034,44.76244],[46.8961,44.75127],[46.87505,44.73741],[46.85939,44.72311],[46.84446,44.70977],[46.8239,44.70032],[46.79777,44.6917],[46.77178,44.67755],[46.74939,44.66118],[46.73201,44.64526],[46.72121,44.62119],[46.71679,44.59103],[46.71776,44.56961],[46.72154,44.55872],[46.72269,44.55086],[46.71767,44.54489],[46.70812,44.54156],[46.69812,44.53882],[46.69084,44.53365],[46.6885,44.52196],[46.69206,44.50064],[46.69931,44.47398],[46.70799,44.45072],[46.72038,44.4332],[46.73815,44.41819],[46.75899,44.40499],[46.78326,44.39617],[46.81082,44.39306],[46.8433,44.39156],[46.89491,44.38462],[46.96327,44.37212],[47.01735,44.35914],[47.04476,44.3439],[47.05984,44.32083],[47.07206,44.29312],[47.08308,44.2697],[47.09494,44.25287],[47.1087,44.23892],[47.1227,44.22692],[47.13586,44.21828],[47.14967,44.21157],[47.16487,44.20558],[47.18046,44.20412],[47.19597,44.21052],[47.21173,44.21999],[47.22899,44.22061],[47.24901,44.20077],[47.27132,44.15879],[47.29459,44.10855],[47.31686,44.06909],[47.33562,44.04631],[47.3514,44.02968],[47.36877,44.00416],[47.3901,43.96793],[47.41054,43.93366],[47.42422,43.90872],[47.43248,43.89135],[47.44166,43.87985],[47.4532,43.87103],[47.46072,43.86057],[47.45946,43.84722],[47.45343,43.83367],[47.4511,43.82463],[47.45706,43.82195],[47.46922,43.82278],[47.4827,43.82033],[47.49435,43.80814],[47.50204,43.78912],[47.50189,43.77291],[47.49179,43.76322],[47.47655,43.75695],[47.46361,43.751],[47.45481,43.74349],[47.44906,43.73184],[47.4483,43.71465],[47.45147,43.69621],[47.45152,43.68288],[47.44588,43.67551],[47.43763,43.6692],[47.42704,43.65663],[47.41288,43.63667],[47.39738,43.62077],[47.38451,43.61747],[47.37633,43.61902],[47.37269,43.61413],[47.37323,43.60034],[47.37761,43.58211],[47.38515,43.56574],[47.3948,43.55346],[47.40337,43.54188],[47.40866,43.52831],[47.41534,43.51585],[47.4295,43.51257],[47.44886,43.52579],[47.46564,43.55476],[47.47563,43.59008],[47.48024,43.62026],[47.48321,43.6397],[47.4875,43.6512],[47.49436,43.66071],[47.50222,43.67289],[47.50753,43.68989],[47.51038,43.70949],[47.51577,43.72899],[47.5257,43.75044],[47.5362,43.77601],[47.54335,43.80362],[47.54659,43.8293],[47.54817,43.84952],[47.5531,43.86444],[47.56562,43.8776],[47.58355,43.88912],[47.60319,43.89533],[47.6258,43.89587],[47.65207,43.89284],[47.67403,43.88377],[47.67528,43.86095],[47.6476,43.81483],[47.6031,43.73742],[47.55958,43.63658],[47.52578,43.541],[47.50325,43.47134],[47.49242,43.42272],[47.49173,43.38404],[47.49437,43.35305],[47.49464,43.33021],[47.49513,43.31329],[47.50172,43.30247],[47.51631,43.3022],[47.53559,43.31155],[47.55422,43.3219],[47.56891,43.32746],[47.57912,43.32718],[47.58544,43.32116],[47.58837,43.31136],[47.58782,43.30095],[47.58389,43.29154],[47.57679,43.28127],[47.56498,43.26838],[47.54706,43.25477],[47.5264,43.24213],[47.50835,43.22907],[47.49583,43.21452],[47.49032,43.19921],[47.48956,43.18428],[47.4882,43.17102],[47.48555,43.15962],[47.48468,43.14892],[47.4853,43.13805],[47.48346,43.12681],[47.47665,43.11559],[47.46755,43.10513],[47.46156,43.09166],[47.46517,43.06492],[47.48809,43.02257],[47.53073,42.9796],[47.57337,42.95038],[47.59898,42.93314],[47.61626,42.91839],[47.64352,42.89991],[47.67802,42.87865],[47.70184,42.85937],[47.71113,42.84408],[47.71449,42.82981],[47.71679,42.80983],[47.71909,42.78469],[47.72135,42.7652],[47.72252,42.75465],[47.72192,42.74435],[47.72135,42.72582],[47.72507,42.69811],[47.74041,42.66719],[47.77527,42.638],[47.82614,42.60607],[47.88191,42.55886],[47.93713,42.49576],[47.98808,42.43717],[48.03222,42.3972],[48.07619,42.36114],[48.13193,42.30134],[48.19628,42.22188],[48.24932,42.15924],[48.28271,42.12562],[48.30271,42.10362],[48.31421,42.08251],[48.32497,42.05629],[48.34701,42.01506],[48.38246,41.96437],[48.42317,41.92591],[48.46554,41.906],[48.50901,41.89171],[48.54678,41.8743],[48.57118,41.85738],[48.58483,41.84615],[48.60015,41.83678],[48.62874,41.81805],[48.67477,41.78047],[48.72821,41.73166],[48.76928,41.69195],[48.79441,41.66407],[48.82169,41.63115],[48.86033,41.58673],[48.89798,41.54549],[48.92425,41.52012],[48.94186,41.5051],[48.95586,41.49059],[48.96934,41.47418],[48.9821,41.4587],[48.99231,41.44814],[49.00283,41.44222],[49.01659,41.43681],[49.03274,41.4257],[49.05343,41.40055],[49.07991,41.36168],[49.10565,41.3233],[49.12446,41.29564],[49.13707,41.27047],[49.14696,41.23351],[49.15612,41.18936],[49.165,41.15711],[49.17419,41.13699],[49.18719,41.10786],[49.21532,41.05629],[49.26828,40.98897],[49.3292,40.92712],[49.36944,40.88842],[49.39064,40.86844],[49.41362,40.85377],[49.44278,40.84185],[49.46974,40.83306],[49.49142,40.82313],[49.51029,40.81099],[49.52623,40.79857],[49.53469,40.78307],[49.53259,40.76051],[49.52412,40.73462],[49.517,40.71352],[49.51444,40.6997],[49.5159,40.68993],[49.521,40.68113],[49.52784,40.67292],[49.53318,40.66665],[49.53775,40.66136],[49.54609,40.65387],[49.55984,40.64399],[49.57751,40.63499],[49.60002,40.62904],[49.62664,40.625],[49.6523,40.61931],[49.67642,40.60893],[49.70293,40.59577],[49.73495,40.5848],[49.77267,40.57699],[49.80915,40.57122],[49.8393,40.56954],[49.8696,40.57415],[49.9096,40.58199],[49.96322,40.58657],[50.01882,40.58497],[50.05441,40.57925],[50.06713,40.57216],[50.07233,40.56452],[50.0805,40.555],[50.09414,40.5431],[50.11617,40.53082],[50.15288,40.51929],[50.19825,40.50785],[50.23288,40.49519],[50.25163,40.47924],[50.26514,40.46037],[50.28045,40.44322],[50.29862,40.43073],[50.31829,40.41967],[50.33665,40.40516],[50.3517,40.38258],[50.36348,40.3473],[50.37302,40.3066],[50.38117,40.27569],[50.38768,40.25542],[50.38991,40.24095],[50.38415,40.2385],[50.36963,40.25229],[50.34745,40.27545],[50.3178,40.30019],[50.28465,40.32172],[50.25388,40.3363],[50.22308,40.34481],[50.18847,40.35131],[50.15584,40.3569],[50.13195,40.35979],[50.11583,40.35923],[50.10178,40.35691],[50.08358,40.35464],[50.05927,40.35102],[50.03245,40.34326],[50.00797,40.33398],[49.98972,40.33026],[49.97754,40.33479],[49.96743,40.34372],[49.95612,40.35176],[49.94071,40.35746],[49.91956,40.36227],[49.89461,40.36374],[49.86974,40.3559],[49.84963,40.33816],[49.833,40.31652],[49.80835,40.29658],[49.76684,40.27943],[49.71088,40.26199],[49.64957,40.24228],[49.59501,40.22225],[49.55445,40.20254],[49.52588,40.1832],[49.50718,40.16623],[49.49833,40.14991],[49.49626,40.13087],[49.49295,40.11152],[49.47865,40.09503],[49.45657,40.07941],[49.44246,40.06207],[49.44264,40.04408],[49.45089,40.02857],[49.46158,40.01722],[49.47226,40.00826],[49.47997,39.99942],[49.48122,39.99107],[49.47504,39.98405],[49.46392,39.97714],[49.45178,39.96999],[49.44181,39.96352],[49.43511,39.95631],[49.43096,39.94672],[49.42868,39.93561],[49.42928,39.92263],[49.43382,39.90639],[49.43952,39.8892],[49.44075,39.87494],[49.43566,39.86461],[49.42811,39.85692],[49.42241,39.85005],[49.41974,39.84275],[49.41929,39.83561],[49.42048,39.82947],[49.42266,39.82361],[49.42377,39.81733],[49.42077,39.81128],[49.4128,39.80483],[49.40402,39.79595],[49.39968,39.78563],[49.39994,39.77641],[49.40141,39.76724],[49.40391,39.75545],[49.41037,39.74038],[49.41738,39.72472],[49.41591,39.71214],[49.40258,39.7014],[49.38132,39.68748],[49.3581,39.6684],[49.33872,39.64618],[49.32593,39.62414],[49.31694,39.60444],[49.30815,39.5855],[49.30003,39.56478],[49.294,39.54267],[49.291,39.52036],[49.29783,39.4957],[49.32519,39.46425],[49.36603,39.42982],[49.39622,39.40418],[49.40666,39.39065],[49.40696,39.38162],[49.40495,39.36897],[49.40308,39.35209],[49.40215,39.33775],[49.40047,39.33116],[49.39578,39.33199],[49.38887,39.33734],[49.38197,39.34398],[49.37642,39.34811],[49.37395,39.34554],[49.37642,39.33557],[49.38402,39.32206],[49.39449,39.30948],[49.40181,39.3004],[49.39939,39.29663],[49.38784,39.29974],[49.37105,39.30998],[49.34612,39.32467],[49.31151,39.33486],[49.277,39.32983],[49.25374,39.30376],[49.24336,39.25581],[49.23985,39.20033],[49.23641,39.15932],[49.22999,39.13332],[49.22195,39.10986],[49.21537,39.08479],[49.21012,39.05937],[49.19893,39.03513],[49.17096,39.01093],[49.12802,38.98867],[49.08834,38.97794],[49.06577,38.98166],[49.05814,38.99136],[49.05683,39.00057],[49.06075,39.00896],[49.07585,39.01691],[49.09953,39.02449],[49.12076,39.03359],[49.13544,39.04674],[49.14437,39.06411],[49.14472,39.08308],[49.13285,39.09932],[49.10992,39.10966],[49.08613,39.11773],[49.07211,39.13208],[49.06528,39.15316],[49.0563,39.17197],[49.03992,39.18333],[49.01559,39.18824],[48.98962,39.18795],[48.97203,39.18306],[48.96425,39.17444],[48.95973,39.1638],[48.95548,39.15347],[48.95247,39.14452],[48.94961,39.1368],[48.94548,39.13122],[48.94129,39.12842],[48.93865,39.12398],[48.93768,39.1094],[48.93894,39.08371],[48.94362,39.05588],[48.94773,39.02796],[48.94314,38.99316],[48.92934,38.95504],[48.91363,38.92464],[48.89999,38.90348],[48.8847,38.88747],[48.86397,38.87436],[48.84488,38.85993],[48.83715,38.84102],[48.83987,38.81932],[48.8488,38.78573],[48.86073,38.714],[48.87035,38.60119],[48.87535,38.49097],[48.87701,38.41535],[48.87604,38.36313],[48.87439,38.32158],[48.87601,38.2854],[48.88335,38.24169],[48.89743,38.17551],[48.91737,38.08674],[48.93554,38.00377],[48.94383,37.95261],[48.9456,37.92578],[48.95051,37.90447],[48.96317,37.88009],[48.97849,37.85447],[48.98713,37.83508],[48.98859,37.82187],[48.99117,37.80443],[49.0028,37.77466],[49.02981,37.73216],[49.07581,37.68154],[49.14305,37.62898],[49.23508,37.57798],[49.36038,37.53164],[49.53156,37.49491],[49.71645,37.47222],[49.84283,37.46557],[49.90037,37.46862],[49.93252,37.46966],[49.95347,37.46583],[49.9575,37.46267],[49.95075,37.46202],[49.94836,37.45912],[49.9727,37.44848],[50.03752,37.43002],[50.12062,37.40892],[50.18411,37.38726],[50.21603,37.36265],[50.22876,37.3361],[50.2369,37.31044],[50.24683,37.28661],[50.25908,37.26354],[50.27533,37.235],[50.29794,37.1979],[50.32903,37.15928],[50.37207,37.12231],[50.42298,37.08446],[50.46659,37.05189],[50.50066,37.02972],[50.54361,37.00808],[50.5969,36.98276],[50.63893,36.9631],[50.66478,36.9493],[50.69432,36.93125],[50.75646,36.89842],[50.86223,36.84612],[50.99475,36.78718],[51.15269,36.7373],[51.34328,36.69586],[51.54245,36.65798],[51.72971,36.62566],[51.91,36.60878],[52.08689,36.61836],[52.25984,36.64911],[52.43221,36.68385],[52.60566,36.71523],[52.77801,36.74747],[52.958,36.78548],[53.15924,36.82811],[53.37165,36.86591],[53.58472,36.89096],[53.78519,36.90838],[53.92525,36.92421],[53.98179,36.93054],[53.97879,36.92093],[53.93944,36.90516],[53.88643,36.89314],[53.84408,36.88499],[53.8186,36.88067],[53.79998,36.88092],[53.77998,36.88255],[53.75848,36.8813],[53.73508,36.87779],[53.70382,36.87616],[53.6641,36.8766],[53.63234,36.87485],[53.62475,36.87013],[53.63582,36.86595],[53.64648,36.86337],[53.64784,36.85938],[53.6511,36.85024],[53.67695,36.8358],[53.73721,36.82089],[53.8119,36.80951],[53.87103,36.80367],[53.92247,36.80672],[53.97714,36.81813],[54.01484,36.83769],[54.02775,36.87396],[54.02911,36.92207],[54.02443,36.95798],[54.01386,36.9741],[54.00407,36.98477],[54.00232,37.00207],[54.00321,37.02821],[53.99513,37.06294],[53.97652,37.11104],[53.95386,37.17061],[53.93386,37.22732],[53.92079,37.27562],[53.9133,37.32306],[53.90601,37.37895],[53.89453,37.44313],[53.87927,37.49969],[53.86508,37.53966],[53.85355,37.57906],[53.83902,37.65471],[53.8198,37.79039],[53.80559,37.94139],[53.80425,38.04009],[53.8132,38.09204],[53.82653,38.14028],[53.83886,38.19155],[53.84712,38.23405],[53.85207,38.27228],[53.85395,38.31602],[53.85239,38.35794],[53.84842,38.38481],[53.84324,38.39903],[53.8383,38.41066],[53.83393,38.4271],[53.8282,38.4548],[53.82203,38.49442],[53.82061,38.54277],[53.82668,38.59556],[53.8403,38.64528],[53.86266,38.6904],[53.88838,38.73358],[53.90561,38.77086],[53.91337,38.79823],[53.92014,38.81798],[53.92819,38.83529],[53.93617,38.85305],[53.94517,38.8706],[53.9553,38.88696],[53.96363,38.90058],[53.9666,38.9097],[53.96476,38.91825],[53.96046,38.9319],[53.9505,38.94701],[53.93351,38.95566],[53.91898,38.95884],[53.91507,38.96359],[53.91652,38.97097],[53.91423,38.97686],[53.90733,38.97931],[53.89799,38.97956],[53.88713,38.98112],[53.87828,38.98695],[53.87434,38.99723],[53.87372,39.01162],[53.86944,39.02766],[53.85334,39.03969],[53.82779,39.04586],[53.80365,39.04868],[53.78595,39.04868],[53.77421,39.04554],[53.76894,39.04197],[53.76631,39.04159],[53.75719,39.0478],[53.74074,39.06489],[53.72601,39.08919],[53.71632,39.10483],[53.70949,39.10183],[53.70815,39.0871],[53.71371,39.07266],[53.7214,39.0655],[53.72383,39.06592],[53.71514,39.07113],[53.70009,39.08176],[53.69058,39.09958],[53.68864,39.12067],[53.68873,39.13914],[53.69177,39.15329],[53.70054,39.16407],[53.70822,39.17344],[53.7075,39.18618],[53.70369,39.20606],[53.70072,39.22567],[53.69064,39.23121],[53.67313,39.22095],[53.66159,39.19929],[53.66311,39.16352],[53.66976,39.12589],[53.66832,39.11255],[53.65372,39.1232],[53.63491,39.13942],[53.62396,39.15648],[53.62186,39.17518],[53.61961,39.19087],[53.61145,39.20127],[53.60246,39.21031],[53.59856,39.22147],[53.59709,39.23313],[53.59206,39.23851],[53.58278,39.2309],[53.57402,39.21627],[53.56724,39.21095],[53.5622,39.22484],[53.56307,39.2531],[53.56822,39.28058],[53.57021,39.29917],[53.56927,39.31378],[53.56773,39.32529],[53.56251,39.33008],[53.55591,39.3341],[53.55427,39.34386],[53.55261,39.3523],[53.54386,39.3514],[53.53264,39.34618],[53.5212,39.34336],[53.50222,39.34107],[53.47552,39.33547],[53.45189,39.32835],[53.43827,39.32666],[53.43208,39.33225],[53.42717,39.33651],[53.42001,39.33329],[53.41128,39.3265],[53.40259,39.32151],[53.3949,39.32075],[53.39055,39.32594],[53.39029,39.33532],[53.38912,39.34304],[53.38309,39.34592],[53.37466,39.34539],[53.36743,39.34318],[53.3637,39.34067],[53.36377,39.33962],[53.36338,39.34158],[53.35736,39.34598],[53.34474,39.34874],[53.32801,39.34672],[53.31118,39.34237],[53.2978,39.34037],[53.29077,39.34268],[53.29126,39.34823],[53.29312,39.3543],[53.28864,39.35827],[53.27887,39.36048],[53.26753,39.36352],[53.25397,39.36799],[53.2349,39.37076],[53.20708,39.36771],[53.17811,39.3578],[53.16686,39.34504],[53.17425,39.33344],[53.17897,39.32143],[53.17249,39.30649],[53.16443,39.28961],[53.16157,39.2706],[53.16391,39.24659],[53.16782,39.21976],[53.16793,39.19834],[53.16094,39.19512],[53.14856,39.22612],[53.13625,39.28481],[53.12273,39.33988],[53.10374,39.37671],[53.08824,39.4018],[53.08794,39.42101],[53.1005,39.43742],[53.11541,39.45181],[53.12533,39.46402],[53.13186,39.47597],[53.14104,39.48921],[53.15549,39.50749],[53.17592,39.5401],[53.20309,39.58737],[53.23651,39.63199],[53.27109,39.65733],[53.29162,39.66223],[53.28691,39.6542],[53.26662,39.63849],[53.24685,39.61844],[53.23395,39.59843],[53.22573,39.58169],[53.21861,39.5674],[53.21697,39.55254],[53.23409,39.54017],[53.28077,39.53711],[53.34846,39.54075],[53.40836,39.54078],[53.44055,39.53159],[53.45319,39.51649],[53.46482,39.50299],[53.48123,39.49467],[53.49907,39.48966],[53.52019,39.48573],[53.54445,39.48183],[53.56228,39.47825],[53.56886,39.47727],[53.5707,39.48083],[53.57434,39.48856],[53.5766,39.49741],[53.57121,39.50476],[53.5652,39.51307],[53.57182,39.52198],[53.58931,39.52336],[53.60642,39.51561],[53.62007,39.50867],[53.63572,39.51083],[53.65658,39.51969],[53.67912,39.52599],[53.69866,39.52504],[53.71256,39.5208],[53.71996,39.51895],[53.7232,39.52166],[53.7248,39.52924],[53.72248,39.54014],[53.71049,39.55058],[53.68613,39.55871],[53.65673,39.56556],[53.63797,39.57257],[53.63624,39.57975],[53.64206,39.58694],[53.64653,39.59676],[53.6458,39.61001],[53.63448,39.62136],[53.6108,39.62604],[53.58324,39.62648],[53.56414,39.62974],[53.55728,39.63925],[53.55759,39.65273],[53.55649,39.66651],[53.54722,39.67436],[53.53461,39.669],[53.52928,39.6537],[53.53029,39.64408],[53.52514,39.65261],[53.50557,39.67517],[53.47753,39.69513],[53.4543,39.69992],[53.44472,39.69176],[53.44637,39.68357],[53.44715,39.68364],[53.4389,39.686],[53.4284,39.68034],[53.42753,39.66591],[53.43386,39.65165],[53.43196,39.64749],[53.41928,39.66202],[53.41087,39.69755],[53.41156,39.73738],[53.41132,39.75992],[53.40571,39.76542],[53.39763,39.76678],[53.39061,39.77061],[53.39363,39.78082],[53.41593,39.80312],[53.44961,39.83388],[53.47433,39.8581],[53.48148,39.87013],[53.47987,39.87841],[53.48122,39.88767],[53.48969,39.89523],[53.503,39.89945],[53.51614,39.90127],[53.52501,39.90272],[53.52902,39.90631],[53.52859,39.91257],[53.52702,39.9205],[53.53155,39.93047],[53.5428,39.94229],[53.55388,39.95444],[53.5604,39.96483],[53.5622,39.97083],[53.56138,39.97205],[53.56055,39.97164],[53.55748,39.97381],[53.54582,39.97899],[53.5245,39.98335],[53.50035,39.98609],[53.47916,39.99136],[53.46021,40.00026],[53.44104,40.0087],[53.42115,40.01328],[53.40087,40.01334],[53.3793,40.00738],[53.35428,39.99338],[53.32863,39.97599],[53.30931,39.96364],[53.297,39.95702],[53.28844,39.95252],[53.28224,39.95061],[53.27521,39.95274],[53.26493,39.9573],[53.25037,39.96397],[53.22517,39.9761],[53.18923,39.99008],[53.15663,39.9951],[53.13256,39.9903],[53.10552,39.98392],[53.07526,39.98116],[53.05769,39.98336],[53.05775,39.98935],[53.06163,39.99509],[53.05012,39.99561],[53.01828,39.99086],[52.98231,39.98861],[52.95544,39.9963],[52.93406,40.01032],[52.91285,40.01779],[52.89716,40.01208],[52.89535,39.99873],[52.90333,39.98299],[52.91007,39.96359],[52.91523,39.93825],[52.92658,39.91059],[52.94614,39.88743],[52.9689,39.86738],[52.99297,39.84244],[53.01962,39.81275],[53.04328,39.78884],[53.05308,39.77793],[53.04515,39.77803],[53.03174,39.77959],[53.02882,39.77187],[53.03391,39.75959],[53.03134,39.75765],[53.01341,39.76946],[52.98763,39.79168],[52.96564,39.82081],[52.94711,39.84683],[52.92516,39.86356],[52.90326,39.87826],[52.89008,39.89974],[52.88083,39.92868],[52.85672,39.96344],[52.81239,40.00052],[52.76819,40.03318],[52.74301,40.06225],[52.73747,40.09212],[52.74262,40.11861],[52.75037,40.13846],[52.75491,40.15649],[52.74985,40.17616],[52.73908,40.19526],[52.73512,40.21139],[52.7336,40.22674],[52.72083,40.24713],[52.70448,40.28498],[52.70375,40.35483],[52.72,40.44274],[52.74379,40.51415],[52.77508,40.56517],[52.81189,40.61236],[52.84091,40.65513],[52.85387,40.6857],[52.85177,40.70295],[52.83892,40.7105],[52.82579,40.71587],[52.82156,40.72465],[52.82363,40.73451],[52.82604,40.74236],[52.83061,40.75003],[52.84082,40.75755],[52.85196,40.76193],[52.8576,40.76392],[52.8581,40.76749],[52.85649,40.7742],[52.85551,40.78691],[52.86158,40.81695],[52.87931,40.86934],[52.90018,40.92953],[52.91033,40.98491],[52.91093,41.03403],[52.9164,41.06856],[52.93186,41.07961],[52.94657,41.07288],[52.95236,41.0604],[52.95232,41.04893],[52.95064,41.03855],[52.94927,41.02654],[52.95357,41.00967],[52.96894,40.98573],[52.99056,40.95754],[53.0093,40.93037],[53.02699,40.90753],[53.04841,40.89103],[53.06846,40.88086],[53.08301,40.87587],[53.09488,40.87471],[53.10357,40.87452],[53.10425,40.87208],[53.09442,40.86617],[53.07791,40.85681],[53.06598,40.8445],[53.0686,40.83294],[53.08183,40.82453],[53.09219,40.81547],[53.09412,40.80404],[53.09438,40.79341],[53.10026,40.78558],[53.11306,40.78077],[53.13231,40.77836],[53.1559,40.77759],[53.17995,40.78102],[53.20523,40.79228],[53.22962,40.80544],[53.2423,40.8069],[53.24241,40.79494],[53.24751,40.78285],[53.2719,40.77982],[53.30461,40.78286],[53.32446,40.78762],[53.32958,40.79498],[53.33193,40.80607],[53.33895,40.81948],[53.3522,40.83174],[53.36764,40.8378],[53.37613,40.83482],[53.37378,40.82443],[53.3682,40.80994],[53.36948,40.79408],[53.38187,40.77973],[53.40216,40.76924],[53.42303,40.76237],[53.44034,40.7572],[53.45398,40.75215],[53.46431,40.74757],[53.47207,40.7454],[53.47923,40.74645],[53.4896,40.75069],[53.50655,40.75824],[53.52647,40.76828],[53.54073,40.78193],[53.54679,40.80304],[53.55056,40.83114],[53.55932,40.86042],[53.57434,40.88437],[53.59093,40.8977],[53.60582,40.90076],[53.61789,40.89765],[53.62465,40.89008],[53.62711,40.88114],[53.63231,40.87643],[53.64214,40.87542],[53.64899,40.87217],[53.64877,40.86586],[53.6458,40.86027],[53.64321,40.85583],[53.64114,40.84956],[53.64119,40.83884],[53.64499,40.82538],[53.65062,40.81449],[53.65358,40.80754],[53.65147,40.80106],[53.64688,40.79218],[53.64581,40.7781],[53.65264,40.75599],[53.66653,40.73065],[53.68389,40.71386],[53.69988,40.70829],[53.70925,40.70418],[53.71182,40.69634],[53.71093,40.6877],[53.70696,40.67776],[53.70263,40.66394],[53.70795,40.64925],[53.72941,40.63959],[53.76447,40.63691],[53.80659,40.63787],[53.84478,40.64049],[53.87234,40.64791],[53.8967,40.66085],[53.92304,40.67334],[53.94641,40.67905],[53.96663,40.67719],[53.98753,40.6723],[54.00809,40.67003],[54.02764,40.67258],[54.04795,40.67794],[54.06613,40.68338],[54.07702,40.68798],[54.08208,40.69248],[54.08487,40.69841],[54.08213,40.70656],[54.07498,40.71498],[54.07952,40.72074],[54.10436,40.72419],[54.13964,40.72857],[54.17703,40.73319],[54.20788,40.73334],[54.22058,40.72735],[54.21796,40.71641],[54.21305,40.70372],[54.2159,40.6949],[54.23833,40.69073],[54.28983,40.6878],[54.34791,40.68637],[54.37341,40.68813],[54.37229,40.69422],[54.38033,40.70504],[54.39689,40.71693],[54.39081,40.72519],[54.35779,40.72859],[54.32492,40.73038],[54.30649,40.73669],[54.2966,40.75066],[54.28784,40.77075],[54.27741,40.79411],[54.26737,40.81662],[54.26033,40.83435],[54.25728,40.84704],[54.25801,40.85614],[54.26041,40.86205],[54.26255,40.86626],[54.26384,40.87165],[54.26203,40.87707],[54.25434,40.8787],[54.24439,40.87976],[54.24053,40.88595],[54.24558,40.89422],[54.25449,40.89888],[54.26292,40.90138],[54.27334,40.90758],[54.28954,40.91861],[54.31105,40.92809],[54.33883,40.92816],[54.37493,40.91624],[54.4121,40.89817],[54.43846,40.88106],[54.45082,40.86602],[54.45169,40.85164],[54.44684,40.83678],[54.45576,40.8252],[54.4983,40.82445],[54.56037,40.83287],[54.60791,40.8425],[54.63457,40.853],[54.65745,40.8672],[54.68284,40.88363],[54.70684,40.90347],[54.72722,40.92743],[54.74066,40.949],[54.74504,40.96491],[54.74312,40.97755],[54.73798,40.98786]]]}}]}